Postal Code,Place Name,County,State Code,State
99571,Cold Bay,Aleutians East,AK,Alaska
99661,Sand Point,Aleutians East,AK,Alaska
99523,Anchorage,Anchorage Municipality,AK,Alaska
99529,Anchorage,Anchorage Municipality,AK,Alaska
99577,Eagle River,Anchorage Municipality,AK,Alaska
99551,Akiachak,Bethel Census Area,AK,Alaska
99559,Bethel,Bethel Census Area,AK,Alaska
99607,Kalskag,Bethel Census Area,AK,Alaska
99679,Tuluksak,Bethel Census Area,AK,Alaska
99707,Fairbanks,Fairbanks North Star,AK,Alaska
99709,Fairbanks,Fairbanks North Star,AK,Alaska
99611,Kenai,Kenai Peninsula,AK,Alaska
99901,Ketchikan,Ketchikan Gateway,AK,Alaska
99643,Old Harbor,Kodiak Island,AK,Alaska
99563,Chevak,Kusilvak,AK,Alaska
99581,Emmonak,Kusilvak,AK,Alaska
99623,Wasilla,Matanuska-Susitna Borough,AK,Alaska
99667,Skwentna,Matanuska-Susitna Borough,AK,Alaska
99721,Anaktuvuk Pass,North Slope,AK,Alaska
99761,Noatak,Northwest Arctic,AK,Alaska
99923,Hyder,Prince of Wales-Hyder,AK,Alaska
99689,Yakutat,Skagway-Hoonah-Angoon,AK,Alaska
99829,Hoonah,Skagway-Hoonah-Angoon,AK,Alaska
99833,Petersburg,Wrangell-Petersburg (C,AK,Alaska
99929,Wrangell,Wrangell-Petersburg (C,AK,Alaska
99733,Circle,Yukon-Koyukuk (CA),AK,Alaska
99767,Rampart,Yukon-Koyukuk (CA),AK,Alaska
36067,Prattville,Autauga,AL,Alabama
36749,Jones,Autauga,AL,Alabama
36527,Spanish Fort,Baldwin,AL,Alabama
36551,Loxley,Baldwin,AL,Alabama
36559,Montrose,Baldwin,AL,Alabama
36017,Clio,Barbour,AL,Alabama
36793,Lawley,Bibb,AL,Alabama
36061,Perote,Bullock,AL,Alabama
36037,Greenville,Butler,AL,Alabama
36277,Weaver,Calhoun,AL,Alabama
35983,Leesburg,Cherokee,AL,Alabama
35171,Thorsby,Chilton,AL,Alabama
36913,Melvin,Choctaw,AL,Alabama
36919,Silas,Choctaw,AL,Alabama
36451,Grove Hill,Clarke,AL,Alabama
36251,Ashland,Clay,AL,Alabama
36269,Muscadine,Cleburne,AL,Alabama
36473,Range,Conecuh,AL,Alabama
35089,Kellyton,Coosa,AL,Alabama
36467,Opp,Covington,AL,Alabama
35053,Crane Hill,Cullman,AL,Alabama
35083,Holly Pond,Cullman,AL,Alabama
36761,Minter,Dallas,AL,Alabama
36767,Orrville,Dallas,AL,Alabama
35963,Dawson,DeKalb,AL,Alabama
35593,Vina,Franklin,AL,Alabama
36313,Bellwood,Geneva,AL,Alabama
35491,West Greene,Greene,AL,Alabama
36353,Newville,Henry,AL,Alabama
36373,Shorterville,Henry,AL,Alabama
36319,Columbia,Houston,AL,Alabama
36343,Gordon,Houston,AL,Alabama
35771,Section,Jackson,AL,Alabama
35023,Bessemer,Jefferson,AL,Alabama
35111,Mc Calla,Jefferson,AL,Alabama
35117,Mount Olive,Jefferson,AL,Alabama
35201,Birmingham,Jefferson,AL,Alabama
35221,Birmingham,Jefferson,AL,Alabama
35291,Birmingham,Jefferson,AL,Alabama
35617,Cloverdale,Lauderdale,AL,Alabama
35677,Waterloo,Lauderdale,AL,Alabama
36877,Smiths Station,Lee,AL,Alabama
35671,Tanner,Limestone,AL,Alabama
36083,Tuskegee,Macon,AL,Alabama
35759,Meridianville,Madison,AL,Alabama
35801,Huntsville,Madison,AL,Alabama
35803,Huntsville,Madison,AL,Alabama
35809,Huntsville,Madison,AL,Alabama
35897,Huntsville,Madison,AL,Alabama
35899,Huntsville,Madison,AL,Alabama
35543,Bear Creek,Marion,AL,Alabama
35747,Grant,Marshall,AL,Alabama
35951,Albertville,Marshall,AL,Alabama
36523,Coden,Mobile,AL,Alabama
36541,Grand Bay,Mobile,AL,Alabama
36571,Saraland,Mobile,AL,Alabama
36587,Wilmer,Mobile,AL,Alabama
36607,Mobile,Mobile,AL,Alabama
36671,Mobile,Mobile,AL,Alabama
36691,Mobile,Mobile,AL,Alabama
36457,Megargel,Monroe,AL,Alabama
36013,Cecil,Montgomery,AL,Alabama
36107,Montgomery,Montgomery,AL,Alabama
36109,Montgomery,Montgomery,AL,Alabama
36131,Montgomery,Montgomery,AL,Alabama
36191,Montgomery,Montgomery,AL,Alabama
35603,Decatur,Morgan,AL,Alabama
35447,Carrollton,Pickens,AL,Alabama
35461,Ethelsville,Pickens,AL,Alabama
36263,Graham,Randolph,AL,Alabama
36871,Pittsview,Russell,AL,Alabama
35051,Columbiana,Shelby,AL,Alabama
36901,Bellamy,Sumter,AL,Alabama
35149,Sycamore,Talladega,AL,Alabama
35401,Tuscaloosa,Tuscaloosa,AL,Alabama
35407,Tuscaloosa,Tuscaloosa,AL,Alabama
35449,Coaling,Tuscaloosa,AL,Alabama
35573,Kansas,Walker,AL,Alabama
36529,Deer Park,Washington,AL,Alabama
36583,Tibbie,Washington,AL,Alabama
72073,Humphrey,Arkansas,AR,Arkansas
71663,Portland,Ashley,AR,Arkansas
72617,Big Flat,Baxter,AR,Arkansas
72623,Clarkridge,Baxter,AR,Arkansas
72719,Centerton,Benton,AR,Arkansas
72733,Gateway,Benton,AR,Arkansas
72739,Hiwasse,Benton,AR,Arkansas
71647,Hermitage,Bradley,AR,Arkansas
71671,Warren,Bradley,AR,Arkansas
72613,Beaver,Carroll,AR,Arkansas
71999,Arkadelphia,Clark,AR,Arkansas
72461,Rector,Clay,AR,Arkansas
71861,Taylor,Columbia,AR,Arkansas
72421,Cash,Craighead,AR,Arkansas
72467,State University,Craighead,AR,Arkansas
72379,Snow Lake,Desha,AR,Arkansas
72047,Enola,Faulkner,AR,Arkansas
72173,Vilonia,Faulkner,AR,Arkansas
72949,Ozark,Franklin,AR,Arkansas
71909,Hot Springs Village,Garland,AR,Arkansas
71933,Bonnerdale,Hot Spring,AR,Arkansas
71941,Donaldson,Hot Spring,AR,Arkansas
72019,Benton,Hot Spring,AR,Arkansas
71971,Umpire,Howard,AR,Arkansas
72503,Batesville,Independence,AR,Arkansas
72043,Diaz,Jackson,AR,Arkansas
72169,Tupelo,Jackson,AR,Arkansas
72431,Grubbs,Jackson,AR,Arkansas
72469,Strawberry,Lawrence,AR,Arkansas
72341,Haynes,Lee,AR,Arkansas
72661,Oakland,Marion,AR,Arkansas
71837,Fouke,Miller,AR,Arkansas
72313,Bassett,Mississippi,AR,Arkansas
71711,Camden,Ouachita,AR,Arkansas
72353,Lambrook,Phillips,AR,Arkansas
72367,Mellwood,Phillips,AR,Arkansas
72383,Turner,Phillips,AR,Arkansas
72679,Tilly,Pope,AR,Arkansas
72823,Atkins,Pope,AR,Arkansas
72053,College Station,Pulaski,AR,Arkansas
72103,Mabelvale,Pulaski,AR,Arkansas
72211,Little Rock,Pulaski,AR,Arkansas
72221,Little Rock,Pulaski,AR,Arkansas
72223,Little Rock,Pulaski,AR,Arkansas
72227,Little Rock,Pulaski,AR,Arkansas
72089,Bryant,Saline,AR,Arkansas
72167,Traskwood,Saline,AR,Arkansas
72901,Fort Smith,Sebastian,AR,Arkansas
72923,Barling,Sebastian,AR,Arkansas
72937,Hackett,Sebastian,AR,Arkansas
72577,Sidney,Sharp,AR,Arkansas
72533,Fifty Six,Stone,AR,Arkansas
72031,Clinton,Van Buren,AR,Arkansas
72701,Fayetteville,Washington,AR,Arkansas
72727,Elkins,Washington,AR,Arkansas
72959,Winslow,Washington,AR,Arkansas
72139,Russell,White,AR,Arkansas
72101,Mc Crory,Woodruff,AR,Arkansas
85607,Douglas,Cochise,AZ,Arizona
85627,Pomerene,Cochise,AZ,Arizona
85643,Willcox,Cochise,AZ,Arizona
85931,Forest Lakes,Coconino,AZ,Arizona
86011,Flagstaff,Coconino,AZ,Arizona
86017,Munds Park,Coconino,AZ,Arizona
86351,Sedona,Coconino,AZ,Arizona
85531,Central,Graham,AZ,Arizona
85009,Phoenix,Maricopa,AZ,Arizona
85021,Phoenix,Maricopa,AZ,Arizona
85027,Phoenix,Maricopa,AZ,Arizona
85037,Phoenix,Maricopa,AZ,Arizona
85061,Phoenix,Maricopa,AZ,Arizona
85087,New River,Maricopa,AZ,Arizona
85201,Mesa,Maricopa,AZ,Arizona
85213,Mesa,Maricopa,AZ,Arizona
85259,Scottsdale,Maricopa,AZ,Arizona
85297,Gilbert,Maricopa,AZ,Arizona
85303,Glendale,Maricopa,AZ,Arizona
85331,Cave Creek,Maricopa,AZ,Arizona
85361,Wittmann,Maricopa,AZ,Arizona
85363,Youngtown,Maricopa,AZ,Arizona
85381,Peoria,Maricopa,AZ,Arizona
86413,Golden Valley,Mohave,AZ,Arizona
86441,Dolan Springs,Mohave,AZ,Arizona
85933,Overgaard,Navajo,AZ,Arizona
86029,Sun Valley,Navajo,AZ,Arizona
85601,Arivaca,Pima,AZ,Arizona
85619,Mount Lemmon,Pima,AZ,Arizona
85639,Topawa,Pima,AZ,Arizona
85703,Tucson,Pima,AZ,Arizona
85711,Tucson,Pima,AZ,Arizona
85717,Tucson,Pima,AZ,Arizona
85733,Tucson,Pima,AZ,Arizona
85751,Tucson,Pima,AZ,Arizona
85121,Bapchule,Pinal,AZ,Arizona
85147,Sacaton,Pinal,AZ,Arizona
85193,Casa Grande,Pinal,AZ,Arizona
85621,Nogales,Santa Cruz,AZ,Arizona
86323,Chino Valley,Yavapai,AZ,Arizona
86341,Sedona,Yavapai,AZ,Arizona
85333,Dateland,Yuma,AZ,Arizona
85369,Yuma,Yuma,AZ,Arizona
94541,Hayward,Alameda,CA,California
94543,Hayward,Alameda,CA,California
94603,Oakland,Alameda,CA,California
94613,Oakland,Alameda,CA,California
94621,Oakland,Alameda,CA,California
94649,Oakland,Alameda,CA,California
94709,Berkeley,Alameda,CA,California
95629,Fiddletown,Amador,CA,California
95917,Biggs,Butte,CA,California
95929,Chico,Butte,CA,California
95233,Hathaway Pines,Calaveras,CA,California
95257,Wilseyville,Calaveras,CA,California
95987,Williams,Colusa,CA,California
94513,Brentwood,Contra Costa,CA,California
94529,Concord,Contra Costa,CA,California
94531,Antioch,Contra Costa,CA,California
94547,Hercules,Contra Costa,CA,California
94561,Oakley,Contra Costa,CA,California
94583,San Ramon,Contra Costa,CA,California
94597,Walnut Creek,Contra Costa,CA,California
95531,Crescent City,Del Norte,CA,California
95633,Garden Valley,El Dorado,CA,California
95651,Lotus,El Dorado,CA,California
96157,South Lake Tahoe,El Dorado,CA,California
93607,Burrel,Fresno,CA,California
93701,Fresno,Fresno,CA,California
93703,Fresno,Fresno,CA,California
93761,Fresno,Fresno,CA,California
95549,Kneeland,Humboldt,CA,California
95569,Redcrest,Humboldt,CA,California
92227,Brawley,Imperial,CA,California
92233,Calipatria,Imperial,CA,California
92243,El Centro,Imperial,CA,California
92251,Imperial,Imperial,CA,California
93241,Lamont,Kern,CA,California
93251,Mc Kittrick,Kern,CA,California
93263,Shafter,Kern,CA,California
93283,Weldon,Kern,CA,California
93287,Woody,Kern,CA,California
93307,Bakersfield,Kern,CA,California
93383,Bakersfield,Kern,CA,California
93523,Edwards,Kern,CA,California
93581,Tehachapi,Kern,CA,California
93239,Kettleman City,Kings,CA,California
95443,Glenhaven,Lake,CA,California
95461,Middletown,Lake,CA,California
95467,Hidden Valley Lake,Lake,CA,California
96137,Westwood,Lassen,CA,California
90001,Los Angeles,Los Angeles,CA,California
90007,Los Angeles,Los Angeles,CA,California
90011,Los Angeles,Los Angeles,CA,California
90017,Los Angeles,Los Angeles,CA,California
90019,Los Angeles,Los Angeles,CA,California
90023,Los Angeles,Los Angeles,CA,California
90031,Los Angeles,Los Angeles,CA,California
90053,Los Angeles,Los Angeles,CA,California
90059,Los Angeles,Los Angeles,CA,California
90067,Los Angeles,Los Angeles,CA,California
90071,Los Angeles,Los Angeles,CA,California
90073,Los Angeles,Los Angeles,CA,California
90089,Los Angeles,Los Angeles,CA,California
90239,Downey,Los Angeles,CA,California
90247,Gardena,Los Angeles,CA,California
90263,Malibu,Los Angeles,CA,California
90401,Santa Monica,Los Angeles,CA,California
90403,Santa Monica,Los Angeles,CA,California
90407,Santa Monica,Los Angeles,CA,California
90703,Cerritos,Los Angeles,CA,California
90731,San Pedro,Los Angeles,CA,California
90749,Carson,Los Angeles,CA,California
90803,Long Beach,Los Angeles,CA,California
90833,Long Beach,Los Angeles,CA,California
90847,Long Beach,Los Angeles,CA,California
91009,Duarte,Los Angeles,CA,California
91121,Pasadena,Los Angeles,CA,California
91129,Pasadena,Los Angeles,CA,California
91199,Pasadena,Los Angeles,CA,California
91303,Canoga Park,Los Angeles,CA,California
91309,Canoga Park,Los Angeles,CA,California
91331,Pacoima,Los Angeles,CA,California
91367,Woodland Hills,Los Angeles,CA,California
91381,Stevenson Ranch,Los Angeles,CA,California
91387,Canyon Country,Los Angeles,CA,California
91393,North Hills,Los Angeles,CA,California
91411,Van Nuys,Los Angeles,CA,California
91423,Sherman Oaks,Los Angeles,CA,California
91499,Van Nuys,Los Angeles,CA,California
91711,Claremont,Los Angeles,CA,California
91733,South El Monte,Los Angeles,CA,California
91771,Rosemead,Los Angeles,CA,California
91801,Alhambra,Los Angeles,CA,California
93553,Pearblossom,Los Angeles,CA,California
93563,Valyermo,Los Angeles,CA,California
93601,Ahwahnee,Madera,CA,California
93637,Madera,Madera,CA,California
94903,San Rafael,Marin,CA,California
94933,Forest Knolls,Marin,CA,California
94949,Novato,Marin,CA,California
95311,Coulterville,Mariposa,CA,California
95429,Dos Rios,Mendocino,CA,California
95317,El Nido,Merced,CA,California
95369,Snelling,Merced,CA,California
93529,June Lake,Mono,CA,California
93901,Salinas,Monterey,CA,California
93923,Carmel,Monterey,CA,California
94559,Napa,Napa,CA,California
94573,Rutherford,Napa,CA,California
95959,Nevada City,Nevada,CA,California
90631,La Habra,Orange,CA,California
92623,Irvine,Orange,CA,California
92627,Costa Mesa,Orange,CA,California
92647,Huntington Beach,Orange,CA,California
92657,Newport Coast,Orange,CA,California
92683,Westminster,Orange,CA,California
92693,San Juan Capistrano,Orange,CA,California
92707,Santa Ana,Orange,CA,California
92801,Anaheim,Orange,CA,California
92809,Anaheim,Orange,CA,California
92821,Brea,Orange,CA,California
92831,Fullerton,Orange,CA,California
92857,Orange,Orange,CA,California
92861,Villa Park,Orange,CA,California
92863,Orange,Orange,CA,California
92867,Orange,Orange,CA,California
92899,Anaheim,Orange,CA,California
95603,Auburn,Placer,CA,California
95701,Alta,Placer,CA,California
95713,Colfax,Placer,CA,California
95717,Gold Run,Placer,CA,California
95747,Roseville,Placer,CA,California
95923,Canyon Dam,Plumas,CA,California
95947,Greenville,Plumas,CA,California
95971,Quincy,Plumas,CA,California
92203,Indio,Riverside,CA,California
92503,Riverside,Riverside,CA,California
92507,Riverside,Riverside,CA,California
92551,Moreno Valley,Riverside,CA,California
92557,Moreno Valley,Riverside,CA,California
92567,Nuevo,Riverside,CA,California
92581,San Jacinto,Riverside,CA,California
92593,Temecula,Riverside,CA,California
94207,Sacramento,Sacramento,CA,California
94229,Sacramento,Sacramento,CA,California
94261,Sacramento,Sacramento,CA,California
94273,Sacramento,Sacramento,CA,California
94291,Sacramento,Sacramento,CA,California
95621,Citrus Heights,Sacramento,CA,California
95813,Sacramento,Sacramento,CA,California
95819,Sacramento,Sacramento,CA,California
92311,Barstow,San Bernardino,CA,California
92317,Blue Jay,San Bernardino,CA,California
92333,Fawnskin,San Bernardino,CA,California
92347,Hinkley,San Bernardino,CA,California
92357,Loma Linda,San Bernardino,CA,California
92363,Needles,San Bernardino,CA,California
92369,Patton,San Bernardino,CA,California
92377,Rialto,San Bernardino,CA,California
92399,Yucaipa,San Bernardino,CA,California
92401,San Bernardino,San Bernardino,CA,California
92413,San Bernardino,San Bernardino,CA,California
91909,Chula Vista,San Diego,CA,California
91921,Chula Vista,San Diego,CA,California
91943,La Mesa,San Diego,CA,California
91951,National City,San Diego,CA,California
92003,Bonsall,San Diego,CA,California
92009,Carlsbad,San Diego,CA,California
92033,Escondido,San Diego,CA,California
92051,Oceanside,San Diego,CA,California
92083,Vista,San Diego,CA,California
92107,San Diego,San Diego,CA,California
92111,San Diego,San Diego,CA,California
92119,San Diego,San Diego,CA,California
92143,San Ysidro,San Diego,CA,California
92153,San Diego,San Diego,CA,California
92173,San Ysidro,San Diego,CA,California
92177,San Diego,San Diego,CA,California
92179,San Diego,San Diego,CA,California
94109,San Francisco,City and County of San Francisco,CA,California
94111,San Francisco,City and County of San Francisco,CA,California
94117,San Francisco,City and County of San Francisco,CA,California
94121,San Francisco,City and County of San Francisco,CA,California
94151,San Francisco,City and County of San Francisco,CA,California
95203,Stockton,San Joaquin,CA,California
95213,Stockton,San Joaquin,CA,California
95219,Stockton,San Joaquin,CA,California
95231,French Camp,San Joaquin,CA,California
95267,Stockton,San Joaquin,CA,California
93407,San Luis Obispo,San Luis Obispo,CA,California
94063,Redwood City,San Mateo,CA,California
93103,Santa Barbara,Santa Barbara,CA,California
93199,Goleta,Santa Barbara,CA,California
93427,Buellton,Santa Barbara,CA,California
93463,Solvang,Santa Barbara,CA,California
94309,Palo Alto,Santa Clara,CA,California
95009,Campbell,Santa Clara,CA,California
95021,Gilroy,Santa Clara,CA,California
95071,Saratoga,Santa Clara,CA,California
95101,San Jose,Santa Clara,CA,California
95111,San Jose,Santa Clara,CA,California
95131,San Jose,Santa Clara,CA,California
95153,San Jose,Santa Clara,CA,California
95191,San Jose,Santa Clara,CA,California
95003,Aptos,Santa Cruz,CA,California
95063,Santa Cruz,Santa Cruz,CA,California
96001,Redding,Shasta,CA,California
96013,Burney,Shasta,CA,California
96017,Castella,Shasta,CA,California
96079,Shasta Lake,Shasta,CA,California
96097,Yreka,Siskiyou,CA,California
94951,Penngrove,Sonoma,CA,California
94999,Petaluma,Sonoma,CA,California
95401,Santa Rosa,Sonoma,CA,California
95419,Camp Meeker,Sonoma,CA,California
95441,Geyserville,Sonoma,CA,California
95471,Rio Nido,Sonoma,CA,California
95957,Meridian,Sutter,CA,California
96059,Manton,Tehama,CA,California
95527,Burnt Ranch,Trinity,CA,California
93257,Porterville,Tulare,CA,California
95327,Jamestown,Tuolumne,CA,California
95383,Twain Harte,Tuolumne,CA,California
93001,Ventura,Ventura,CA,California
95617,Davis,Yolo,CA,California
80221,Denver,Adams,CO,Colorado
80233,Denver,Adams,CO,Colorado
80603,Brighton,Adams,CO,Colorado
81101,Alamosa,Alamosa,CO,Colorado
80111,Englewood,Arapahoe,CO,Colorado
81157,Pagosa Springs,Archuleta,CO,Colorado
80309,Boulder,Boulder,CO,Colorado
80471,Pinecliffe,Boulder,CO,Colorado
80207,Denver,Denver,CO,Colorado
80209,Denver,Denver,CO,Colorado
80231,Denver,Denver,CO,Colorado
80239,Denver,Denver,CO,Colorado
80251,Denver,Denver,CO,Colorado
80263,Denver,Denver,CO,Colorado
80273,Denver,Denver,CO,Colorado
81637,Gypsum,Eagle,CO,Colorado
81649,Red Cliff,Eagle,CO,Colorado
80107,Elizabeth,Elbert,CO,Colorado
80809,Cascade,El Paso,CO,Colorado
80819,Green Mountain Falls,El Paso,CO,Colorado
80831,Peyton,El Paso,CO,Colorado
80833,Rush,El Paso,CO,Colorado
80909,Colorado Springs,El Paso,CO,Colorado
80911,Colorado Springs,El Paso,CO,Colorado
80917,Colorado Springs,El Paso,CO,Colorado
80923,Colorado Springs,El Paso,CO,Colorado
80929,Colorado Springs,El Paso,CO,Colorado
80933,Colorado Springs,El Paso,CO,Colorado
81223,Cotopaxi,Fremont,CO,Colorado
81233,Howard,Fremont,CO,Colorado
81647,New Castle,Garfield,CO,Colorado
80447,Grand Lake,Grand,CO,Colorado
81239,Parlin,Gunnison,CO,Colorado
80473,Rand,Jackson,CO,Colorado
80021,Broomfield,Jefferson,CO,Colorado
81071,Sheridan Lake,Kiowa,CO,Colorado
80429,Climax,Lake,CO,Colorado
80513,Berthoud,Larimer,CO,Colorado
80527,Fort Collins,Larimer,CO,Colorado
80537,Loveland,Larimer,CO,Colorado
81049,Kim,Las Animas,CO,Colorado
80747,Peetz,Logan,CO,Colorado
81527,Whitewater,Mesa,CO,Colorado
81331,Pleasant View,Montezuma,CO,Colorado
81401,Montrose,Montrose,CO,Colorado
80701,Fort Morgan,Morgan,CO,Colorado
81077,Swink,Otero,CO,Colorado
80449,Hartsel,Park,CO,Colorado
81611,Aspen,Pitkin,CO,Colorado
81041,Granada,Prowers,CO,Colorado
81043,Hartman,Prowers,CO,Colorado
81047,Holly,Prowers,CO,Colorado
81001,Pueblo,Pueblo,CO,Colorado
81019,Colorado City,Pueblo,CO,Colorado
81023,Beulah,Pueblo,CO,Colorado
81131,Crestone,Saguache,CO,Colorado
80737,Julesburg,Sedgwick,CO,Colorado
80749,Sedgwick,Sedgwick,CO,Colorado
80863,Woodland Park,Teller,CO,Colorado
80611,Briggsdale,Weld,CO,Colorado
80621,Fort Lupton,Weld,CO,Colorado
80651,Platteville,Weld,CO,Colorado
06491,Stevenson,Fairfield,CT,Connecticut
06607,Bridgeport,Fairfield,CT,Connecticut
06673,Bridgeport,Fairfield,CT,Connecticut
06829,Georgetown,Fairfield,CT,Connecticut
06857,Norwalk,Fairfield,CT,Connecticut
06883,Weston,Fairfield,CT,Connecticut
06907,Stamford,Fairfield,CT,Connecticut
06911,Stamford,Fairfield,CT,Connecticut
06011,Bristol,Hartford,CT,Connecticut
06037,Berlin,Hartford,CT,Connecticut
06053,New Britain,Hartford,CT,Connecticut
06067,Rocky Hill,Hartford,CT,Connecticut
06073,South Glastonbury,Hartford,CT,Connecticut
06089,Weatogue,Hartford,CT,Connecticut
06091,West Hartland,Hartford,CT,Connecticut
06101,Hartford,Hartford,CT,Connecticut
06131,Newington,Hartford,CT,Connecticut
06133,West Hartford,Hartford,CT,Connecticut
06143,Hartford,Hartford,CT,Connecticut
06151,Hartford,Hartford,CT,Connecticut
06199,Hartford,Hartford,CT,Connecticut
06079,Taconic,Litchfield,CT,Connecticut
06763,Morris,Litchfield,CT,Connecticut
06779,Oakville,Litchfield,CT,Connecticut
06781,Pequabuck,Litchfield,CT,Connecticut
06791,Harwinton,Litchfield,CT,Connecticut
06793,Washington,Litchfield,CT,Connecticut
06469,Moodus,Middlesex,CT,Connecticut
06481,Rockfall,Middlesex,CT,Connecticut
06451,Meriden,New Haven,CT,Connecticut
06473,North Haven,New Haven,CT,Connecticut
06521,New Haven,New Haven,CT,Connecticut
06701,Waterbury,New Haven,CT,Connecticut
06703,Waterbury,New Haven,CT,Connecticut
06353,Montville,New London,CT,Connecticut
06359,North Stonington,New London,CT,Connecticut
06379,Pawcatuck,New London,CT,Connecticut
06389,Yantic,New London,CT,Connecticut
06029,Ellington,Tolland,CT,Connecticut
06043,Bolton,Tolland,CT,Connecticut
06269,Storrs Mansfield,Tolland,CT,Connecticut
06247,Hampton,Windham,CT,Connecticut
06263,Rogers,Windham,CT,Connecticut
06277,Thompson,Windham,CT,Connecticut
06373,Oneco,Windham,CT,Connecticut
20011,Washington,District of Columbia,DC,District of Columbia
20029,Washington,District of Columbia,DC,District of Columbia
20047,Washington,District of Columbia,DC,District of Columbia
20063,Washington,District of Columbia,DC,District of Columbia
20071,Washington,District of Columbia,DC,District of Columbia
20201,Washington,District of Columbia,DC,District of Columbia
20219,Washington,District of Columbia,DC,District of Columbia
20233,Washington,District of Columbia,DC,District of Columbia
20261,Washington,District of Columbia,DC,District of Columbia
20389,Washington,District of Columbia,DC,District of Columbia
20393,Washington,District of Columbia,DC,District of Columbia
20407,Washington,District of Columbia,DC,District of Columbia
20411,Washington,District of Columbia,DC,District of Columbia
20431,Washington,District of Columbia,DC,District of Columbia
20441,Washington,District of Columbia,DC,District of Columbia
20507,Washington,District of Columbia,DC,District of Columbia
20509,Washington,District of Columbia,DC,District of Columbia
20521,Washington,District of Columbia,DC,District of Columbia
20533,Washington,District of Columbia,DC,District of Columbia
20543,Washington,District of Columbia,DC,District of Columbia
20549,Washington,District of Columbia,DC,District of Columbia
20551,Washington,District of Columbia,DC,District of Columbia
20593,Washington,District of Columbia,DC,District of Columbia
20599,Washington,District of Columbia,DC,District of Columbia
19961,Little Creek,Kent,DE,Delaware
19979,Viola,Kent,DE,Delaware
19709,Middletown,New Castle,DE,Delaware
19717,Newark,New Castle,DE,Delaware
19801,Wilmington,New Castle,DE,Delaware
19891,Wilmington,New Castle,DE,Delaware
19963,Milford,Sussex,DE,Delaware
19973,Seaford,Sussex,DE,Delaware
32603,Gainesville,Alachua,FL,Florida
32609,Gainesville,Alachua,FL,Florida
32611,Gainesville,Alachua,FL,Florida
32633,Evinston,Alachua,FL,Florida
32653,Gainesville,Alachua,FL,Florida
32063,Macclenny,Baker,FL,Florida
32401,Panama City,Bay,FL,Florida
32411,Panama City,Bay,FL,Florida
32413,Panama City Beach,Bay,FL,Florida
32783,Titusville,Brevard,FL,Florida
32909,Palm Bay,Brevard,FL,Florida
32911,Palm Bay,Brevard,FL,Florida
32941,Melbourne,Brevard,FL,Florida
33023,Hollywood,Broward,FL,Florida
33029,Hollywood,Broward,FL,Florida
33071,Pompano Beach,Broward,FL,Florida
33073,Pompano Beach,Broward,FL,Florida
33083,Hollywood,Broward,FL,Florida
33301,Fort Lauderdale,Broward,FL,Florida
33311,Fort Lauderdale,Broward,FL,Florida
33317,Fort Lauderdale,Broward,FL,Florida
33329,Fort Lauderdale,Broward,FL,Florida
33331,Fort Lauderdale,Broward,FL,Florida
33349,Fort Lauderdale,Broward,FL,Florida
33359,Fort Lauderdale,Broward,FL,Florida
34429,Crystal River,Citrus,FL,Florida
34487,Homosassa,Citrus,FL,Florida
32003,Fleming Island,Clay,FL,Florida
34141,Ochopee,Collier,FL,Florida
34267,Fort Ogden,DeSoto,FL,Florida
32099,Jacksonville,Duval,FL,Florida
32203,Jacksonville,Duval,FL,Florida
32233,Atlantic Beach,Duval,FL,Florida
32237,Jacksonville,Duval,FL,Florida
32257,Jacksonville,Duval,FL,Florida
32503,Pensacola,Escambia,FL,Florida
32507,Pensacola,Escambia,FL,Florida
32533,Cantonment,Escambia,FL,Florida
32143,Palm Coast,Flagler,FL,Florida
32323,Lanark Village,Franklin,FL,Florida
32353,Quincy,Gadsden,FL,Florida
32693,Trenton,Gilchrist,FL,Florida
34603,Brooksville,Hernando,FL,Florida
34607,Spring Hill,Hernando,FL,Florida
34613,Brooksville,Hernando,FL,Florida
33857,Lorida,Highlands,FL,Florida
33871,Sebring,Highlands,FL,Florida
33503,Balm,Hillsborough,FL,Florida
33547,Lithia,Hillsborough,FL,Florida
33563,Plant City,Hillsborough,FL,Florida
33569,Riverview,Hillsborough,FL,Florida
33587,Sydney,Hillsborough,FL,Florida
33601,Tampa,Hillsborough,FL,Florida
33613,Tampa,Hillsborough,FL,Florida
33617,Tampa,Hillsborough,FL,Florida
33619,Tampa,Hillsborough,FL,Florida
33623,Tampa,Hillsborough,FL,Florida
33629,Tampa,Hillsborough,FL,Florida
33637,Tampa,Hillsborough,FL,Florida
33647,Tampa,Hillsborough,FL,Florida
33679,Tampa,Hillsborough,FL,Florida
32957,Roseland,Indian River,FL,Florida
32969,Vero Beach,Indian River,FL,Florida
32971,Winter Beach,Indian River,FL,Florida
32423,Bascom,Jackson,FL,Florida
32443,Greenwood,Jackson,FL,Florida
32159,Lady Lake,Lake,FL,Florida
34729,Ferndale,Lake,FL,Florida
33911,Fort Myers,Lee,FL,Florida
33931,Fort Myers Beach,Lee,FL,Florida
32303,Tallahassee,Leon,FL,Florida
32309,Tallahassee,Leon,FL,Florida
32621,Bronson,Levy,FL,Florida
32321,Bristol,Liberty,FL,Florida
32059,Lee,Madison,FL,Florida
32341,Madison,Madison,FL,Florida
34211,Bradenton,Manatee,FL,Florida
34217,Bradenton Beach,Manatee,FL,Florida
32183,Ocklawaha,Marion,FL,Florida
34421,Belleview,Marion,FL,Florida
34471,Ocala,Marion,FL,Florida
34483,Ocala,Marion,FL,Florida
33013,Hialeah,Miami-Dade,FL,Florida
33119,Miami Beach,Miami-Dade,FL,Florida
33149,Key Biscayne,Miami-Dade,FL,Florida
33151,Miami,Miami-Dade,FL,Florida
33161,Miami,Miami-Dade,FL,Florida
33179,Miami,Miami-Dade,FL,Florida
33181,Miami,Miami-Dade,FL,Florida
33191,Miami,Miami-Dade,FL,Florida
33199,Miami,Miami-Dade,FL,Florida
33247,Miami,Miami-Dade,FL,Florida
33037,Key Largo,Monroe,FL,Florida
32009,Bryceville,Nassau,FL,Florida
32531,Baker,Okaloosa,FL,Florida
32537,Milligan,Okaloosa,FL,Florida
32569,Mary Esther,Okaloosa,FL,Florida
32579,Shalimar,Okaloosa,FL,Florida
32789,Winter Park,Orange,FL,Florida
32801,Orlando,Orange,FL,Florida
32803,Orlando,Orange,FL,Florida
32831,Orlando,Orange,FL,Florida
32833,Orlando,Orange,FL,Florida
32839,Orlando,Orange,FL,Florida
32869,Orlando,Orange,FL,Florida
32887,Orlando,Orange,FL,Florida
34739,Kenansville,Osceola,FL,Florida
34747,Kissimmee,Osceola,FL,Florida
33403,West Palm Beach,Palm Beach,FL,Florida
33409,West Palm Beach,Palm Beach,FL,Florida
33413,West Palm Beach,Palm Beach,FL,Florida
33427,Boca Raton,Palm Beach,FL,Florida
33461,Lake Worth,Palm Beach,FL,Florida
33469,Jupiter,Palm Beach,FL,Florida
33487,Boca Raton,Palm Beach,FL,Florida
33493,South Bay,Palm Beach,FL,Florida
34667,Hudson,Pasco,FL,Florida
34673,Port Richey,Pasco,FL,Florida
34679,Aripeka,Pasco,FL,Florida
33703,Saint Petersburg,Pinellas,FL,Florida
33713,Saint Petersburg,Pinellas,FL,Florida
33757,Clearwater,Pinellas,FL,Florida
33767,Clearwater Beach,Pinellas,FL,Florida
33769,Clearwater,Pinellas,FL,Florida
33773,Largo,Pinellas,FL,Florida
33809,Lakeland,Polk,FL,Florida
33811,Lakeland,Polk,FL,Florida
33827,Babson Park,Polk,FL,Florida
33851,Lake Hamilton,Polk,FL,Florida
33863,Nichols,Polk,FL,Florida
33967,Fort Myers,Polk,FL,Florida
34759,Kissimmee,Polk,FL,Florida
32189,Satsuma,Putnam,FL,Florida
34949,Fort Pierce,St. Lucie,FL,Florida
34981,Fort Pierce,St. Lucie,FL,Florida
32561,Gulf Breeze,Santa Rosa,FL,Florida
32563,Gulf Breeze,Santa Rosa,FL,Florida
34231,Sarasota,Sarasota,FL,Florida
32707,Casselberry,Seminole,FL,Florida
32719,Winter Springs,Seminole,FL,Florida
32771,Sanford,Seminole,FL,Florida
32779,Longwood,Seminole,FL,Florida
33521,Coleman,Sumter,FL,Florida
32359,Steinhatchee,Taylor,FL,Florida
32083,Raiford,Union,FL,Florida
32117,Daytona Beach,Volusia,FL,Florida
32119,Daytona Beach,Volusia,FL,Florida
32141,Edgewater,Volusia,FL,Florida
32173,Ormond Beach,Volusia,FL,Florida
32713,Debary,Volusia,FL,Florida
32327,Crawfordville,Wakulla,FL,Florida
31513,Baxley,Appling,GA,Georgia
31721,Albany,Baker,GA,Georgia
39841,Damascus,Baker,GA,Georgia
30011,Auburn,Barrow,GA,Georgia
30103,Adairsville,Bartow,GA,Georgia
30137,Emerson,Bartow,GA,Georgia
31543,Hortense,Brantley,GA,Georgia
31643,Quitman,Brooks,GA,Georgia
31321,Pembroke,Bryan,GA,Georgia
31547,Kings Bay,Camden,GA,Georgia
30109,Bowdon Junction,Carroll,GA,Georgia
30119,Carrollton,Carroll,GA,Georgia
30169,Canton,Cherokee,GA,Georgia
31567,West Green,Coffee,GA,Georgia
31771,Norman Park,Colquitt,GA,Georgia
30809,Evans,Columbia,GA,Georgia
31627,Cecil,Cook,GA,Georgia
30259,Moreland,Coweta,GA,Georgia
30271,Newnan,Coweta,GA,Georgia
30757,Wildwood,Dade,GA,Georgia
30319,Atlanta,DeKalb,GA,Georgia
30341,Atlanta,DeKalb,GA,Georgia
39901,Atlanta,DeKalb,GA,Georgia
31051,Lilly,Dooly,GA,Georgia
31063,Montezuma,Dooly,GA,Georgia
31091,Unadilla,Dooly,GA,Georgia
30133,Douglasville,Douglas,GA,Georgia
30187,Winston,Douglas,GA,Georgia
31307,Eden,Effingham,GA,Georgia
30559,Mineral Bluff,Fannin,GA,Georgia
30269,Peachtree City,Fayette,GA,Georgia
30161,Rome,Floyd,GA,Georgia
30553,Lavonia,Franklin,GA,Georgia
30307,Atlanta,Fulton,GA,Georgia
30313,Atlanta,Fulton,GA,Georgia
31139,Atlanta,Fulton,GA,Georgia
31193,Atlanta,Fulton,GA,Georgia
30539,East Ellijay,Gilmer,GA,Georgia
30139,Fairmount,Gordon,GA,Georgia
30703,Calhoun,Gordon,GA,Georgia
39827,Cairo,Grady,GA,Georgia
39829,Calvary,Grady,GA,Georgia
30029,North Metro,Gwinnett,GA,Georgia
30047,Lilburn,Gwinnett,GA,Georgia
30071,Norcross,Gwinnett,GA,Georgia
30091,Norcross,Gwinnett,GA,Georgia
30097,Duluth,Gwinnett,GA,Georgia
30113,Buchanan,Haralson,GA,Georgia
30643,Hartwell,Hart,GA,Georgia
30253,Mcdonough,Henry,GA,Georgia
31013,Clinchfield,Houston,GA,Georgia
31069,Perry,Houston,GA,Georgia
31769,Mystic,Irwin,GA,Georgia
30517,Braselton,Jackson,GA,Georgia
30529,Commerce,Jackson,GA,Georgia
30803,Avera,Jefferson,GA,Georgia
31033,Haddock,Jones,GA,Georgia
31649,Stockton,Lanier,GA,Georgia
31019,Dexter,Laurens,GA,Georgia
31333,Walthourville,Liberty,GA,Georgia
30817,Lincolnton,Lincoln,GA,Georgia
31601,Valdosta,Lowndes,GA,Georgia
31699,Moody Afb,Lowndes,GA,Georgia
31319,Meridian,McIntosh,GA,Georgia
31327,Sapelo Island,McIntosh,GA,Georgia
30293,Woodbury,Meriwether,GA,Georgia
31907,Columbus,Muscogee,GA,Georgia
30677,Watkinsville,Oconee,GA,Georgia
30671,Maxeys,Oglethorpe,GA,Georgia
30013,Conyers,Rockdale,GA,Georgia
30449,Oliver,Screven,GA,Georgia
30467,Sylvania,Screven,GA,Georgia
30223,Griffin,Spalding,GA,Georgia
30557,Martin,Stephens,GA,Georgia
30577,Toccoa,Stephens,GA,Georgia
30631,Crawfordville,Taliaferro,GA,Georgia
30427,Glennville,Tattnall,GA,Georgia
31039,Howard,Taylor,GA,Georgia
31081,Rupert,Taylor,GA,Georgia
31799,Thomasville,Thomas,GA,Georgia
31727,Brookfield,Tift,GA,Georgia
31793,Tifton,Tift,GA,Georgia
30241,Lagrange,Troup,GA,Georgia
30707,Chickamauga,Walker,GA,Georgia
39877,Parrott,Webster,GA,Georgia
31079,Rochelle,Wilcox,GA,Georgia
96737,Ocean View,Hawaii,HI,Hawaii
96739,Keauhou,Hawaii,HI,Hawaii
96749,Keaau,Hawaii,HI,Hawaii
96731,Kahuku,Honolulu,HI,Hawaii
96797,Waipahu,Honolulu,HI,Hawaii
96821,Honolulu,Honolulu,HI,Hawaii
96823,Honolulu,Honolulu,HI,Hawaii
96847,Honolulu,Honolulu,HI,Hawaii
96857,Schofield Barracks,Honolulu,HI,Hawaii
96703,Anahola,Kauai,HI,Hawaii
96769,Makaweli,Kauai,HI,Hawaii
96757,Kualapuu,Maui,HI,Hawaii
96763,Lanai City,Maui,HI,Hawaii
96779,Paia,Maui,HI,Hawaii
50849,Greenfield,Adair,IA,Iowa
50839,Carbon,Adams,IA,Iowa
50857,Nodaway,Adams,IA,Iowa
52571,Moravia,Appanoose,IA,Iowa
52249,Keystone,Benton,IA,Iowa
52313,Mount Auburn,Benton,IA,Iowa
50651,La Porte City,Black Hawk,IA,Iowa
50707,Evansdale,Black Hawk,IA,Iowa
50647,Janesville,Bremer,IA,Iowa
50671,Stanley,Buchanan,IA,Iowa
50551,Jolley,Calhoun,IA,Iowa
51449,Lake City,Calhoun,IA,Iowa
52721,Bennett,Cedar,IA,Iowa
52747,Durant,Cedar,IA,Iowa
51061,Washta,Cherokee,IA,Iowa
51047,Peterson,Clay,IA,Iowa
51341,Gillett Grove,Clay,IA,Iowa
51343,Greenville,Clay,IA,Iowa
52727,Bryant,Clinton,IA,Iowa
52733,Clinton,Clinton,IA,Iowa
52757,Low Moor,Clinton,IA,Iowa
51439,Charter Oak,Crawford,IA,Iowa
51461,Schleswig,Crawford,IA,Iowa
50069,De Soto,Dallas,IA,Iowa
50261,Van Meter,Dallas,IA,Iowa
50263,Waukee,Dallas,IA,Iowa
52057,Manchester,Delaware,IA,Iowa
52223,Delhi,Delaware,IA,Iowa
52237,Hopkinton,Delaware,IA,Iowa
51347,Lake Park,Dickinson,IA,Iowa
52147,Hawkeye,Fayette,IA,Iowa
50227,Popejoy,Franklin,IA,Iowa
50441,Hampton,Franklin,IA,Iowa
50129,Jefferson,Greene,IA,Iowa
50231,Randall,Hamilton,IA,Iowa
50423,Britt,Hancock,IA,Iowa
50627,Eldora,Hardin,IA,Iowa
51563,Persia,Harrison,IA,Iowa
52163,Protivin,Howard,IA,Iowa
50591,Thor,Humboldt,IA,Iowa
51431,Arthur,Ida,IA,Iowa
52301,Marengo,Iowa,IA,Iowa
52361,Williamsburg,Iowa,IA,Iowa
52069,Preston,Jackson,IA,Iowa
50153,Lynnville,Jasper,IA,Iowa
52567,Libertyville,Jefferson,IA,Iowa
52321,Onslow,Jones,IA,Iowa
50539,Fenton,Kossuth,IA,Iowa
52627,Fort Madison,Lee,IA,Iowa
52631,Houghton,Lee,IA,Iowa
52639,Montrose,Lee,IA,Iowa
52253,Lisbon,Linn,IA,Iowa
51241,Larchwood,Lyon,IA,Iowa
50033,Bevington,Madison,IA,Iowa
50273,Winterset,Madison,IA,Iowa
50207,New Sharon,Mahaska,IA,Iowa
52543,Cedar,Mahaska,IA,Iowa
52561,Fremont,Mahaska,IA,Iowa
50119,Harvey,Marion,IA,Iowa
50051,Clemons,Marshall,IA,Iowa
51551,Malvern,Mills,IA,Iowa
50461,Osage,Mitchell,IA,Iowa
52769,Stockton,Muscatine,IA,Iowa
51631,Braddyville,Page,IA,Iowa
51637,College Springs,Page,IA,Iowa
51647,Northboro,Page,IA,Iowa
50527,Curlew,Palo Alto,IA,Iowa
51001,Akron,Plymouth,IA,Iowa
51031,Le Mars,Plymouth,IA,Iowa
50581,Rolfe,Pocahontas,IA,Iowa
50593,Varina,Pocahontas,IA,Iowa
50021,Ankeny,Polk,IA,Iowa
50023,Ankeny,Polk,IA,Iowa
50111,Grimes,Polk,IA,Iowa
50131,Johnston,Polk,IA,Iowa
50311,Des Moines,Polk,IA,Iowa
50321,Des Moines,Polk,IA,Iowa
50329,Des Moines,Polk,IA,Iowa
50333,Des Moines,Polk,IA,Iowa
50359,Des Moines,Polk,IA,Iowa
50363,Des Moines,Polk,IA,Iowa
51503,Council Bluffs,Pottawattamie,IA,Iowa
51521,Avoca,Pottawattamie,IA,Iowa
51577,Walnut,Pottawattamie,IA,Iowa
51593,Harlan,Pottawattamie,IA,Iowa
52807,Davenport,Scott,IA,Iowa
51239,Hull,Sioux,IA,Iowa
50833,Bedford,Taylor,IA,Iowa
52501,Ottumwa,Wapello,IA,Iowa
52553,Eddyville,Wapello,IA,Iowa
50047,Carlisle,Warren,IA,Iowa
52201,Ainsworth,Washington,IA,Iowa
50123,Humeston,Wayne,IA,Iowa
50147,Lineville,Wayne,IA,Iowa
52583,Promise City,Wayne,IA,Iowa
50543,Gowrie,Webster,IA,Iowa
51109,Sioux City,Woodbury,IA,Iowa
50459,Northwood,Worth,IA,Iowa
50101,Galt,Wright,IA,Iowa
50599,Woolstock,Wright,IA,Iowa
83701,Boise,Ada,ID,Idaho
83717,Boise,Ada,ID,Idaho
83719,Boise,Ada,ID,Idaho
83233,Dingle,Bear Lake,ID,Idaho
83203,Fort Hall,Bingham,ID,Idaho
83221,Blackfoot,Bingham,ID,Idaho
83813,Cocolalla,Bonner,ID,Idaho
83401,Idaho Falls,Bonneville,ID,Idaho
83449,Swan Valley,Bonneville,ID,Idaho
83641,Melba,Canyon,ID,Idaho
83653,Nampa,Canyon,ID,Idaho
83311,Albion,Cassia,ID,Idaho
83423,Dubois,Clark,ID,Idaho
83227,Clayton,Custer,ID,Idaho
83617,Emmett,Gem,ID,Idaho
83431,Lewisville,Jefferson,ID,Idaho
83443,Ririe,Jefferson,ID,Idaho
83833,Harrison,Kootenai,ID,Idaho
83869,Spirit Lake,Kootenai,ID,Idaho
83537,Kendrick,Latah,ID,Idaho
83843,Moscow,Latah,ID,Idaho
83857,Princeton,Latah,ID,Idaho
83243,Holbrook,Oneida,ID,Idaho
83639,Marsing,Owyhee,ID,Idaho
83873,Wallace,Shoshone,ID,Idaho
83341,Kimberly,Twin Falls,ID,Idaho
62347,Liberty,Adams,IL,Illinois
62351,Mendon,Adams,IL,Illinois
62969,Olive Branch,Alexander,IL,Illinois
62273,Pierron,Bond,IL,Illinois
61379,Wyanet,Bureau,IL,Illinois
62047,Hardin,Calhoun,IL,Illinois
62053,Kampsville,Calhoun,IL,Illinois
61051,Milledgeville,Carroll,IL,Illinois
62627,Chandlerville,Cass,IL,Illinois
61843,Fisher,Champaign,IL,Illinois
61871,Royal,Champaign,IL,Illinois
62423,Dennison,Clark,IL,Illinois
62477,West Union,Clark,IL,Illinois
62219,Beckemeyer,Clinton,IL,Illinois
60017,Des Plaines,Cook,IL,Illinois
60029,Golf,Cook,IL,Illinois
60077,Skokie,Cook,IL,Illinois
60091,Wilmette,Cook,IL,Illinois
60103,Bartlett,Cook,IL,Illinois
60107,Streamwood,Cook,IL,Illinois
60161,Melrose Park,Cook,IL,Illinois
60169,Hoffman Estates,Cook,IL,Illinois
60209,Evanston,Cook,IL,Illinois
60443,Matteson,Cook,IL,Illinois
60457,Hickory Hills,Cook,IL,Illinois
60601,Chicago,Cook,IL,Illinois
60607,Chicago,Cook,IL,Illinois
60611,Chicago,Cook,IL,Illinois
60617,Chicago,Cook,IL,Illinois
60623,Chicago,Cook,IL,Illinois
60631,Chicago,Cook,IL,Illinois
60637,Chicago,Cook,IL,Illinois
60647,Chicago,Cook,IL,Illinois
60649,Chicago,Cook,IL,Illinois
60659,Chicago,Cook,IL,Illinois
60661,Chicago,Cook,IL,Illinois
60689,Chicago,Cook,IL,Illinois
60101,Addison,DuPage,IL,Illinois
60133,Hanover Park,DuPage,IL,Illinois
60139,Glendale Heights,DuPage,IL,Illinois
60521,Hinsdale,DuPage,IL,Illinois
60527,Willowbrook,DuPage,IL,Illinois
61933,Kansas,Edgar,IL,Illinois
61949,Redmon,Edgar,IL,Illinois
62401,Effingham,Effingham,IL,Illinois
62467,Teutopolis,Effingham,IL,Illinois
62473,Watson,Effingham,IL,Illinois
62011,Bingham,Fayette,IL,Illinois
60919,Cabery,Ford,IL,Illinois
62819,Buckner,Franklin,IL,Illinois
62897,Whittington,Franklin,IL,Illinois
62983,Royalton,Franklin,IL,Illinois
61441,Ipava,Fulton,IL,Illinois
61519,Bryant,Fulton,IL,Illinois
61543,Liverpool,Fulton,IL,Illinois
61553,Norris,Fulton,IL,Illinois
62081,Rockbridge,Greene,IL,Illinois
62311,Augusta,Hancock,IL,Illinois
61469,Oquawka,Henderson,IL,Illinois
61471,Raritan,Henderson,IL,Illinois
60953,Milford,Iroquois,IL,Illinois
62903,Carbondale,Jackson,IL,Illinois
62927,Dowell,Jackson,IL,Illinois
62971,Oraville,Jackson,IL,Illinois
62459,Sainte Marie,Jasper,IL,Illinois
61001,Apple River,Jo Daviess,IL,Illinois
62939,Goreville,Johnson,IL,Illinois
60539,Mooseheart,Kane,IL,Illinois
60901,Kankakee,Kankakee,IL,Illinois
60913,Bonfield,Kankakee,IL,Illinois
60917,Buckingham,Kankakee,IL,Illinois
60961,Reddick,Kankakee,IL,Illinois
60037,Fort Sheridan,Lake,IL,Illinois
60041,Ingleside,Lake,IL,Illinois
60083,Wadsworth,Lake,IL,Illinois
60089,Buffalo Grove,Lake,IL,Illinois
62417,Bridgeport,Lawrence,IL,Illinois
61031,Franklin Grove,Lee,IL,Illinois
61057,Nachusa,Lee,IL,Illinois
61331,Lee Center,Lee,IL,Illinois
61333,Long Point,Livingston,IL,Illinois
61723,Atlanta,Logan,IL,Illinois
61751,Lawndale,Logan,IL,Illinois
60013,Cary,McHenry,IL,Illinois
62501,Argenta,Macon,IL,Illinois
62549,Mt Zion,Macon,IL,Illinois
62683,Scottville,Macoupin,IL,Illinois
62801,Centralia,Marion,IL,Illinois
62617,Bath,Mason,IL,Illinois
62633,Easton,Mason,IL,Illinois
62659,Lincoln'S New Salem,Menard,IL,Illinois
61231,Aledo,Mercer,IL,Illinois
62017,Coffeen,Montgomery,IL,Illinois
62533,Farmersville,Montgomery,IL,Illinois
61007,Baileyville,Ogle,IL,Illinois
61043,Holcomb,Ogle,IL,Illinois
61091,Woosung,Ogle,IL,Illinois
61547,Mapleton,Peoria,IL,Illinois
61603,Peoria,Peoria,IL,Illinois
61613,Peoria,Peoria,IL,Illinois
61637,Peoria,Peoria,IL,Illinois
61643,Peoria,Peoria,IL,Illinois
61651,Peoria,Peoria,IL,Illinois
61813,Bement,Piatt,IL,Illinois
62323,Chambersburg,Pike,IL,Illinois
61363,Standard,Putnam,IL,Illinois
62233,Chester,Randolph,IL,Illinois
62297,Walsh,Randolph,IL,Illinois
62071,National Stock Yards,St. Clair,IL,Illinois
62201,East Saint Louis,St. Clair,IL,Illinois
62207,East Saint Louis,St. Clair,IL,Illinois
62987,Stonefort,Saline,IL,Illinois
62539,Illiopolis,Sangamon,IL,Illinois
62563,Rochester,Sangamon,IL,Illinois
62701,Springfield,Sangamon,IL,Illinois
62723,Springfield,Sangamon,IL,Illinois
62761,Springfield,Sangamon,IL,Illinois
62791,Springfield,Sangamon,IL,Illinois
62639,Frederick,Schuyler,IL,Illinois
61483,Toulon,Stark,IL,Illinois
61559,Princeville,Stark,IL,Illinois
61027,Eleroy,Stephenson,IL,Illinois
61417,Berwick,Warren,IL,Illinois
62851,Keenes,Wayne,IL,Illinois
62827,Crossville,White,IL,Illinois
62861,Maunie,White,IL,Illinois
62869,Norris City,White,IL,Illinois
61261,Lyndon,Whiteside,IL,Illinois
61283,Tampico,Whiteside,IL,Illinois
60449,Monee,Will,IL,Illinois
62921,Colp,Williamson,IL,Illinois
61561,Roanoke,Woodford,IL,Illinois
61729,Congerville,Woodford,IL,Illinois
46769,Linn Grove,Adams,IN,Indiana
46807,Fort Wayne,Allen,IN,Indiana
46819,Fort Wayne,Allen,IN,Indiana
46853,Fort Wayne,Allen,IN,Indiana
46861,Fort Wayne,Allen,IN,Indiana
46867,Fort Wayne,Allen,IN,Indiana
47917,Ambia,Benton,IN,Indiana
46147,Jamestown,Boone,IN,Indiana
47111,Charlestown,Clark,IN,Indiana
47129,Clarksville,Clark,IN,Indiana
47143,Memphis,Clark,IN,Indiana
47147,Nabb,Clark,IN,Indiana
47837,Carbon,Clay,IN,Indiana
47857,Knightsville,Clay,IN,Indiana
47881,Staunton,Clay,IN,Indiana
47123,Grantsburg,Crawford,IN,Indiana
47137,Leavenworth,Crawford,IN,Indiana
47501,Washington,Daviess,IN,Indiana
47303,Muncie,Delaware,IN,Indiana
47513,Birdseye,Dubois,IN,Indiana
47521,Celestine,Dubois,IN,Indiana
47527,Dubois,Dubois,IN,Indiana
46507,Bristol,Elkhart,IN,Indiana
46573,Wakarusa,Elkhart,IN,Indiana
46133,Glenwood,Fayette,IN,Indiana
47119,Floyds Knobs,Floyd,IN,Indiana
47969,Newtown,Fountain,IN,Indiana
47639,Haubstadt,Gibson,IN,Indiana
46933,Gas City,Grant,IN,Indiana
46957,Matthews,Grant,IN,Indiana
47441,Linton,Greene,IN,Indiana
47459,Solsberry,Greene,IN,Indiana
46061,Noblesville,Hamilton,IN,Indiana
47161,New Salisbury,Harrison,IN,Indiana
46103,Amo,Hendricks,IN,Indiana
47351,Kennard,Henry,IN,Indiana
47387,Straughn,Henry,IN,Indiana
46901,Kokomo,Howard,IN,Indiana
47977,Remington,Jasper,IN,Indiana
47381,Salamonia,Jay,IN,Indiana
46181,Trafalgar,Johnson,IN,Indiana
47591,Vincennes,Knox,IN,Indiana
46567,Syracuse,Kosciusko,IN,Indiana
46771,Mongo,LaGrange,IN,Indiana
46307,Crown Point,Lake,IN,Indiana
46327,Hammond,Lake,IN,Indiana
46411,Merrillville,Lake,IN,Indiana
46051,Lapel,Madison,IN,Indiana
46183,West Newton,Marion,IN,Indiana
46219,Indianapolis,Marion,IN,Indiana
46229,Indianapolis,Marion,IN,Indiana
46237,Indianapolis,Marion,IN,Indiana
46511,Culver,Marshall,IN,Indiana
47581,Shoals,Martin,IN,Indiana
46919,Converse,Miami,IN,Indiana
47407,Bloomington,Monroe,IN,Indiana
47933,Crawfordsville,Montgomery,IN,Indiana
46349,Lake Village,Newton,IN,Indiana
46381,Thayer,Newton,IN,Indiana
47951,Kentland,Newton,IN,Indiana
47963,Morocco,Newton,IN,Indiana
47431,Freedom,Owen,IN,Indiana
46301,Beverly Shores,Porter,IN,Indiana
46171,Reelsville,Putnam,IN,Indiana
47017,Cross Plains,Ripley,IN,Indiana
47041,Sunman,Ripley,IN,Indiana
46601,South Bend,St. Joseph,IN,Indiana
46619,South Bend,St. Joseph,IN,Indiana
46703,Angola,Steuben,IN,Indiana
46747,Hudson,Steuben,IN,Indiana
47903,Lafayette,Tippecanoe,IN,Indiana
47981,Romney,Tippecanoe,IN,Indiana
46049,Kempton,Tipton,IN,Indiana
47353,Liberty,Union,IN,Indiana
47701,Evansville,Vanderburgh,IN,Indiana
47711,Evansville,Vanderburgh,IN,Indiana
47713,Evansville,Vanderburgh,IN,Indiana
47737,Evansville,Vanderburgh,IN,Indiana
47807,Terre Haute,Vigo,IN,Indiana
47809,Terre Haute,Vigo,IN,Indiana
47869,Prairie Creek,Vigo,IN,Indiana
47629,Newburgh,Warrick,IN,Indiana
47339,Economy,Wayne,IN,Indiana
46723,Churubusco,Whitley,IN,Indiana
66749,Iola,Allen,KS,Kansas
66751,La Harpe,Allen,KS,Kansas
66041,Lancaster,Atchison,KS,Kansas
67057,Hardtner,Barber,KS,Kansas
67061,Hazelton,Barber,KS,Kansas
67511,Albert,Barton,KS,Kansas
67567,Pawnee Rock,Barton,KS,Kansas
66701,Fort Scott,Bourbon,KS,Kansas
66713,Baxter Springs,Cherokee,KS,Kansas
66739,Galena,Cherokee,KS,Kansas
67447,Green,Clay,KS,Kansas
66763,Frontenac,Crawford,KS,Kansas
66047,Lawrence,Douglas,KS,Kansas
67547,Kinsley,Edwards,KS,Kansas
67349,Howard,Elk,KS,Kansas
67601,Hays,Ellis,KS,Kansas
67801,Dodge City,Ford,KS,Kansas
67843,Fort Dodge,Ford,KS,Kansas
66067,Ottawa,Franklin,KS,Kansas
67751,Park,Gove,KS,Kansas
67853,Ingalls,Gray,KS,Kansas
67867,Montezuma,Gray,KS,Kansas
66853,Hamilton,Greenwood,KS,Kansas
66863,Neal,Greenwood,KS,Kansas
67003,Anthony,Harper,KS,Kansas
67049,Freeport,Harper,KS,Kansas
66509,Mayetta,Jackson,KS,Kansas
66949,Jewell,Jewell,KS,Kansas
66083,Spring Hill,Johnson,KS,Kansas
66221,Overland Park,Johnson,KS,Kansas
67481,Sylvan Grove,Lincoln,KS,Kansas
66851,Florence,Marion,KS,Kansas
67073,Lehigh,Marion,KS,Kansas
66403,Axtell,Marshall,KS,Kansas
66541,Summerfield,Marshall,KS,Kansas
66071,Paola,Miami,KS,Kansas
66733,Erie,Neosho,KS,Kansas
66413,Burlingame,Osage,KS,Kansas
66523,Osage City,Osage,KS,Kansas
67651,Natoma,Osborne,KS,Kansas
67523,Burdett,Pawnee,KS,Kansas
67021,Byers,Pratt,KS,Kansas
66959,Munden,Republic,KS,Kansas
67427,Bushton,Rice,KS,Kansas
67579,Sterling,Rice,KS,Kansas
66449,Leonardville,Riley,KS,Kansas
67559,Nekoma,Rush,KS,Kansas
67211,Wichita,Sedgwick,KS,Kansas
67213,Wichita,Sedgwick,KS,Kansas
67217,Wichita,Sedgwick,KS,Kansas
67219,Wichita,Sedgwick,KS,Kansas
67901,Liberal,Seward,KS,Kansas
66533,Rossville,Shawnee,KS,Kansas
66601,Topeka,Shawnee,KS,Kansas
66617,Topeka,Shawnee,KS,Kansas
66629,Topeka,Shawnee,KS,Kansas
66683,Topeka,Shawnee,KS,Kansas
67757,Selden,Sheridan,KS,Kansas
67733,Edson,Sherman,KS,Kansas
67741,Kanorado,Sherman,KS,Kansas
67103,Mayfield,Sumner,KS,Kansas
67631,Collyer,Trego,KS,Kansas
66431,Harveyville,Wabaunsee,KS,Kansas
66943,Greenleaf,Washington,KS,Kansas
66103,Kansas City,Wyandotte,KS,Kansas
66109,Kansas City,Wyandotte,KS,Kansas
42131,Etoile,Barren,KY,Kentucky
40813,Calvin,Bell,KY,Kentucky
40357,North Middletown,Bourbon,KY,Kentucky
40361,Paris,Bourbon,KY,Kentucky
40423,Danville,Boyle,KY,Kentucky
40111,Cloverport,Breckinridge,KY,Kentucky
40153,Mc Quady,Breckinridge,KY,Kentucky
40129,Hillview,Bullitt,KY,Kentucky
42071,Murray,Calloway,KY,Kentucky
42023,Bardwell,Carlisle,KY,Kentucky
41143,Grayson,Carter,KY,Kentucky
42221,Fairview,Christian,KY,Kentucky
42223,Fort Campbell,Christian,KY,Kentucky
41149,Isonville,Elliott,KY,Kentucky
40507,Lexington,Fayette,KY,Kentucky
40577,Lexington,Fayette,KY,Kentucky
40583,Lexington,Fayette,KY,Kentucky
40591,Lexington,Fayette,KY,Kentucky
41039,Ewing,Fleming,KY,Kentucky
41081,Plummers Landing,Fleming,KY,Kentucky
41603,Banner,Floyd,KY,Kentucky
41621,Dwale,Floyd,KY,Kentucky
41647,Mc Dowell,Floyd,KY,Kentucky
41651,Minnie,Floyd,KY,Kentucky
41659,Stanville,Floyd,KY,Kentucky
41669,Wheelwright,Floyd,KY,Kentucky
42061,Lowes,Graves,KY,Kentucky
42743,Greensburg,Green,KY,Kentucky
41183,Worthington,Greenup,KY,Kentucky
40177,West Point,Hardin,KY,Kentucky
42701,Elizabethtown,Hardin,KY,Kentucky
40801,Ages Brookside,Harlan,KY,Kentucky
40819,Coldiron,Harlan,KY,Kentucky
40823,Cumberland,Harlan,KY,Kentucky
40829,Grays Knob,Harlan,KY,Kentucky
40847,Kenvir,Harlan,KY,Kentucky
40849,Lejunior,Harlan,KY,Kentucky
40927,Closplint,Harlan,KY,Kentucky
42451,Reed,Henderson,KY,Kentucky
42457,Smith Mills,Henderson,KY,Kentucky
40213,Louisville,Jefferson,KY,Kentucky
40231,Louisville,Jefferson,KY,Kentucky
40241,Louisville,Jefferson,KY,Kentucky
40253,Louisville,Jefferson,KY,Kentucky
40283,Louisville,Jefferson,KY,Kentucky
40289,Louisville,Jefferson,KY,Kentucky
41257,Stambaugh,Johnson,KY,Kentucky
41263,Tutor Key,Johnson,KY,Kentucky
41011,Covington,Kenton,KY,Kentucky
41017,Ft Mitchell,Kenton,KY,Kentucky
41051,Independence,Kenton,KY,Kentucky
41759,Sassafras,Knott,KY,Kentucky
41843,Pine Top,Knott,KY,Kentucky
40771,Woodbine,Knox,KY,Kentucky
40903,Artemus,Knox,KY,Kentucky
40939,Fourmile,Knox,KY,Kentucky
40949,Heidrick,Knox,KY,Kentucky
41201,Adams,Lawrence,KY,Kentucky
41777,Yeaddiss,Leslie,KY,Kentucky
41849,Seco,Letcher,KY,Kentucky
41141,Garrison,Lewis,KY,Kentucky
41179,Vanceburg,Lewis,KY,Kentucky
41189,Tollesboro,Lewis,KY,Kentucky
42083,Tiline,Livingston,KY,Kentucky
42649,Strunk,McCreary,KY,Kentucky
40009,Bradfordsville,Marion,KY,Kentucky
40037,Loretto,Marion,KY,Kentucky
40063,Saint Mary,Marion,KY,Kentucky
41203,Beauty,Martin,KY,Kentucky
41231,Lovely,Martin,KY,Kentucky
40387,Wellington,Menifee,KY,Kentucky
42157,Mount Hermon,Monroe,KY,Kentucky
41413,Crockett,Morgan,KY,Kentucky
42323,Beechmont,Muhlenberg,KY,Kentucky
42337,Drakesboro,Muhlenberg,KY,Kentucky
40013,Coxs Creek,Nelson,KY,Kentucky
42349,Horse Branch,Ohio,KY,Kentucky
40031,La Grange,Oldham,KY,Kentucky
41351,Mistletoe,Owsley,KY,Kentucky
41719,Bonnyman,Perry,KY,Kentucky
41729,Combs,Perry,KY,Kentucky
41513,Belcher,Pike,KY,Kentucky
41519,Canada,Pike,KY,Kentucky
41539,Kimper,Pike,KY,Kentucky
41543,Mc Andrews,Pike,KY,Kentucky
41549,Myra,Pike,KY,Kentucky
42533,Ferguson,Pulaski,KY,Kentucky
40351,Morehead,Rowan,KY,Kentucky
42719,Campbellsville,Taylor,KY,Kentucky
42437,Morganfield,Union,KY,Kentucky
42461,Uniontown,Union,KY,Kentucky
42101,Bowling Green,Warren,KY,Kentucky
42409,Dixon,Webster,KY,Kentucky
42463,Wheatcroft,Webster,KY,Kentucky
40759,Rockholds,Whitley,KY,Kentucky
40763,Siler,Whitley,KY,Kentucky
70537,Evangeline,Acadia,LA,Louisiana
70769,Prairieville,Ascension,LA,Louisiana
70393,Plattenville,Assumption,LA,Louisiana
71327,Cottonport,Avoyelles,LA,Louisiana
71329,Dupont,Avoyelles,LA,Louisiana
71333,Evergreen,Avoyelles,LA,Louisiana
71339,Hamburg,Avoyelles,LA,Louisiana
71341,Hessmer,Avoyelles,LA,Louisiana
70657,Ragley,Beauregard,LA,Louisiana
71171,Bossier City,Bossier,LA,Louisiana
71069,Rodessa,Caddo Parish,LA,Louisiana
71119,Shreveport,Caddo Parish,LA,Louisiana
71129,Shreveport,Caddo Parish,LA,Louisiana
71153,Shreveport,Caddo Parish,LA,Louisiana
71161,Shreveport,Caddo Parish,LA,Louisiana
70607,Lake Charles,Calcasieu,LA,Louisiana
70663,Sulphur,Calcasieu,LA,Louisiana
71363,Rhinehart,Catahoula,LA,Louisiana
70823,Baton Rouge,East Baton Rouge Parish,LA,Louisiana
70879,Baton Rouge,East Baton Rouge Parish,LA,Louisiana
70891,Baton Rouge,East Baton Rouge Parish,LA,Louisiana
71249,Jigger,Franklin,LA,Louisiana
70001,Metairie,Jefferson Parish,LA,Louisiana
70003,Metairie,Jefferson Parish,LA,Louisiana
70009,Metairie,Jefferson Parish,LA,Louisiana
70067,Lafitte,Jefferson Parish,LA,Louisiana
70121,New Orleans,Jefferson Parish,LA,Louisiana
70123,New Orleans,Jefferson Parish,LA,Louisiana
70141,New Orleans,Jefferson Parish,LA,Louisiana
70181,New Orleans,Jefferson Parish,LA,Louisiana
70183,New Orleans,Jefferson Parish,LA,Louisiana
70549,Lake Arthur,Jefferson Davis,LA,Louisiana
70501,Lafayette,Lafayette,LA,Louisiana
70507,Lafayette,Lafayette,LA,Louisiana
70529,Duson,Lafayette,LA,Louisiana
70583,Scott,Lafayette,LA,Louisiana
70373,Larose,Lafourche,LA,Louisiana
71479,Tullos,La Salle,LA,Louisiana
71233,Delta,Madison,LA,Louisiana
71261,Mer Rouge,Morehouse,LA,Louisiana
71411,Campti,Natchitoches,LA,Louisiana
70117,New Orleans,Orleans,LA,Louisiana
70139,New Orleans,Orleans,LA,Louisiana
70157,New Orleans,Orleans,LA,Louisiana
70163,New Orleans,Orleans,LA,Louisiana
70177,New Orleans,Orleans,LA,Louisiana
71209,Monroe,Ouachita Parish,LA,Louisiana
70753,Lettsworth,Pointe Coupee,LA,Louisiana
70783,Ventress,Pointe Coupee,LA,Louisiana
71359,Pineville,Rapides,LA,Louisiana
71419,Converse,Sabine,LA,Louisiana
71429,Florien,Sabine,LA,Louisiana
70039,Boutte,St. Charles,LA,Louisiana
70079,Norco,St. Charles,LA,Louisiana
70051,Garyville,St. John the Baptist,LA,Louisiana
70571,Opelousas,St. Landry,LA,Louisiana
70589,Washington,St. Landry,LA,Louisiana
71353,Melville,St. Landry,LA,Louisiana
70381,Morgan City,St. Mary,LA,Louisiana
70457,Saint Benedict,St. Tammany,LA,Louisiana
70459,Slidell,St. Tammany,LA,Louisiana
70451,Natalbany,Tangipahoa,LA,Louisiana
70639,Evans,Vernon,LA,Louisiana
71443,Kurthwood,Vernon,LA,Louisiana
70429,Bogalusa,Washington,LA,Louisiana
71023,Doyline,Webster,LA,Louisiana
71039,Heflin,Webster,LA,Louisiana
70729,Erwinville,West Baton Rouge,LA,Louisiana
71237,Epps,West Carroll,LA,Louisiana
71263,Oak Grove,West Carroll,LA,Louisiana
71471,Saint Maurice,Winn,LA,Louisiana
71473,Sikes,Winn,LA,Louisiana
71483,Winnfield,Winn,LA,Louisiana
02543,Woods Hole,Barnstable,MA,Massachusetts
02633,Chatham,Barnstable,MA,Massachusetts
02647,Hyannis Port,Barnstable,MA,Massachusetts
02657,Provincetown,Barnstable,MA,Massachusetts
02659,South Chatham,Barnstable,MA,Massachusetts
02663,South Wellfleet,Barnstable,MA,Massachusetts
02671,West Harwich,Barnstable,MA,Massachusetts
01201,Pittsfield,Berkshire,MA,Massachusetts
01223,Becket,Berkshire,MA,Massachusetts
01229,Glendale,Berkshire,MA,Massachusetts
01237,Lanesborough,Berkshire,MA,Massachusetts
01259,Southfield,Berkshire,MA,Massachusetts
02357,North Easton,Bristol,MA,Massachusetts
02719,Fairhaven,Bristol,MA,Massachusetts
02741,New Bedford,Bristol,MA,Massachusetts
02767,Raynham,Bristol,MA,Massachusetts
02777,Swansea,Bristol,MA,Massachusetts
02791,Westport Point,Bristol,MA,Massachusetts
02539,Edgartown,Dukes,MA,Massachusetts
02557,Oak Bluffs,Dukes,MA,Massachusetts
02713,Cuttyhunk,Dukes,MA,Massachusetts
01831,Haverhill,Essex,MA,Massachusetts
01901,Lynn,Essex,MA,Massachusetts
01907,Swampscott,Essex,MA,Massachusetts
01913,Amesbury,Essex,MA,Massachusetts
01931,Gloucester,Essex,MA,Massachusetts
01949,Middleton,Essex,MA,Massachusetts
01951,Newbury,Essex,MA,Massachusetts
05501,Andover,Essex,MA,Massachusetts
01093,Whately,Franklin,MA,Massachusetts
01301,Greenfield,Franklin,MA,Massachusetts
01367,Rowe,Franklin,MA,Massachusetts
01373,South Deerfield,Franklin,MA,Massachusetts
01009,Bondsville,Hampden,MA,Massachusetts
01013,Chicopee,Hampden,MA,Massachusetts
01021,Chicopee,Hampden,MA,Massachusetts
01069,Palmer,Hampden,MA,Massachusetts
01097,Woronoco,Hampden,MA,Massachusetts
01103,Springfield,Hampden,MA,Massachusetts
01109,Springfield,Hampden,MA,Massachusetts
01129,Springfield,Hampden,MA,Massachusetts
01151,Indian Orchard,Hampden,MA,Massachusetts
01033,Granby,Hampshire,MA,Massachusetts
01039,Haydenville,Hampshire,MA,Massachusetts
01061,Northampton,Hampshire,MA,Massachusetts
01063,Northampton,Hampshire,MA,Massachusetts
01471,Groton,Middlesex,MA,Massachusetts
01721,Ashland,Middlesex,MA,Massachusetts
01741,Carlisle,Middlesex,MA,Massachusetts
01801,Woburn,Middlesex,MA,Massachusetts
01867,Reading,Middlesex,MA,Massachusetts
01879,Tyngsboro,Middlesex,MA,Massachusetts
01889,North Reading,Middlesex,MA,Massachusetts
02141,Cambridge,Middlesex,MA,Massachusetts
02143,Somerville,Middlesex,MA,Massachusetts
02153,Medford,Middlesex,MA,Massachusetts
02459,Newton Center,Middlesex,MA,Massachusetts
02467,Chestnut Hill,Middlesex,MA,Massachusetts
02477,Watertown,Middlesex,MA,Massachusetts
02027,Dedham,Norfolk,MA,Massachusetts
02053,Medway,Norfolk,MA,Massachusetts
02081,Walpole,Norfolk,MA,Massachusetts
02269,Quincy,Norfolk,MA,Massachusetts
02447,Brookline Village,Norfolk,MA,Massachusetts
02333,East Bridgewater,Plymouth,MA,Massachusetts
02339,Hanover,Plymouth,MA,Massachusetts
02341,Hanson,Plymouth,MA,Massachusetts
02347,Lakeville,Plymouth,MA,Massachusetts
02351,Abington,Plymouth,MA,Massachusetts
02381,White Horse Beach,Plymouth,MA,Massachusetts
02111,Boston,Suffolk,MA,Massachusetts
02113,Boston,Suffolk,MA,Massachusetts
02129,Charlestown,Suffolk,MA,Massachusetts
02131,Roslindale,Suffolk,MA,Massachusetts
02137,Readville,Suffolk,MA,Massachusetts
02203,Boston,Suffolk,MA,Massachusetts
02293,Boston,Suffolk,MA,Massachusetts
02297,Boston,Suffolk,MA,Massachusetts
01031,Gilbertville,Worcester,MA,Massachusetts
01451,Harvard,Worcester,MA,Massachusetts
01453,Leominster,Worcester,MA,Massachusetts
01523,Lancaster,Worcester,MA,Massachusetts
01531,New Braintree,Worcester,MA,Massachusetts
01543,Rutland,Worcester,MA,Massachusetts
01571,Dudley,Worcester,MA,Massachusetts
01583,West Boylston,Worcester,MA,Massachusetts
01601,Worcester,Worcester,MA,Massachusetts
01607,Worcester,Worcester,MA,Massachusetts
01609,Worcester,Worcester,MA,Massachusetts
01613,Worcester,Worcester,MA,Massachusetts
01747,Hopedale,Worcester,MA,Massachusetts
21503,Cumberland,Allegany,MD,Maryland
21521,Barton,Allegany,MD,Maryland
21529,Ellerslie,Allegany,MD,Maryland
21557,Rawlings,Allegany,MD,Maryland
21061,Glen Burnie,Anne Arundel,MD,Maryland
21401,Annapolis,Anne Arundel,MD,Maryland
21013,Baldwin,Baltimore,MD,Maryland
21023,Butler,Baltimore,MD,Maryland
21031,Hunt Valley,Baltimore,MD,Maryland
21139,Riderwood,Baltimore,MD,Maryland
21163,Woodstock,Baltimore,MD,Maryland
21221,Essex,Baltimore,MD,Maryland
21227,Halethorpe,Baltimore,MD,Maryland
20639,Huntingtown,Calvert,MD,Maryland
21649,Marydel,Caroline,MD,Maryland
21157,Westminster,Carroll,MD,Maryland
21757,Keymar,Carroll,MD,Maryland
21787,Taneytown,Carroll,MD,Maryland
21911,Rising Sun,Cecil,MD,Maryland
20611,Bel Alton,Charles,MD,Maryland
20693,Welcome,Charles,MD,Maryland
21613,Cambridge,Dorchester,MD,Maryland
21701,Frederick,Frederick,MD,Maryland
21727,Emmitsburg,Frederick,MD,Maryland
21773,Myersville,Frederick,MD,Maryland
21523,Bloomington,Garrett,MD,Maryland
21001,Aberdeen,Harford,MD,Maryland
21017,Belcamp,Harford,MD,Maryland
20759,Fulton,Howard,MD,Maryland
21737,Glenelg,Howard,MD,Maryland
21661,Rock Hall,Kent,MD,Maryland
20849,Rockville,Montgomery,MD,Maryland
20857,Rockville,Montgomery,MD,Maryland
20879,Gaithersburg,Montgomery,MD,Maryland
20897,Suburb Maryland Fac,Montgomery,MD,Maryland
20899,Gaithersburg,Montgomery,MD,Maryland
20903,Silver Spring,Montgomery,MD,Maryland
20707,Laurel,Prince George's,MD,Maryland
20717,Bowie,Prince George's,MD,Maryland
20719,Bowie,Prince George's,MD,Maryland
20731,Capitol Heights,Prince George's,MD,Maryland
20743,Capitol Heights,Prince George's,MD,Maryland
20747,District Heights,Prince George's,MD,Maryland
20749,Fort Washington,Prince George's,MD,Maryland
20753,District Heights,Prince George's,MD,Maryland
20771,Greenbelt,Prince George's,MD,Maryland
20773,Upper Marlboro,Prince George's,MD,Maryland
21617,Centreville,Queen Anne's,MD,Maryland
20627,Compton,St. Mary's,MD,Maryland
21817,Crisfield,Somerset,MD,Maryland
21821,Deal Island,Somerset,MD,Maryland
21871,Westover,Somerset,MD,Maryland
21601,Easton,Talbot,MD,Maryland
21647,Mcdaniel,Talbot,MD,Maryland
21673,Trappe,Talbot,MD,Maryland
21713,Boonsboro,Washington,MD,Maryland
21767,Maugansville,Washington,MD,Maryland
21803,Salisbury,Wicomico,MD,Maryland
21841,Newark,Worcester,MD,Maryland
21851,Pocomoke City,Worcester,MD,Maryland
21863,Snow Hill,Worcester,MD,Maryland
21211,Baltimore,Baltimore (city),MD,Maryland
04211,Auburn,Androscoggin,ME,Maine
04241,Lewiston,Androscoggin,ME,Maine
04243,Lewiston,Androscoggin,ME,Maine
04253,Livermore,Androscoggin,ME,Maine
04733,Benedicta,Aroostook,ME,Maine
04751,Limestone,Aroostook,ME,Maine
04783,Stockholm,Aroostook,ME,Maine
04787,Westfield,Aroostook,ME,Maine
04003,Bailey Island,Cumberland,ME,Maine
04013,Bustins Island,Cumberland,ME,Maine
04019,Cliff Island,Cumberland,ME,Maine
04021,Cumberland Center,Cumberland,ME,Maine
04057,North Bridgton,Cumberland,ME,Maine
04079,Harpswell,Cumberland,ME,Maine
04091,West Baldwin,Cumberland,ME,Maine
04421,Castine,Hancock,ME,Maine
04673,Sargentville,Hancock,ME,Maine
04679,Southwest Harbor,Hancock,ME,Maine
04259,Monmouth,Kennebec,ME,Maine
04349,Kents Hill,Kennebec,ME,Maine
04363,Windsor,Kennebec,ME,Maine
04903,Waterville,Kennebec,ME,Maine
04547,Friendship,Knox,ME,Maine
04861,Thomaston,Knox,ME,Maine
04549,Isle Of Springs,Lincoln,ME,Maine
04051,Lovell,Oxford,ME,Maine
04217,Bethel,Oxford,ME,Maine
04219,Bryant Pond,Oxford,ME,Maine
04231,Stoneham,Oxford,ME,Maine
04261,Newry,Oxford,ME,Maine
04271,Paris,Oxford,ME,Maine
04289,West Paris,Oxford,ME,Maine
04451,Kingman,Penobscot,ME,Maine
04457,Lincoln,Penobscot,ME,Maine
04493,West Enfield,Penobscot,ME,Maine
04933,East Newport,Penobscot,ME,Maine
04969,Plymouth,Penobscot,ME,Maine
04441,Greenville,Piscataquis,ME,Maine
04463,Milo,Piscataquis,ME,Maine
04481,Sebec,Piscataquis,ME,Maine
04357,Richmond,Sagadahoc,ME,Maine
04937,Fairfield,Somerset,ME,Maine
04943,Hartland,Somerset,ME,Maine
04957,Norridgewock,Somerset,ME,Maine
04967,Pittsfield,Somerset,ME,Maine
04951,Monroe,Waldo,ME,Maine
04973,Searsmont,Waldo,ME,Maine
04987,Troy,Waldo,ME,Maine
04637,Grand Lake Stream,Washington,ME,Maine
04643,Harrington,Washington,ME,Maine
04649,Jonesport,Washington,ME,Maine
04657,Meddybemps,Washington,ME,Maine
04691,Whiting,Washington,ME,Maine
03907,Ogunquit,York,ME,Maine
03911,York Harbor,York,ME,Maine
04001,Acton,York,ME,Maine
04007,Biddeford,York,ME,Maine
04027,Lebanon,York,ME,Maine
04049,Limington,York,ME,Maine
04073,Sanford,York,ME,Maine
04093,Buxton,York,ME,Maine
49891,Trenary,Alger,MI,Michigan
49747,Hubbard Lake,Alpena,MI,Michigan
49627,Eastport,Antrim,MI,Michigan
49919,Covington,Baraga,MI,Michigan
49333,Middleville,Barry,MI,Michigan
48611,Auburn,Bay,MI,Michigan
49103,Berrien Springs,Berrien,MI,Michigan
49117,New Buffalo,Berrien,MI,Michigan
49033,Ceresco,Calhoun,MI,Michigan
49037,Battle Creek,Calhoun,MI,Michigan
49031,Cassopolis,Cass,MI,Michigan
49711,Bay Shore,Charlevoix,MI,Michigan
49727,East Jordan,Charlevoix,MI,Michigan
49783,Sault Sainte Marie,Chippewa,MI,Michigan
49739,Grayling,Crawford,MI,Michigan
49807,Bark River,Delta,MI,Michigan
49801,Iron Mountain,Dickinson,MI,Michigan
49831,Felch,Dickinson,MI,Michigan
49877,Ralph,Dickinson,MI,Michigan
48821,Dimondale,Eaton,MI,Michigan
48437,Genesee,Genesee,MI,Michigan
48449,Lennon,Genesee,MI,Michigan
48463,Otisville,Genesee,MI,Michigan
48473,Swartz Creek,Genesee,MI,Michigan
49633,Fife Lake,Grand Traverse,MI,Michigan
48847,Ithaca,Gratiot,MI,Michigan
48871,Perrinton,Gratiot,MI,Michigan
48889,Sumner,Gratiot,MI,Michigan
49921,Dodgeville,Houghton,MI,Michigan
48413,Bad Axe,Huron,MI,Michigan
48731,Elkton,Huron,MI,Michigan
48823,East Lansing,Ingham,MI,Michigan
48809,Belding,Ionia,MI,Michigan
49927,Gaastra,Iron,MI,Michigan
48859,Mount Pleasant,Isabella,MI,Michigan
48883,Shepherd,Isabella,MI,Michigan
49201,Jackson,Jackson,MI,Michigan
49261,Napoleon,Jackson,MI,Michigan
49277,Rives Junction,Jackson,MI,Michigan
49003,Kalamazoo,Kalamazoo,MI,Michigan
49009,Kalamazoo,Kalamazoo,MI,Michigan
49019,Kalamazoo,Kalamazoo,MI,Michigan
49081,Portage,Kalamazoo,MI,Michigan
49331,Lowell,Kent,MI,Michigan
49523,Grand Rapids,Kent,MI,Michigan
49253,Manitou Beach,Lenawee,MI,Michigan
49279,Sand Creek,Lenawee,MI,Michigan
48353,Hartland,Livingston,MI,Michigan
49853,Mc Millan,Luce,MI,Michigan
49757,Mackinac Island,Mackinac,MI,Michigan
48091,Warren,Macomb,MI,Michigan
48311,Sterling Heights,Macomb,MI,Michigan
48313,Sterling Heights,Macomb,MI,Michigan
48397,Warren,Macomb,MI,Michigan
49613,Arcadia,Manistee,MI,Michigan
49871,Palmer,Marquette,MI,Michigan
49411,Free Soil,Mason,MI,Michigan
49307,Big Rapids,Mecosta,MI,Michigan
49667,Merritt,Missaukee,MI,Michigan
48131,Dundee,Monroe,MI,Michigan
48157,Luna Pier,Monroe,MI,Michigan
48179,South Rockwood,Monroe,MI,Michigan
49339,Pierson,Montcalm,MI,Michigan
49451,Ravenna,Muskegon,MI,Michigan
49463,Sylvan Beach,Muskegon,MI,Michigan
48017,Clawson,Oakland,MI,Michigan
48073,Royal Oak,Oakland,MI,Michigan
48341,Pontiac,Oakland,MI,Michigan
48371,Oxford,Oakland,MI,Michigan
48383,White Lake,Oakland,MI,Michigan
49459,Walkerville,Oceana,MI,Michigan
48661,West Branch,Ogemaw,MI,Michigan
48761,South Branch,Ogemaw,MI,Michigan
49639,Hersey,Osceola,MI,Michigan
48619,Comins,Oscoda,MI,Michigan
48647,Mio,Oscoda,MI,Michigan
49409,Ferrysburg,Ottawa,MI,Michigan
49417,Grand Haven,Ottawa,MI,Michigan
49429,Jenison,Ottawa,MI,Michigan
48623,Freeland,Saginaw,MI,Michigan
48649,Oakley,Saginaw,MI,Michigan
48787,Frankenmuth,Saginaw,MI,Michigan
48023,Fair Haven,St. Clair,MI,Michigan
48049,North Street,St. Clair,MI,Michigan
48079,Saint Clair,St. Clair,MI,Michigan
48817,Corunna,Shiawassee,MI,Michigan
48857,Morrice,Shiawassee,MI,Michigan
48733,Fairgrove,Tuscola,MI,Michigan
48757,Reese,Tuscola,MI,Michigan
48767,Unionville,Tuscola,MI,Michigan
49043,Covert,Van Buren,MI,Michigan
49057,Hartford,Van Buren,MI,Michigan
48109,Ann Arbor,Washtenaw,MI,Michigan
48197,Ypsilanti,Washtenaw,MI,Michigan
48121,Dearborn,Wayne,MI,Michigan
48187,Canton,Wayne,MI,Michigan
48193,Riverview,Wayne,MI,Michigan
48221,Detroit,Wayne,MI,Michigan
48239,Redford,Wayne,MI,Michigan
49663,Manton,Wexford,MI,Michigan
55787,Tamarack,Aitkin,MN,Minnesota
56431,Aitkin,Aitkin,MN,Minnesota
56501,Detroit Lakes,Becker,MN,Minnesota
56569,Ogema,Becker,MN,Minnesota
56591,White Earth,Becker,MN,Minnesota
56663,Pennington,Beltrami,MN,Minnesota
56671,Redlake,Beltrami,MN,Minnesota
56687,Wilton,Beltrami,MN,Minnesota
56333,Gilman,Benton,MN,Minnesota
56041,Hanska,Brown,MN,Minnesota
56087,Springfield,Brown,MN,Minnesota
55733,Esko,Carlton,MN,Minnesota
55339,Hamburg,Carver,MN,Minnesota
56473,Pillager,Cass,MN,Minnesota
56633,Cass Lake,Cass,MN,Minnesota
55079,Stacy,Chisago,MN,Minnesota
56101,Windom,Cottonwood,MN,Minnesota
56401,Brainerd,Crow Wing,MN,Minnesota
55337,Burnsville,Dakota,MN,Minnesota
55927,Dodge Center,Dodge,MN,Minnesota
55949,Lanesboro,Fillmore,MN,Minnesota
56009,Alden,Freeborn,MN,Minnesota
55009,Cannon Falls,Goodhue,MN,Minnesota
56311,Barrett,Grant,MN,Minnesota
56531,Elbow Lake,Grant,MN,Minnesota
55331,Excelsior,Hennepin,MN,Minnesota
55343,Hopkins,Hennepin,MN,Minnesota
55411,Minneapolis,Hennepin,MN,Minnesota
55439,Minneapolis,Hennepin,MN,Minnesota
55441,Minneapolis,Hennepin,MN,Minnesota
55487,Minneapolis,Hennepin,MN,Minnesota
55579,Maple Plain,Hennepin,MN,Minnesota
55921,Caledonia,Houston,MN,Minnesota
55931,Eitzen,Houston,MN,Minnesota
56467,Nevis,Hubbard,MN,Minnesota
55721,Cohasset,Itasca,MN,Minnesota
55793,Warba,Itasca,MN,Minnesota
56659,Max,Itasca,MN,Minnesota
56681,Squaw Lake,Itasca,MN,Minnesota
55051,Mora,Kanabec,MN,Minnesota
56209,Atwater,Kandiyohi,MN,Minnesota
56731,Humboldt,Kittson,MN,Minnesota
56629,Birchdale,Koochiching,MN,Minnesota
55603,Finland,Lake,MN,Minnesota
55609,Knife River,Lake,MN,Minnesota
56711,Angle Inlet,Lake of the Woods,MN,Minnesota
56113,Arco,Lincoln,MN,Minnesota
56149,Lake Benton,Lincoln,MN,Minnesota
56239,Ghent,Lyon,MN,Minnesota
55381,Silver Lake,McLeod,MN,Minnesota
56713,Argyle,Marshall,MN,Minnesota
56737,Middle River,Marshall,MN,Minnesota
56039,Granada,Martin,MN,Minnesota
56171,Sherburn,Martin,MN,Minnesota
56359,Onamia,Mille Lacs,MN,Minnesota
56443,Cushing,Morrison,MN,Minnesota
55933,Elkton,Mower,MN,Minnesota
55967,Racine,Mower,MN,Minnesota
56123,Currie,Murray,MN,Minnesota
56131,Fulda,Murray,MN,Minnesota
56003,Mankato,Nicollet,MN,Minnesota
56167,Round Lake,Nobles,MN,Minnesota
56519,Borup,Norman,MN,Minnesota
55901,Rochester,Olmsted,MN,Minnesota
55903,Rochester,Olmsted,MN,Minnesota
56527,Deer Creek,Otter Tail,MN,Minnesota
56533,Elizabeth,Otter Tail,MN,Minnesota
56701,Thief River Falls,Pennington,MN,Minnesota
55103,Saint Paul,Ramsey,MN,Minnesota
55109,Saint Paul,Ramsey,MN,Minnesota
55117,Saint Paul,Ramsey,MN,Minnesota
55127,Saint Paul,Ramsey,MN,Minnesota
56263,Milroy,Redwood,MN,Minnesota
55333,Franklin,Renville,MN,Minnesota
55021,Faribault,Rice,MN,Minnesota
55057,Northfield,Rice,MN,Minnesota
55711,Brookston,St. Louis,MN,Minnesota
55717,Canyon,St. Louis,MN,Minnesota
55763,Makinen,St. Louis,MN,Minnesota
55807,Duluth,St. Louis,MN,Minnesota
56369,Rockville,Stearns,MN,Minnesota
56377,Sartell,Stearns,MN,Minnesota
56393,Saint Cloud,Stearns,MN,Minnesota
55049,Medford,Steele,MN,Minnesota
56207,Alberta,Stevens,MN,Minnesota
56267,Morris,Stevens,MN,Minnesota
56249,Holloway,Swift,MN,Minnesota
56437,Bertha,Todd,MN,Minnesota
56453,Hewitt,Todd,MN,Minnesota
56479,Staples,Todd,MN,Minnesota
56477,Sebeka,Wadena,MN,Minnesota
56093,Waseca,Waseca,MN,Minnesota
55001,Afton,Washington,MN,Minnesota
55073,Scandia,Washington,MN,Minnesota
56081,Saint James,Watonwan,MN,Minnesota
56543,Foxhome,Wilkin,MN,Minnesota
55987,Winona,Winona,MN,Minnesota
55313,Buffalo,Wright,MN,Minnesota
55373,Rockford,Wright,MN,Minnesota
56237,Echo,Yellow Medicine,MN,Minnesota
63533,Brashear,Adair,MO,Missouri
63559,Novinger,Adair,MO,Missouri
64483,Rosendale,Andrew,MO,Missouri
65647,Exeter,Barry,MO,Missouri
63781,Sedgewickville,Bollinger,MO,Missouri
65203,Columbia,Boone,MO,Missouri
63901,Poplar Bluff,Butler,MO,Missouri
65063,New Bloomfield,Callaway,MO,Missouri
63703,Cape Girardeau,Cape Girardeau,MO,Missouri
63743,Daisy,Cape Girardeau,MO,Missouri
64633,Carrollton,Carroll,MO,Missouri
64747,Garden City,Cass,MO,Missouri
65629,Chadwick,Christian,MO,Missouri
65657,Garrison,Christian,MO,Missouri
72643,Lead Hill,Christian,MO,Missouri
64157,Kansas City,Clay,MO,Missouri
65053,Lohman,Cole,MO,Missouri
65101,Jefferson City,Cole,MO,Missouri
65111,Jefferson City,Cole,MO,Missouri
65287,Wooldridge,Cooper,MO,Missouri
65449,Cook Sta,Crawford,MO,Missouri
63857,Kennett,Dunklin,MO,Missouri
63863,Malden,Dunklin,MO,Missouri
63073,Saint Albans,Franklin,MO,Missouri
63079,Stanton,Franklin,MO,Missouri
64453,Gentry,Gentry,MO,Missouri
64489,Stanberry,Gentry,MO,Missouri
65809,Springfield,Greene,MO,Missouri
65899,Springfield,Greene,MO,Missouri
64679,Spickard,Grundy,MO,Missouri
65323,Calhoun,Henry,MO,Missouri
64451,Forest City,Holt,MO,Missouri
65777,Moody,Howell,MO,Missouri
65789,Pomona,Howell,MO,Missouri
64013,Blue Springs,Jackson,MO,Missouri
64063,Lees Summit,Jackson,MO,Missouri
64081,Lees Summit,Jackson,MO,Missouri
64109,Kansas City,Jackson,MO,Missouri
64123,Kansas City,Jackson,MO,Missouri
64171,Kansas City,Jackson,MO,Missouri
64187,Kansas City,Jackson,MO,Missouri
64849,Neck City,Jasper,MO,Missouri
64019,Centerview,Johnson,MO,Missouri
65543,Lynchburg,Laclede,MO,Missouri
64037,Higginsville,Lafayette,MO,Missouri
64067,Lexington,Lafayette,MO,Missouri
65327,Emma,Lafayette,MO,Missouri
65707,Miller,Lawrence,MO,Missouri
63473,Williamstown,Lewis,MO,Missouri
63347,Foley,Lincoln,MO,Missouri
63377,Silex,Lincoln,MO,Missouri
63389,Winfield,Lincoln,MO,Missouri
64601,Chillicothe,Livingston,MO,Missouri
63463,Philadelphia,Marion,MO,Missouri
64661,Mercer,Mercer,MO,Missouri
63823,Bertrand,Mississippi,MO,Missouri
63361,Montgomery City,Montgomery,MO,Missouri
65011,Barnett,Morgan,MO,Missouri
64853,Newtonia,Newton,MO,Missouri
64433,Conception,Nodaway,MO,Missouri
65609,Bakersfield,Ozark,MO,Missouri
65729,Pontiac,Ozark,MO,Missouri
65761,Theodosia,Ozark,MO,Missouri
63839,Cooter,Pemiscot,MO,Missouri
63853,Holland,Pemiscot,MO,Missouri
63737,Brazeau,Perry,MO,Missouri
63353,Louisiana,Pike,MO,Missouri
64151,Kansas City,Platte,MO,Missouri
64153,Kansas City,Platte,MO,Missouri
64439,Dearborn,Platte,MO,Missouri
65617,Brighton,Polk,MO,Missouri
63467,Saverton,Ralls,MO,Missouri
65239,Cairo,Randolph,MO,Missouri
65257,Higbee,Randolph,MO,Missouri
63629,Bunker,Reynolds,MO,Missouri
63367,Lake Saint Louis,Saint Charles,MO,Missouri
64763,Lowry City,St. Clair,MO,Missouri
64781,Roscoe,St. Clair,MO,Missouri
63601,Park Hills,St. Francois,MO,Missouri
63031,Florissant,St. Louis,MO,Missouri
63127,Saint Louis,St. Louis,MO,Missouri
63131,Saint Louis,St. Louis,MO,Missouri
63541,Glenwood,Schuyler,MO,Missouri
63439,Emden,Shelby,MO,Missouri
63443,Hunnewell,Shelby,MO,Missouri
63841,Dexter,Stoddard,MO,Missouri
65633,Crane,Stone,MO,Missouri
64667,Newtown,Sullivan,MO,Missouri
65731,Powersite,Taney,MO,Missouri
65479,Hartshorn,Texas,MO,Missouri
65557,Roby,Texas,MO,Missouri
64783,Schell City,Vernon,MO,Missouri
65713,Niangua,Webster,MO,Missouri
64499,Worth,Worth,MO,Missouri
65717,Norwood,Wright,MO,Missouri
63103,Saint Louis,St. Louis (city),MO,Missouri
63113,Saint Louis,St. Louis (city),MO,Missouri
63179,Saint Louis,St. Louis (city),MO,Missouri
63197,Saint Louis,St. Louis (city),MO,Missouri
63199,Saint Louis,St. Louis (city),MO,Missouri
39107,Mc Adams,Attala,MS,Mississippi
38603,Ashland,Benton,MS,Mississippi
38839,Derma,Calhoun,MS,Mississippi
38917,Carrollton,Carroll,MS,Mississippi
38923,Coila,Carroll,MS,Mississippi
38851,Houston,Chickasaw,MS,Mississippi
38639,Jonestown,Coahoma,MS,Mississippi
38669,Sherard,Coahoma,MS,Mississippi
38767,Rena Lara,Coahoma,MS,Mississippi
39191,Wesson,Copiah,MS,Mississippi
39119,Mount Olive,Covington,MS,Mississippi
38651,Nesbit,DeSoto,MS,Mississippi
38671,Southaven,DeSoto,MS,Mississippi
39451,Leakesville,Greene,MS,Mississippi
39461,Neely,Greene,MS,Mississippi
39521,Bay Saint Louis,Hancock,MS,Mississippi
39503,Gulfport,Harrison,MS,Mississippi
39041,Bolton,Hinds,MS,Mississippi
39209,Jackson,Hinds,MS,Mississippi
39217,Jackson,Hinds,MS,Mississippi
39079,Goodman,Holmes,MS,Mississippi
39097,Louise,Humphreys,MS,Mississippi
39113,Mayersville,Issaquena,MS,Mississippi
39563,Moss Point,Jackson,MS,Mississippi
39569,Pascagoula,Jackson,MS,Mississippi
39581,Pascagoula,Jackson,MS,Mississippi
39439,Heidelberg,Jasper,MS,Mississippi
39443,Laurel,Jones,MS,Mississippi
38677,University,Lafayette,MS,Mississippi
39301,Meridian,Lauderdale,MS,Mississippi
38803,Tupelo,Lee,MS,Mississippi
38959,Swiftown,Leflore,MS,Mississippi
39703,Columbus,Lowndes,MS,Mississippi
39157,Ridgeland,Madison,MS,Mississippi
39163,Sharon,Madison,MS,Mississippi
38611,Byhalia,Marshall,MS,Mississippi
38821,Amory,Monroe,MS,Mississippi
39323,Chunky,Newton,MS,Mississippi
39341,Macon,Noxubee,MS,Mississippi
39769,Sturgis,Oktibbeha,MS,Mississippi
38609,Belen,Quitman,MS,Mississippi
39043,Brandon,Rankin,MS,Mississippi
39047,Brandon,Rankin,MS,Mississippi
39161,Sandhill,Rankin,MS,Mississippi
39359,Sebastopol,Scott,MS,Mississippi
38737,Drew,Sunflower,MS,Mississippi
38749,Indianola,Sunflower,MS,Mississippi
38921,Charleston,Tallahatchie,MS,Mississippi
38629,Falkner,Tippah,MS,Mississippi
38833,Burnsville,Tishomingo,MS,Mississippi
38873,Tishomingo,Tishomingo,MS,Mississippi
39667,Tylertown,Walthall,MS,Mississippi
39181,Vicksburg,Warren,MS,Mississippi
38723,Avon,Washington,MS,Mississippi
39367,Waynesboro,Wayne,MS,Mississippi
39631,Centreville,Wilkinson,MS,Mississippi
38953,Scobey,Yalobusha,MS,Mississippi
59029,Fromberg,Carbon,MT,Montana
59443,Fort Shaw,Cascade,MT,Montana
59351,Volborg,Custer,MT,Montana
59263,Scobey,Daniels,MT,Montana
59441,Forest Grove,Fergus,MT,Montana
59471,Roy,Fergus,MT,Montana
59921,Lake Mc Donald,Flathead,MT,Montana
59771,Bozeman,Gallatin,MT,Montana
59077,Sand Springs,Garfield,MT,Montana
59417,Browning,Glacier,MT,Montana
59447,Geyser,Judith Basin,MT,Montana
59863,Ravalli,Lake,MT,Montana
59929,Proctor,Lake,MT,Montana
59729,Ennis,Madison,MT,Montana
59747,Pony,Madison,MT,Montana
59053,Martinsdale,Meagher,MT,Montana
59341,Mildred,Prairie,MT,Montana
59833,Florence,Ravalli,MT,Montana
59221,Fairview,Richland,MT,Montana
59243,Lambert,Richland,MT,Montana
59083,Sumatra,Rosebud,MT,Montana
59333,Hathaway,Rosebud,MT,Montana
59219,Dagmar,Sheridan,MT,Montana
59707,Butte,Silver Bow,MT,Montana
59743,Melrose,Silver Bow,MT,Montana
59063,Park City,Stillwater,MT,Montana
59069,Reed Point,Stillwater,MT,Montana
59011,Big Timber,Sweet Grass,MT,Montana
59419,Bynum,Teton,MT,Montana
59467,Pendroy,Teton,MT,Montana
59273,Vandalia,Valley,MT,Montana
59453,Judith Gap,Wheatland,MT,Montana
59107,Billings,Yellowstone,MT,Montana
27253,Graham,Alamance,NC,North Carolina
28627,Glade Valley,Alleghany,NC,North Carolina
28663,Piney Creek,Alleghany,NC,North Carolina
28631,Grassy Creek,Ashe,NC,North Carolina
28643,Lansing,Ashe,NC,North Carolina
28657,Newland,Avery,NC,North Carolina
27817,Chocowinity,Beaufort,NC,North Carolina
27847,Kelford,Bertie,NC,North Carolina
27967,Powellsville,Bertie,NC,North Carolina
27983,Windsor,Bertie,NC,North Carolina
28433,Clarkton,Bladen,NC,North Carolina
28711,Black Mountain,Buncombe,NC,North Carolina
28759,Mills River,Buncombe,NC,North Carolina
28813,Asheville,Buncombe,NC,North Carolina
28619,Drexel,Burke,NC,North Carolina
28027,Concord,Cabarrus,NC,North Carolina
28081,Kannapolis,Cabarrus,NC,North Carolina
28661,Patterson,Caldwell,NC,North Carolina
28579,Smyrna,Carteret,NC,North Carolina
28603,Hickory,Catawba,NC,North Carolina
28901,Andrews,Cherokee,NC,North Carolina
28909,Warne,Clay,NC,North Carolina
28151,Shelby,Cleveland,NC,North Carolina
28439,Fair Bluff,Columbus,NC,North Carolina
28463,Tabor City,Columbus,NC,North Carolina
28307,Fort Bragg,Cumberland,NC,North Carolina
28309,Fayetteville,Cumberland,NC,North Carolina
27917,Barco,Currituck,NC,North Carolina
27941,Harbinger,Currituck,NC,North Carolina
27947,Jarvisburg,Currituck,NC,North Carolina
27943,Hatteras,Dare,NC,North Carolina
27953,Manns Harbor,Dare,NC,North Carolina
27239,Denton,Davidson,NC,North Carolina
27299,Linwood,Davidson,NC,North Carolina
27361,Thomasville,Davidson,NC,North Carolina
28349,Kenansville,Duplin,NC,North Carolina
27701,Durham,Durham,NC,North Carolina
27809,Battleboro,Edgecombe,NC,North Carolina
27103,Winston-Salem,Forsyth,NC,North Carolina
27107,Winston-Salem,Forsyth,NC,North Carolina
27109,Winston-Salem,Forsyth,NC,North Carolina
27127,Winston-Salem,Forsyth,NC,North Carolina
28771,Robbinsville,Graham,NC,North Carolina
27509,Butner,Granville,NC,North Carolina
27527,Clayton,Granville,NC,North Carolina
27581,Stem,Granville,NC,North Carolina
27283,Julian,Guilford,NC,North Carolina
27407,Greensboro,Guilford,NC,North Carolina
27409,Greensboro,Guilford,NC,North Carolina
27427,Greensboro,Guilford,NC,North Carolina
27823,Enfield,Halifax,NC,North Carolina
28751,Maggie Valley,Haywood,NC,North Carolina
28729,Etowah,Henderson,NC,North Carolina
28793,Hendersonville,Henderson,NC,North Carolina
28123,Mount Mourne,Iredell,NC,North Carolina
28687,Statesville,Iredell,NC,North Carolina
28723,Cullowhee,Jackson,NC,North Carolina
28789,Whittier,Jackson,NC,North Carolina
28573,Pollocksville,Jones,NC,North Carolina
28753,Marshall,Madison,NC,North Carolina
28031,Cornelius,Mecklenburg,NC,North Carolina
28201,Charlotte,Mecklenburg,NC,North Carolina
28211,Charlotte,Mecklenburg,NC,North Carolina
28219,Charlotte,Mecklenburg,NC,North Carolina
28229,Charlotte,Mecklenburg,NC,North Carolina
28277,Charlotte,Mecklenburg,NC,North Carolina
28289,Charlotte,Mecklenburg,NC,North Carolina
28297,Charlotte,Mecklenburg,NC,North Carolina
27259,Highfalls,Moore,NC,North Carolina
27281,Jackson Springs,Moore,NC,North Carolina
28387,Southern Pines,Moore,NC,North Carolina
27803,Rocky Mount,Nash,NC,North Carolina
28403,Wilmington,New Hanover,NC,North Carolina
28409,Wilmington,New Hanover,NC,North Carolina
28411,Wilmington,New Hanover,NC,North Carolina
28429,Castle Hayne,New Hanover,NC,North Carolina
28541,Jacksonville,Onslow,NC,North Carolina
28547,Camp Lejeune,Onslow,NC,North Carolina
28537,Hobucken,Pamlico,NC,North Carolina
28571,Oriental,Pamlico,NC,North Carolina
27919,Belvidere,Perquimans,NC,North Carolina
27541,Hurdle Mills,Person,NC,North Carolina
27583,Timberlake,Person,NC,North Carolina
27827,Falkland,Pitt,NC,North Carolina
28513,Ayden,Pitt,NC,North Carolina
28319,Barnesville,Robeson,NC,North Carolina
28019,Caroleen,Rutherford,NC,North Carolina
28393,Turkey,Sampson,NC,North Carolina
28447,Ivanhoe,Sampson,NC,North Carolina
28351,Laurel Hill,Scotland,NC,North Carolina
28001,Albemarle,Stanly,NC,North Carolina
28097,Locust,Stanly,NC,North Carolina
28109,Misenheimer,Stanly,NC,North Carolina
28163,Stanfield,Stanly,NC,North Carolina
27043,Pinnacle,Stokes,NC,North Carolina
27017,Dobson,Surry,NC,North Carolina
27031,White Plains,Surry,NC,North Carolina
28621,Elkin,Surry,NC,North Carolina
28111,Monroe,Union,NC,North Carolina
27529,Garner,Wake,NC,North Carolina
27539,Apex,Wake,NC,North Carolina
27611,Raleigh,Wake,NC,North Carolina
27617,Raleigh,Wake,NC,North Carolina
27697,Raleigh,Wake,NC,North Carolina
27551,Macon,Warren,NC,North Carolina
28607,Boone,Watauga,NC,North Carolina
28649,Mc Grady,Wilkes,NC,North Carolina
28669,Roaring River,Wilkes,NC,North Carolina
28697,Wilkesboro,Wilkes,NC,North Carolina
27851,Lucama,Wilson,NC,North Carolina
27883,Stantonsburg,Wilson,NC,North Carolina
27893,Wilson,Wilson,NC,North Carolina
27011,Boonville,Yadkin,NC,North Carolina
58031,Fingal,Barnes,ND,North Dakota
58049,Kathryn,Barnes,ND,North Dakota
58379,Tokio,Benson,ND,North Dakota
58711,Antler,Bottineau,ND,North Dakota
58727,Columbus,Burke,ND,North Dakota
58477,Regan,Burleigh,ND,North Dakota
58109,Fargo,Cass,ND,North Dakota
58439,Forbes,Dickey,ND,North Dakota
58441,Fullerton,Dickey,ND,North Dakota
58549,Kintyre,Emmons,ND,North Dakota
58573,Strasburg,Emmons,ND,North Dakota
58207,Grand Forks,Grand Forks,ND,North Dakota
58741,Granville,McHenry,ND,North Dakota
58789,Upham,McHenry,ND,North Dakota
58757,Mandaree,McKenzie,ND,North Dakota
58831,Alexander,McKenzie,ND,North Dakota
58579,Wilton,McLean,ND,North Dakota
58631,Glen Ullin,Morton,ND,North Dakota
58763,New Town,Mountrail,ND,North Dakota
58771,Plaza,Mountrail,ND,North Dakota
58271,Pembina,Pembina,ND,North Dakota
58313,Balta,Pierce,ND,North Dakota
58321,Brocket,Ramsey,ND,North Dakota
58027,Enderlin,Ransom,ND,North Dakota
58057,Mcleod,Ransom,ND,North Dakota
58787,Tolley,Renville,ND,North Dakota
58061,Mooreton,Richland,ND,North Dakota
58367,Rolla,Rolette,ND,North Dakota
58369,Saint John,Rolette,ND,North Dakota
58013,Cayuga,Sargent,ND,North Dakota
58043,Havana,Sargent,ND,North Dakota
58067,Rutland,Sargent,ND,North Dakota
58601,Dickinson,Stark,ND,North Dakota
58481,Spiritwood,Stutsman,ND,North Dakota
58363,Perth,Towner,ND,North Dakota
58229,Fairdale,Walsh,ND,North Dakota
58231,Fordville,Walsh,ND,North Dakota
58237,Grafton,Walsh,ND,North Dakota
58243,Hoople,Walsh,ND,North Dakota
58733,Des Lacs,Ward,ND,North Dakota
58451,Hurdsfield,Wells,ND,North Dakota
68821,Brewster,Blaine,NE,Nebraska
68777,Spencer,Boyd,NE,Nebraska
68669,Ulysses,Butler,NE,Nebraska
68749,Magnet,Cedar,NE,Nebraska
68771,Randolph,Cedar,NE,Nebraska
69221,Wood Lake,Cherry,NE,Nebraska
69149,Lodgepole,Cheyenne,NE,Nebraska
68659,Rogers,Colfax,NE,Nebraska
68791,Wisner,Cuming,NE,Nebraska
68813,Anselmo,Custer,NE,Nebraska
68881,Westerville,Custer,NE,Nebraska
68743,Jackson,Dakota,NE,Nebraska
69337,Chadron,Dawes,NE,Nebraska
68863,Overton,Dawson,NE,Nebraska
69029,Farnam,Dawson,NE,Nebraska
68633,Dodge,Dodge,NE,Nebraska
68111,Omaha,Douglas,NE,Nebraska
68351,Exeter,Fillmore,NE,Nebraska
68947,Hildreth,Franklin,NE,Nebraska
68711,Amelia,Holt,NE,Nebraska
68713,Atkinson,Holt,NE,Nebraska
68329,Cook,Johnson,NE,Nebraska
68443,Sterling,Johnson,NE,Nebraska
69127,Brule,Keith,NE,Nebraska
68729,Creighton,Knox,NE,Nebraska
68501,Lincoln,Lancaster,NE,Nebraska
68507,Lincoln,Lancaster,NE,Nebraska
68521,Lincoln,Lancaster,NE,Nebraska
68531,Lincoln,Lancaster,NE,Nebraska
69143,Hershey,Lincoln,NE,Nebraska
69151,Maxwell,Lincoln,NE,Nebraska
69163,Stapleton,Logan,NE,Nebraska
68879,Taylor,Loup,NE,Nebraska
68447,Table Rock,Pawnee,NE,Nebraska
68927,Bertrand,Phelps,NE,Nebraska
68767,Pierce,Pierce,NE,Nebraska
69001,Mc Cook,Red Willow,NE,Nebraska
68437,Shubert,Richardson,NE,Nebraska
68059,Springfield,Sarpy,NE,Nebraska
68113,Offutt Afb,Sarpy,NE,Nebraska
68147,Bellevue,Sarpy,NE,Nebraska
68041,Mead,Saunders,NE,Nebraska
69341,Gering,Scotts Bluff,NE,Nebraska
68071,Winnebago,Thurston,NE,Nebraska
68023,Fort Calhoun,Washington,NE,Nebraska
68371,Henderson,York,NE,Nebraska
03253,Meredith,Belknap,NH,New Hampshire
03299,Tilton,Belknap,NH,New Hampshire
03259,North Sandwich,Carroll,NH,New Hampshire
03847,Kearsarge,Carroll,NH,New Hampshire
03853,Mirror Lake,Carroll,NH,New Hampshire
03457,Nelson,Cheshire,NH,New Hampshire
03461,Rindge,Cheshire,NH,New Hampshire
03467,Westmoreland,Cheshire,NH,New Hampshire
03469,West Swanzey,Cheshire,NH,New Hampshire
03581,Gorham,Coos,NH,New Hampshire
03583,Jefferson,Coos,NH,New Hampshire
03593,Randolph,Coos,NH,New Hampshire
03217,Ashland,Grafton,NH,New Hampshire
03251,Lincoln,Grafton,NH,New Hampshire
03769,Lyme Center,Grafton,NH,New Hampshire
03779,Piermont,Grafton,NH,New Hampshire
03049,Hollis,Hillsborough,NH,New Hampshire
03061,Nashua,Hillsborough,NH,New Hampshire
03109,Manchester,Hillsborough,NH,New Hampshire
03449,Hancock,Hillsborough,NH,New Hampshire
03221,Bradford,Merrimack,NH,New Hampshire
03229,Contoocook,Merrimack,NH,New Hampshire
03257,New London,Merrimack,NH,New Hampshire
03301,Concord,Merrimack,NH,New Hampshire
03307,Loudon,Merrimack,NH,New Hampshire
03037,Deerfield,Rockingham,NH,New Hampshire
03041,East Derry,Rockingham,NH,New Hampshire
03079,Salem,Rockingham,NH,New Hampshire
03803,Portsmouth,Rockingham,NH,New Hampshire
03833,Exeter,Rockingham,NH,New Hampshire
03821,Dover,Strafford,NH,New Hampshire
03823,Madbury,Strafford,NH,New Hampshire
03851,Milton,Strafford,NH,New Hampshire
03607,South Acworth,Sullivan,NH,New Hampshire
08221,Linwood,Atlantic,NJ,New Jersey
08231,Oceanville,Atlantic,NJ,New Jersey
08317,Dorothy,Atlantic,NJ,New Jersey
07057,Wallington,Bergen,NJ,New Jersey
07417,Franklin Lakes,Bergen,NJ,New Jersey
07451,Ridgewood,Bergen,NJ,New Jersey
07481,Wyckoff,Bergen,NJ,New Jersey
07603,Bogota,Bergen,NJ,New Jersey
07607,Maywood,Bergen,NJ,New Jersey
07621,Bergenfield,Bergen,NJ,New Jersey
07643,Little Ferry,Bergen,NJ,New Jersey
07649,Oradell,Bergen,NJ,New Jersey
07699,Teterboro,Bergen,NJ,New Jersey
08011,Birmingham,Burlington,NJ,New Jersey
08053,Marlton,Burlington,NJ,New Jersey
08641,Joint Base Mdl,Burlington,NJ,New Jersey
08009,Berlin,Camden,NJ,New Jersey
08059,Mount Ephraim,Camden,NJ,New Jersey
08081,Sicklerville,Camden,NJ,New Jersey
08089,Waterford Works,Camden,NJ,New Jersey
08101,Camden,Camden,NJ,New Jersey
08219,Green Creek,Cape May,NJ,New Jersey
08243,Sea Isle City,Cape May,NJ,New Jersey
08311,Cedarville,Cumberland,NJ,New Jersey
08329,Mauricetown,Cumberland,NJ,New Jersey
08353,Shiloh,Cumberland,NJ,New Jersey
07019,East Orange,Essex,NJ,New Jersey
07039,Livingston,Essex,NJ,New Jersey
07043,Montclair,Essex,NJ,New Jersey
07079,South Orange,Essex,NJ,New Jersey
07103,Newark,Essex,NJ,New Jersey
07109,Belleville,Essex,NJ,New Jersey
07193,Newark,Essex,NJ,New Jersey
08039,Harrisonville,Gloucester,NJ,New Jersey
08093,Westville,Gloucester,NJ,New Jersey
07307,Jersey City,Hudson,NJ,New Jersey
08803,Baptistown,Hunterdon,NJ,New Jersey
08867,Pittstown,Hunterdon,NJ,New Jersey
08887,Three Bridges,Hunterdon,NJ,New Jersey
08543,Princeton,Mercer,NJ,New Jersey
08609,Trenton,Mercer,NJ,New Jersey
08629,Trenton,Mercer,NJ,New Jersey
08647,Trenton,Mercer,NJ,New Jersey
07001,Avenel,Middlesex,NJ,New Jersey
08831,Monroe Township,Middlesex,NJ,New Jersey
08837,Edison,Middlesex,NJ,New Jersey
08861,Perth Amboy,Middlesex,NJ,New Jersey
08863,Fords,Middlesex,NJ,New Jersey
08933,New Brunswick,Middlesex,NJ,New Jersey
07703,Fort Monmouth,Monmouth,NJ,New Jersey
07717,Avon By The Sea,Monmouth,NJ,New Jersey
07723,Deal,Monmouth,NJ,New Jersey
07727,Farmingdale,Monmouth,NJ,New Jersey
07753,Neptune,Monmouth,NJ,New Jersey
07757,Oceanport,Monmouth,NJ,New Jersey
08501,Allentown,Monmouth,NJ,New Jersey
07457,Riverdale,Morris,NJ,New Jersey
07853,Long Valley,Morris,NJ,New Jersey
07927,Cedar Knolls,Morris,NJ,New Jersey
07933,Gillette,Morris,NJ,New Jersey
07963,Morristown,Morris,NJ,New Jersey
08087,Tuckerton,Ocean,NJ,New Jersey
08527,Jackson,Ocean,NJ,New Jersey
08731,Forked River,Ocean,NJ,New Jersey
08741,Pine Beach,Ocean,NJ,New Jersey
08753,Toms River,Ocean,NJ,New Jersey
07013,Clifton,Passaic,NJ,New Jersey
07507,Hawthorne,Passaic,NJ,New Jersey
08069,Penns Grove,Salem,NJ,New Jersey
08807,Bridgewater,Somerset,NJ,New Jersey
08821,Flagtown,Somerset,NJ,New Jersey
07877,Swartswood,Sussex,NJ,New Jersey
07879,Tranquility,Sussex,NJ,New Jersey
07027,Garwood,Union,NJ,New Jersey
07069,Watchung,Union,NJ,New Jersey
07207,Elizabeth,Union,NJ,New Jersey
07901,Summit,Union,NJ,New Jersey
07823,Belvidere,Warren,NJ,New Jersey
07829,Buttzville,Warren,NJ,New Jersey
87103,Albuquerque,Bernalillo,NM,New Mexico
87107,Albuquerque,Bernalillo,NM,New Mexico
87119,Albuquerque,Bernalillo,NM,New Mexico
87121,Albuquerque,Bernalillo,NM,New Mexico
87151,Albuquerque,Bernalillo,NM,New Mexico
87181,Albuquerque,Bernalillo,NM,New Mexico
87187,Albuquerque,Bernalillo,NM,New Mexico
87049,San Fidel,Cibola,NM,New Mexico
88001,Las Cruces,Doa Ana,NM,New Mexico
88003,Las Cruces,Doa Ana,NM,New Mexico
88007,Las Cruces,Doa Ana,NM,New Mexico
88211,Artesia,Eddy,NM,New Mexico
87743,Roy,Harding,NM,New Mexico
88241,Hobbs,Lea,NM,New Mexico
88301,Carrizozo,Lincoln,NM,New Mexico
87547,White Rock,Los Alamos,NM,New Mexico
87313,Crownpoint,McKinley,NM,New Mexico
87317,Gamerco,McKinley,NM,New Mexico
87323,Thoreau,McKinley,NM,New Mexico
88337,La Luz,Otero,NM,New Mexico
88339,Mayhill,Otero,NM,New Mexico
88411,Bard,Quay,NM,New Mexico
88427,Mcalister,Quay,NM,New Mexico
87511,Alcalde,Rio Arriba,NM,New Mexico
87523,Cordova,Rio Arriba,NM,New Mexico
87539,La Madera,Rio Arriba,NM,New Mexico
87013,Cuba,Sandoval,NM,New Mexico
87041,Pena Blanca,Sandoval,NM,New Mexico
87083,Cochiti Lake,Sandoval,NM,New Mexico
87037,Nageezi,San Juan,NM,New Mexico
87421,Waterflow,San Juan,NM,New Mexico
87583,Villanueva,San Miguel,NM,New Mexico
87701,Las Vegas,San Miguel,NM,New Mexico
87509,Santa Fe,Santa Fe,NM,New Mexico
87931,Caballo,Sierra,NM,New Mexico
87943,Winston,Sierra,NM,New Mexico
87011,Claunch,Socorro,NM,New Mexico
87517,Carson,Taos,NM,New Mexico
87553,Penasco,Taos,NM,New Mexico
87557,Ranchos De Taos,Taos,NM,New Mexico
88321,Encino,Torrance,NM,New Mexico
89009,Henderson,Clark,NV,Nevada
89021,Logandale,Clark,NV,Nevada
89087,North Las Vegas,Clark,NV,Nevada
89101,Las Vegas,Clark,NV,Nevada
89107,Las Vegas,Clark,NV,Nevada
89113,Las Vegas,Clark,NV,Nevada
89119,Las Vegas,Clark,NV,Nevada
89123,Las Vegas,Clark,NV,Nevada
89137,Las Vegas,Clark,NV,Nevada
89153,Las Vegas,Clark,NV,Nevada
89413,Glenbrook,Douglas,NV,Nevada
89449,Stateline,Douglas,NV,Nevada
89833,Ruby Valley,Elko,NV,Nevada
89821,Crescent Valley,Eureka,NV,Nevada
89017,Hiko,Lincoln,NV,Nevada
89003,Beatty,Nye,NV,Nevada
89041,Pahrump,Nye,NV,Nevada
89431,Sparks,Washoe,NV,Nevada
89501,Reno,Washoe,NV,Nevada
89513,Reno,Washoe,NV,Nevada
89519,Reno,Washoe,NV,Nevada
89521,Reno,Washoe,NV,Nevada
89533,Reno,Washoe,NV,Nevada
89599,Reno,Washoe,NV,Nevada
89317,Lund,White Pine,NV,Nevada
12007,Alcove,Albany,NY,New York
12041,Clarksville,Albany,NY,New York
12107,Knox,Albany,NY,New York
12143,Ravena,Albany,NY,New York
12161,South Bethlehem,Albany,NY,New York
12203,Albany,Albany,NY,New York
12211,Albany,Albany,NY,New York
12227,Albany,Albany,NY,New York
12239,Albany,Albany,NY,New York
12241,Albany,Albany,NY,New York
14029,Centerville,Allegany,NY,New York
14717,Caneadea,Allegany,NY,New York
14813,Belmont,Allegany,NY,New York
14897,Whitesville,Allegany,NY,New York
10453,Bronx,Bronx,NY,New York
10457,Bronx,Bronx,NY,New York
10459,Bronx,Bronx,NY,New York
10463,Bronx,Bronx,NY,New York
13763,Endicott,Broome,NY,New York
13901,Binghamton,Broome,NY,New York
13903,Binghamton,Broome,NY,New York
14173,Yorkshire,Cattaraugus,NY,New York
14731,Ellicottville,Cattaraugus,NY,New York
14737,Franklinville,Cattaraugus,NY,New York
14741,Great Valley,Cattaraugus,NY,New York
14753,Limestone,Cattaraugus,NY,New York
14779,Salamanca,Cattaraugus,NY,New York
14783,Steamburg,Cattaraugus,NY,New York
13033,Cato,Cayuga,NY,New York
13147,Scipio Center,Cayuga,NY,New York
14081,Irving,Chautauqua,NY,New York
14723,Cherry Creek,Chautauqua,NY,New York
14747,Kennedy,Chautauqua,NY,New York
14767,Panama,Chautauqua,NY,New York
13411,New Berlin,Chenango,NY,New York
13841,Smithville Flats,Chenango,NY,New York
12911,Keeseville,Clinton,NY,New York
12919,Champlain,Clinton,NY,New York
12923,Churubusco,Clinton,NY,New York
12959,Mooers Forks,Clinton,NY,New York
12979,Rouses Point,Clinton,NY,New York
12037,Chatham,Columbia,NY,New York
12503,Ancramdale,Columbia,NY,New York
12517,Copake Falls,Columbia,NY,New York
12541,Livingston,Columbia,NY,New York
12421,Denver,Delaware,NY,New York
13751,Davenport Center,Delaware,NY,New York
13757,East Meredith,Delaware,NY,New York
12511,Castle Point,Dutchess,NY,New York
12527,Glenham,Dutchess,NY,New York
12569,Pleasant Valley,Dutchess,NY,New York
12583,Tivoli,Dutchess,NY,New York
12601,Poughkeepsie,Dutchess,NY,New York
14033,Colden,Erie,NY,New York
14051,East Amherst,Erie,NY,New York
14057,Eden,Erie,NY,New York
14207,Buffalo,Erie,NY,New York
14221,Buffalo,Erie,NY,New York
12941,Jay,Essex,NY,New York
12917,Burke,Franklin,NY,New York
12953,Malone,Franklin,NY,New York
12983,Saranac Lake,Franklin,NY,New York
14143,Stafford,Genesee,NY,New York
14557,South Byron,Genesee,NY,New York
12413,Cairo,Greene,NY,New York
12451,Leeds,Greene,NY,New York
12473,Round Top,Greene,NY,New York
13331,Eagle Bay,Herkimer,NY,New York
13619,Carthage,Jefferson,NY,New York
13679,Redwood,Jefferson,NY,New York
13691,Theresa,Jefferson,NY,New York
13693,Three Mile Bay,Jefferson,NY,New York
11213,Brooklyn,Kings,NY,New York
11239,Brooklyn,Kings,NY,New York
11243,Brooklyn,Kings,NY,New York
11251,Brooklyn,Kings,NY,New York
13327,Croghan,Lewis,NY,New York
13367,Lowville,Lewis,NY,New York
13627,Deer River,Lewis,NY,New York
14423,Caledonia,Livingston,NY,New York
14437,Dansville,Livingston,NY,New York
14533,Piffard,Livingston,NY,New York
13037,Chittenango,Madison,NY,New York
13043,Clockville,Madison,NY,New York
13163,Wampsville,Madison,NY,New York
13421,Oneida,Madison,NY,New York
14543,Rush,Monroe,NY,New York
14621,Rochester,Monroe,NY,New York
14627,Rochester,Monroe,NY,New York
14639,Rochester,Monroe,NY,New York
14653,Rochester,Monroe,NY,New York
13339,Fort Plain,Montgomery,NY,New York
11003,Elmont,Nassau,NY,New York
11027,Great Neck,Nassau,NY,New York
11549,Hempstead,Nassau,NY,New York
11551,Hempstead,Nassau,NY,New York
11579,Sea Cliff,Nassau,NY,New York
11783,Seaford,Nassau,NY,New York
11801,Hicksville,Nassau,NY,New York
10007,New York,New York,NY,New York
10009,New York,New York,NY,New York
10037,New York,New York,NY,New York
10039,New York,New York,NY,New York
10069,New York,New York,NY,New York
10103,New York,New York,NY,New York
10111,New York,New York,NY,New York
10133,New York,New York,NY,New York
10151,New York,New York,NY,New York
10159,New York,New York,NY,New York
10163,New York,New York,NY,New York
10169,New York,New York,NY,New York
10177,New York,New York,NY,New York
10211,New York,New York,NY,New York
10259,New York,New York,NY,New York
10271,New York,New York,NY,New York
10273,New York,New York,NY,New York
14107,Model City,Niagara,NY,New York
14303,Niagara Falls,Niagara,NY,New York
13309,Boonville,Oneida,NY,New York
13313,Bridgewater,Oneida,NY,New York
13417,New York Mills,Oneida,NY,New York
13441,Rome,Oneida,NY,New York
13469,Stittville,Oneida,NY,New York
13477,Vernon Center,Oneida,NY,New York
13063,Fabius,Onondaga,NY,New York
13159,Tully,Onondaga,NY,New York
13217,Syracuse,Onondaga,NY,New York
13219,Syracuse,Onondaga,NY,New York
14461,Gorham,Ontario,NY,New York
14537,Port Gibson,Ontario,NY,New York
14561,Stanley,Ontario,NY,New York
10949,Monroe,Orange,NY,New York
10973,Slate Hill,Orange,NY,New York
10979,Sterling Forest,Orange,NY,New York
10987,Tuxedo Park,Orange,NY,New York
12553,New Windsor,Orange,NY,New York
12577,Salisbury Mills,Orange,NY,New York
14411,Albion,Orleans,NY,New York
14479,Knowlesville,Orleans,NY,New York
13093,Lycoming,Oswego,NY,New York
13103,Mallory,Oswego,NY,New York
13121,New Haven,Oswego,NY,New York
12197,Worcester,Otsego,NY,New York
13337,Fly Creek,Otsego,NY,New York
13457,Schuyler Lake,Otsego,NY,New York
13807,Milford,Otsego,NY,New York
13859,Wells Bridge,Otsego,NY,New York
11351,Flushing,Queens,NY,New York
11369,East Elmhurst,Queens,NY,New York
11411,Cambria Heights,Queens,NY,New York
11423,Hollis,Queens,NY,New York
11437,Jamaica,Queens,NY,New York
10301,Staten Island,Richmond,NY,New York
10303,Staten Island,Richmond,NY,New York
10313,Staten Island,Richmond,NY,New York
10993,West Haverstraw,Rockland,NY,New York
12967,North Lawrence,St. Lawrence,NY,New York
12973,Piercefield,St. Lawrence,NY,New York
13613,Brasher Falls,St. Lawrence,NY,New York
13633,De Peyster,St. Lawrence,NY,New York
13649,Helena,St. Lawrence,NY,New York
13669,Ogdensburg,St. Lawrence,NY,New York
13681,Richville,St. Lawrence,NY,New York
13687,South Colton,St. Lawrence,NY,New York
13697,Winthrop,St. Lawrence,NY,New York
12301,Schenectady,Schenectady,NY,New York
12043,Cobleskill,Schoharie,NY,New York
12071,Fultonham,Schoharie,NY,New York
12073,Gallupville,Schoharie,NY,New York
12149,Richmondville,Schoharie,NY,New York
12157,Schoharie,Schoharie,NY,New York
14869,Odessa,Schuyler,NY,New York
14887,Tyrone,Schuyler,NY,New York
14891,Watkins Glen,Schuyler,NY,New York
14821,Campbell,Steuben,NY,New York
14827,Coopers Plains,Steuben,NY,New York
14831,Corning,Steuben,NY,New York
14843,Hornell,Steuben,NY,New York
14879,Savona,Steuben,NY,New York
11701,Amityville,Suffolk,NY,New York
11717,Brentwood,Suffolk,NY,New York
11719,Brookhaven,Suffolk,NY,New York
11731,East Northport,Suffolk,NY,New York
11743,Huntington,Suffolk,NY,New York
11777,Port Jefferson,Suffolk,NY,New York
11779,Ronkonkoma,Suffolk,NY,New York
11789,Sound Beach,Suffolk,NY,New York
11933,Calverton,Suffolk,NY,New York
11939,East Marion,Suffolk,NY,New York
11941,Eastport,Suffolk,NY,New York
11953,Middle Island,Suffolk,NY,New York
11959,Quogue,Suffolk,NY,New York
11969,Southampton,Suffolk,NY,New York
11971,Southold,Suffolk,NY,New York
12721,Bloomingburg,Sullivan,NY,New York
12743,Highland Lake,Sullivan,NY,New York
12763,Mountain Dale,Sullivan,NY,New York
12781,Summitville,Sullivan,NY,New York
12791,Youngsville,Sullivan,NY,New York
14851,Ithaca,Tompkins,NY,New York
14867,Newfield,Tompkins,NY,New York
12401,Kingston,Ulster,NY,New York
12409,Bearsville,Ulster,NY,New York
12433,Glenford,Ulster,NY,New York
12457,Mount Tremper,Ulster,NY,New York
12487,Ulster Park,Ulster,NY,New York
12491,West Hurley,Ulster,NY,New York
12547,Milton,Ulster,NY,New York
12589,Wallkill,Ulster,NY,New York
12853,North Creek,Warren,NY,New York
12809,Argyle,Washington,NY,New York
12821,Comstock,Washington,NY,New York
12823,Cossayuna,Washington,NY,New York
12841,Huletts Landing,Washington,NY,New York
14449,East Williamson,Wayne,NY,New York
14489,Lyons,Wayne,NY,New York
14519,Ontario,Wayne,NY,New York
14551,Sodus,Wayne,NY,New York
14563,Union Hill,Wayne,NY,New York
10501,Amawalk,Westchester,NY,New York
10567,Cortlandt Manor,Westchester,NY,New York
10589,Somers,Westchester,NY,New York
10597,Waccabuc,Westchester,NY,New York
10601,White Plains,Westchester,NY,New York
10607,White Plains,Westchester,NY,New York
10709,Eastchester,Westchester,NY,New York
14009,Arcade,Wyoming,NY,New York
14011,Attica,Wyoming,NY,New York
14083,Java Village,Wyoming,NY,New York
14549,Silver Lake,Wyoming,NY,New York
14591,Wyoming,Wyoming,NY,New York
45697,Winchester,Adams,OH,Ohio
45817,Bluffton,Allen,OH,Ohio
45833,Delphos,Allen,OH,Ohio
45887,Spencerville,Allen,OH,Ohio
44041,Geneva,Ashtabula,OH,Ohio
45869,New Bremen,Auglaize,OH,Ohio
43759,Morristown,Belmont,OH,Ohio
43933,Jacobsburg,Belmont,OH,Ohio
43951,Lafferty,Belmont,OH,Ohio
45119,Feesburg,Brown,OH,Ohio
45121,Georgetown,Brown,OH,Ohio
45131,Higginsport,Brown,OH,Ohio
45013,Hamilton,Butler,OH,Ohio
45053,Okeana,Butler,OH,Ohio
45061,Ross,Butler,OH,Ohio
44651,Mechanicstown,Carroll,OH,Ohio
45389,Christiansburg,Champaign,OH,Ohio
45319,Donnelsville,Clark,OH,Ohio
45341,Medway,Clark,OH,Ohio
45503,Springfield,Clark,OH,Ohio
44887,Tiro,Crawford,OH,Ohio
44017,Berea,Cuyahoga,OH,Ohio
44101,Cleveland,Cuyahoga,OH,Ohio
44111,Cleveland,Cuyahoga,OH,Ohio
44119,Cleveland,Cuyahoga,OH,Ohio
44123,Euclid,Cuyahoga,OH,Ohio
44129,Cleveland,Cuyahoga,OH,Ohio
44131,Independence,Cuyahoga,OH,Ohio
43003,Ashley,Delaware,OH,Ohio
44089,Vermilion,Erie,OH,Ohio
44839,Huron,Erie,OH,Ohio
43201,Columbus,Franklin,OH,Ohio
43207,Columbus,Franklin,OH,Ohio
43223,Columbus,Franklin,OH,Ohio
43271,Columbus,Franklin,OH,Ohio
43291,Columbus,Franklin,OH,Ohio
45631,Gallipolis,Gallia,OH,Ohio
44021,Burton,Geauga,OH,Ohio
45307,Bowersville,Greene,OH,Ohio
45433,Dayton,Greene,OH,Ohio
45233,Cincinnati,Hamilton,OH,Ohio
45247,Cincinnati,Hamilton,OH,Ohio
45263,Cincinnati,Hamilton,OH,Ohio
45841,Jenera,Hancock,OH,Ohio
43973,Freeport,Harrison,OH,Ohio
44699,Tippecanoe,Harrison,OH,Ohio
44617,Charm,Holmes,OH,Ohio
44633,Holmesville,Holmes,OH,Ohio
44687,Walnut Creek,Holmes,OH,Ohio
44851,New London,Huron,OH,Ohio
43913,Brilliant,Jefferson,OH,Ohio
43943,Rayland,Jefferson,OH,Ohio
43961,Stratton,Jefferson,OH,Ohio
43963,Tiltonsville,Jefferson,OH,Ohio
43019,Fredericktown,Knox,OH,Ohio
43037,Martinsburg,Knox,OH,Ohio
45659,Pedro,Lawrence,OH,Ohio
43013,Croton,Licking,OH,Ohio
43093,Newark,Licking,OH,Ohio
43721,Brownsville,Licking,OH,Ohio
43319,East Liberty,Logan,OH,Ohio
43331,Lakeview,Logan,OH,Ohio
44053,Lorain,Lorain,OH,Ohio
43607,Toledo,Lucas,OH,Ohio
43609,Toledo,Lucas,OH,Ohio
43613,Toledo,Lucas,OH,Ohio
43661,Toledo,Lucas,OH,Ohio
43151,Sedalia,Madison,OH,Ohio
44449,North Benton,Mahoning,OH,Ohio
44501,Youngstown,Mahoning,OH,Ohio
44507,Youngstown,Mahoning,OH,Ohio
44273,Seville,Medina,OH,Ohio
44281,Wadsworth,Medina,OH,Ohio
45779,Syracuse,Meigs,OH,Ohio
45317,Conover,Miami,OH,Ohio
45337,Laura,Miami,OH,Ohio
45361,Potsdam,Miami,OH,Ohio
43793,Woodsfield,Monroe,OH,Ohio
45343,Miamisburg,Montgomery,OH,Ohio
45377,Vandalia,Montgomery,OH,Ohio
45403,Dayton,Montgomery,OH,Ohio
45413,Dayton,Montgomery,OH,Ohio
45439,Dayton,Montgomery,OH,Ohio
45481,Dayton,Montgomery,OH,Ohio
43787,Stockport,Morgan,OH,Ohio
43321,Fulton,Morrow,OH,Ohio
43777,Roseville,Muskingum,OH,Ohio
43711,Ava,Noble,OH,Ohio
43717,Belle Valley,Noble,OH,Ohio
45821,Cecil,Paulding,OH,Ohio
43783,Somerset,Perry,OH,Ohio
43103,Ashville,Pickaway,OH,Ohio
43117,Derby,Pickaway,OH,Ohio
45613,Beaver,Pike,OH,Ohio
44201,Atwater,Portage,OH,Ohio
45827,Cloverdale,Putnam,OH,Ohio
45853,Kalida,Putnam,OH,Ohio
45893,Vaughnsville,Putnam,OH,Ohio
44843,Lucas,Richland,OH,Ohio
45673,Richmond Dale,Ross,OH,Ohio
45677,Scioto Furnace,Scioto,OH,Ohio
44809,Bascom,Seneca,OH,Ohio
44867,Republic,Seneca,OH,Ohio
44641,Louisville,Stark,OH,Ohio
44647,Massillon,Stark,OH,Ohio
44657,Minerva,Stark,OH,Ohio
44701,Canton,Stark,OH,Ohio
44711,Canton,Stark,OH,Ohio
44087,Twinsburg,Summit,OH,Ohio
44203,Barberton,Summit,OH,Ohio
44221,Cuyahoga Falls,Summit,OH,Ohio
44417,Farmdale,Trumbull,OH,Ohio
44453,Orangeville,Trumbull,OH,Ohio
44483,Warren,Trumbull,OH,Ohio
44491,West Farmington,Trumbull,OH,Ohio
44621,Dennison,Tuscarawas,OH,Ohio
44683,Uhrichsville,Tuscarawas,OH,Ohio
43067,Raymond,Union,OH,Ohio
45863,Middle Point,Van Wert,OH,Ohio
45767,New Matamoras,Washington,OH,Ohio
43517,Edgerton,Williams,OH,Ohio
43543,Montpelier,Williams,OH,Ohio
43403,Bowling Green,Wood,OH,Ohio
43441,Lemoyne,Wood,OH,Ohio
43451,Portage,Wood,OH,Ohio
43457,Risingsun,Wood,OH,Ohio
43541,Milton Center,Wood,OH,Ohio
73043,Greenfield,Blaine,OK,Oklahoma
74729,Caddo,Bryan,OK,Oklahoma
74731,Cartwright,Bryan,OK,Oklahoma
74747,Kemp,Bryan,OK,Oklahoma
73009,Binger,Caddo,OK,Oklahoma
74441,Hulbert,Cherokee,OK,Oklahoma
74471,Welling,Cherokee,OK,Oklahoma
74759,Soper,Choctaw,OK,Oklahoma
74761,Swink,Choctaw,OK,Oklahoma
73019,Norman,Cleveland,OK,Oklahoma
74047,Mounds,Creek,OK,Oklahoma
74071,Slick,Creek,OK,Oklahoma
74131,Tulsa,Creek,OK,Oklahoma
73859,Vici,Dewey,OK,Oklahoma
73727,Carrier,Garfield,OK,Oklahoma
73433,Elmore City,Garvin,OK,Oklahoma
73079,Pocasset,Grady,OK,Oklahoma
73771,Wakita,Grant,OK,Oklahoma
73547,Granite,Greer,OK,Oklahoma
73673,Willow,Greer,OK,Oklahoma
73571,Vinson,Harmon,OK,Oklahoma
74941,Keota,Haskell,OK,Oklahoma
74531,Calvin,Hughes,OK,Oklahoma
74827,Atwood,Hughes,OK,Oklahoma
73523,Altus Afb,Jackson,OK,Oklahoma
73561,Oscar,Jefferson,OK,Oklahoma
74653,Tonkawa,Kay,OK,Oklahoma
73651,Hobart,Kiowa,OK,Oklahoma
74959,Spiro,Le Flore,OK,Oklahoma
74869,Sparks,Lincoln,OK,Oklahoma
73063,Mulhall,Logan,OK,Oklahoma
73453,Overbrook,Love,OK,Oklahoma
73459,Thackerville,Love,OK,Oklahoma
74831,Byars,McClain,OK,Oklahoma
73061,Morrison,Noble,OK,Oklahoma
73757,Lucien,Noble,OK,Oklahoma
74027,Delaware,Nowata,OK,Oklahoma
73013,Edmond,Oklahoma,OK,Oklahoma
73039,Davis,Oklahoma,OK,Oklahoma
73121,Oklahoma City,Oklahoma,OK,Oklahoma
73127,Oklahoma City,Oklahoma,OK,Oklahoma
73141,Oklahoma City,Oklahoma,OK,Oklahoma
73189,Oklahoma City,Oklahoma,OK,Oklahoma
74857,Newalla,Oklahoma,OK,Oklahoma
74363,Quapaw,Ottawa,OK,Oklahoma
74077,Stillwater,Payne,OK,Oklahoma
74561,Quinton,Pittsburg,OK,Oklahoma
74821,Ada,Pontotoc,OK,Oklahoma
74843,Fitzhugh,Pontotoc,OK,Oklahoma
74873,Tecumseh,Pottawatomie,OK,Oklahoma
74521,Albion,Pushmataha,OK,Oklahoma
74567,Snow,Pushmataha,OK,Oklahoma
74017,Claremore,Rogers,OK,Oklahoma
73529,Comanche,Stephens,OK,Oklahoma
73939,Goodwell,Texas,OK,Oklahoma
73951,Tyrone,Texas,OK,Oklahoma
73553,Loveland,Tillman,OK,Oklahoma
74021,Collinsville,Tulsa,OK,Oklahoma
74101,Tulsa,Tulsa,OK,Oklahoma
74149,Tulsa,Tulsa,OK,Oklahoma
74159,Tulsa,Tulsa,OK,Oklahoma
74051,Ochelata,Washington,OK,Oklahoma
97103,Astoria,Clatsop,OR,Oregon
97423,Coquille,Coos,OR,Oregon
97459,North Bend,Coos,OR,Oregon
97429,Days Creek,Douglas,OR,Oregon
97441,Gardiner,Douglas,OR,Oregon
97499,Yoncalla,Douglas,OR,Oregon
97861,Mikkalo,Gilliam,OR,Oregon
97501,Medford,Jackson,OR,Oregon
97711,Ashwood,Jefferson,OR,Oregon
97523,Cave Junction,Josephine,OR,Oregon
97453,Mapleton,Lane,OR,Oregon
97463,Oakridge,Lane,OR,Oregon
97367,Lincoln City,Lincoln,OR,Oregon
97369,Otter Rock,Lincoln,OR,Oregon
97327,Brownsville,Linn,OR,Oregon
97301,Salem,Marion,OR,Oregon
97303,Salem,Marion,OR,Oregon
97373,Saint Benedict,Marion,OR,Oregon
97381,Silverton,Marion,OR,Oregon
97843,Ione,Morrow,OR,Oregon
97213,Portland,Multnomah,OR,Oregon
97231,Portland,Multnomah,OR,Oregon
97283,Portland,Multnomah,OR,Oregon
97039,Moro,Sherman,OR,Oregon
97813,Athena,Umatilla,OR,Oregon
97859,Meacham,Umatilla,OR,Oregon
97841,Imbler,Union,OR,Oregon
97883,Union,Union,OR,Oregon
97001,Antelope,Wasco,OR,Oregon
97021,Dufur,Wasco,OR,Oregon
97003,Beaverton,Washington,OR,Oregon
97007,Beaverton,Washington,OR,Oregon
97117,Gales Creek,Washington,OR,Oregon
97127,Lafayette,Yamhill,OR,Oregon
15017,Bridgeville,Allegheny,PA,Pennsylvania
15031,Cuddy,Allegheny,PA,Pennsylvania
15091,Wildwood,Allegheny,PA,Pennsylvania
15101,Allison Park,Allegheny,PA,Pennsylvania
15131,Mckeesport,Allegheny,PA,Pennsylvania
15137,North Versailles,Allegheny,PA,Pennsylvania
15139,Oakmont,Allegheny,PA,Pennsylvania
15217,Pittsburgh,Allegheny,PA,Pennsylvania
15227,Pittsburgh,Allegheny,PA,Pennsylvania
15233,Pittsburgh,Allegheny,PA,Pennsylvania
15241,Pittsburgh,Allegheny,PA,Pennsylvania
15259,Pittsburgh,Allegheny,PA,Pennsylvania
15277,Pittsburgh,Allegheny,PA,Pennsylvania
15289,Pittsburgh,Allegheny,PA,Pennsylvania
16223,Distant,Armstrong,PA,Pennsylvania
16229,Freeport,Armstrong,PA,Pennsylvania
16249,Rural Valley,Armstrong,PA,Pennsylvania
16253,Seminole,Armstrong,PA,Pennsylvania
15061,Monaca,Beaver,PA,Pennsylvania
15077,Shippingport,Beaver,PA,Pennsylvania
16141,New Galilee,Beaver,PA,Pennsylvania
15559,Schellsburg,Bedford,PA,Pennsylvania
16633,Defiance,Bedford,PA,Pennsylvania
19507,Bethel,Berks,PA,Pennsylvania
19541,Mohrsville,Berks,PA,Pennsylvania
19543,Morgantown,Berks,PA,Pennsylvania
19559,Strausstown,Berks,PA,Pennsylvania
19603,Reading,Berks,PA,Pennsylvania
19609,Reading,Berks,PA,Pennsylvania
16603,Altoona,Blair,PA,Pennsylvania
16631,Curryville,Blair,PA,Pennsylvania
16673,Roaring Spring,Blair,PA,Pennsylvania
16693,Williamsburg,Blair,PA,Pennsylvania
18077,Riegelsville,Bucks,PA,Pennsylvania
18911,Blooming Glen,Bucks,PA,Pennsylvania
18913,Carversville,Bucks,PA,Pennsylvania
18917,Dublin,Bucks,PA,Pennsylvania
18947,Pipersville,Bucks,PA,Pennsylvania
16001,Butler,Butler,PA,Pennsylvania
16033,Evans City,Butler,PA,Pennsylvania
16057,Slippery Rock,Butler,PA,Pennsylvania
16061,West Sunbury,Butler,PA,Pennsylvania
16063,Zelienople,Butler,PA,Pennsylvania
15737,Elmora,Cambria,PA,Pennsylvania
15773,Saint Benedict,Cambria,PA,Pennsylvania
15901,Johnstown,Cambria,PA,Pennsylvania
15907,Johnstown,Cambria,PA,Pennsylvania
16619,Blandburg,Cambria,PA,Pennsylvania
16699,Cresson,Cambria,PA,Pennsylvania
18229,Jim Thorpe,Carbon,PA,Pennsylvania
16823,Bellefonte,Centre,PA,Pennsylvania
16829,Clarence,Centre,PA,Pennsylvania
19301,Paoli,Chester,PA,Pennsylvania
19333,Devon,Chester,PA,Pennsylvania
19381,West Chester,Chester,PA,Pennsylvania
19421,Birchrunville,Chester,PA,Pennsylvania
19457,Parker Ford,Chester,PA,Pennsylvania
16361,Tylersburg,Clarion,PA,Pennsylvania
16651,Houtzdale,Clearfield,PA,Pennsylvania
16661,Madera,Clearfield,PA,Pennsylvania
16843,Hyde,Clearfield,PA,Pennsylvania
16871,Pottersdale,Clearfield,PA,Pennsylvania
16879,Winburne,Clearfield,PA,Pennsylvania
17747,Loganton,Clinton,PA,Pennsylvania
16111,Atlantic,Crawford,PA,Pennsylvania
16433,Saegertown,Crawford,PA,Pennsylvania
17011,Camp Hill,Cumberland,PA,Pennsylvania
17027,Grantham,Cumberland,PA,Pennsylvania
17093,Summerdale,Cumberland,PA,Pennsylvania
17257,Shippensburg,Cumberland,PA,Pennsylvania
17033,Hershey,Dauphin,PA,Pennsylvania
17107,Harrisburg,Dauphin,PA,Pennsylvania
17123,Harrisburg,Dauphin,PA,Pennsylvania
19013,Chester,Delaware,PA,Pennsylvania
19037,Glen Riddle Lima,Delaware,PA,Pennsylvania
19073,Newtown Square,Delaware,PA,Pennsylvania
19079,Sharon Hill,Delaware,PA,Pennsylvania
19081,Swarthmore,Delaware,PA,Pennsylvania
19087,Wayne,Delaware,PA,Pennsylvania
19319,Cheyney,Delaware,PA,Pennsylvania
19373,Thornton,Delaware,PA,Pennsylvania
15823,Brockport,Elk,PA,Pennsylvania
16411,East Springfield,Erie,PA,Pennsylvania
16417,Girard,Erie,PA,Pennsylvania
16421,Harborcreek,Erie,PA,Pennsylvania
16427,Mill Village,Erie,PA,Pennsylvania
16553,Erie,Erie,PA,Pennsylvania
15401,Uniontown,Fayette,PA,Pennsylvania
15413,Allison,Fayette,PA,Pennsylvania
15439,Gans,Fayette,PA,Pennsylvania
15443,Hibbs,Fayette,PA,Pennsylvania
15451,Lake Lynn,Fayette,PA,Pennsylvania
15461,Masontown,Fayette,PA,Pennsylvania
15467,New Geneva,Fayette,PA,Pennsylvania
15473,Perryopolis,Fayette,PA,Pennsylvania
16217,Cooksburg,Forest,PA,Pennsylvania
17231,Lemasters,Franklin,PA,Pennsylvania
16691,Wells Tannery,Fulton,PA,Pennsylvania
15349,Mount Morris,Greene,PA,Pennsylvania
15359,Rogersville,Greene,PA,Pennsylvania
16657,James Creek,Huntingdon,PA,Pennsylvania
17239,Neelyton,Huntingdon,PA,Pennsylvania
15727,Clune,Indiana,PA,Pennsylvania
15731,Coral,Indiana,PA,Pennsylvania
15739,Ernest,Indiana,PA,Pennsylvania
15761,Mentcle,Indiana,PA,Pennsylvania
15733,De Lancey,Jefferson,PA,Pennsylvania
15767,Punxsutawney,Jefferson,PA,Pennsylvania
17021,East Waterford,Juniata,PA,Pennsylvania
18433,Jermyn,Lackawanna,PA,Pennsylvania
18503,Scranton,Lackawanna,PA,Pennsylvania
18517,Taylor,Lackawanna,PA,Pennsylvania
17509,Christiana,Lancaster,PA,Pennsylvania
17519,East Earl,Lancaster,PA,Pennsylvania
17551,Millersville,Lancaster,PA,Pennsylvania
17569,Reinholds,Lancaster,PA,Pennsylvania
17573,Ronks,Lancaster,PA,Pennsylvania
17579,Strasburg,Lancaster,PA,Pennsylvania
17581,Terre Hill,Lancaster,PA,Pennsylvania
19501,Adamstown,Lancaster,PA,Pennsylvania
16103,New Castle,Lawrence,PA,Pennsylvania
17041,Lawn,Lebanon,PA,Pennsylvania
17077,Ono,Lebanon,PA,Pennsylvania
18049,Emmaus,Lehigh,PA,Pennsylvania
18059,Laurys Station,Lehigh,PA,Pennsylvania
18223,Ebervale,Luzerne,PA,Pennsylvania
18251,Sybertsville,Luzerne,PA,Pennsylvania
18617,Glen Lyon,Luzerne,PA,Pennsylvania
18661,White Haven,Luzerne,PA,Pennsylvania
18701,Wilkes Barre,Luzerne,PA,Pennsylvania
18773,Wilkes Barre,Luzerne,PA,Pennsylvania
17737,Hughesville,Lycoming,PA,Pennsylvania
16333,Ludlow,McKean,PA,Pennsylvania
16729,Duke Center,McKean,PA,Pennsylvania
16127,Grove City,Mercer,PA,Pennsylvania
17029,Granville,Mifflin,PA,Pennsylvania
17099,Yeagertown,Mifflin,PA,Pennsylvania
18301,East Stroudsburg,Monroe,PA,Pennsylvania
18341,Minisink Hills,Monroe,PA,Pennsylvania
18353,Saylorsburg,Monroe,PA,Pennsylvania
18041,East Greenville,Montgomery,PA,Pennsylvania
18979,Woxall,Montgomery,PA,Pennsylvania
19001,Abington,Montgomery,PA,Pennsylvania
19009,Bryn Athyn,Montgomery,PA,Pennsylvania
19031,Flourtown,Montgomery,PA,Pennsylvania
19403,Norristown,Montgomery,PA,Pennsylvania
19423,Cedars,Montgomery,PA,Pennsylvania
19429,Conshohocken,Montgomery,PA,Pennsylvania
19441,Harleysville,Montgomery,PA,Pennsylvania
19477,Spring House,Montgomery,PA,Pennsylvania
18013,Bangor,Northampton,PA,Pennsylvania
18043,Easton,Northampton,PA,Pennsylvania
17749,Mc Ewensville,Northumberland,PA,Pennsylvania
17851,Mount Carmel,Northumberland,PA,Pennsylvania
17881,Trevorton,Northumberland,PA,Pennsylvania
17047,Loysville,Perry,PA,Pennsylvania
17053,Marysville,Perry,PA,Pennsylvania
19121,Philadelphia,Philadelphia,PA,Pennsylvania
19139,Philadelphia,Philadelphia,PA,Pennsylvania
19141,Philadelphia,Philadelphia,PA,Pennsylvania
19181,Philadelphia,Philadelphia,PA,Pennsylvania
19183,Philadelphia,Philadelphia,PA,Pennsylvania
18371,Tamiment,Pike,PA,Pennsylvania
18451,Paupack,Pike,PA,Pennsylvania
18457,Rowland,Pike,PA,Pennsylvania
16927,Harrison Valley,Potter,PA,Pennsylvania
16937,Mills,Potter,PA,Pennsylvania
17729,Cross Fork,Potter,PA,Pennsylvania
17921,Ashland,Schuylkill,PA,Pennsylvania
17923,Branchdale,Schuylkill,PA,Pennsylvania
17929,Cressona,Schuylkill,PA,Pennsylvania
17957,Muir,Schuylkill,PA,Pennsylvania
17959,New Philadelphia,Schuylkill,PA,Pennsylvania
17981,Tremont,Schuylkill,PA,Pennsylvania
18211,Andreas,Schuylkill,PA,Pennsylvania
17827,Freeburg,Snyder,PA,Pennsylvania
15541,Friedens,Somerset,PA,Pennsylvania
15551,Markleton,Somerset,PA,Pennsylvania
15937,Jerome,Somerset,PA,Pennsylvania
15959,Tire Hill,Somerset,PA,Pennsylvania
18413,Clifford,Susquehanna,PA,Pennsylvania
16901,Wellsboro,Tioga,PA,Pennsylvania
16921,Gaines,Tioga,PA,Pennsylvania
16943,Sabinsville,Tioga,PA,Pennsylvania
17837,Lewisburg,Union,PA,Pennsylvania
16301,Oil City,Venango,PA,Pennsylvania
16319,Cranberry,Venango,PA,Pennsylvania
16369,Irvine,Warren,PA,Pennsylvania
15053,Joffre,Washington,PA,Pennsylvania
15313,Beallsville,Washington,PA,Pennsylvania
15329,Prosperity,Washington,PA,Pennsylvania
15331,Ellsworth,Washington,PA,Pennsylvania
15361,Southview,Washington,PA,Pennsylvania
15377,West Finley,Washington,PA,Pennsylvania
15427,Daisytown,Washington,PA,Pennsylvania
18427,Hamlin,Wayne,PA,Pennsylvania
18439,Lakewood,Wayne,PA,Pennsylvania
18443,Milanville,Wayne,PA,Pennsylvania
18461,Starlight,Wayne,PA,Pennsylvania
15083,Sutersville,Westmoreland,PA,Pennsylvania
15601,Greensburg,Westmoreland,PA,Pennsylvania
15619,Bovard,Westmoreland,PA,Pennsylvania
15629,East Vandergrift,Westmoreland,PA,Pennsylvania
15641,Hyde Park,Westmoreland,PA,Pennsylvania
15647,Larimer,Westmoreland,PA,Pennsylvania
15661,Loyalhanna,Westmoreland,PA,Pennsylvania
15671,New Derry,Westmoreland,PA,Pennsylvania
15679,Ruffs Dale,Westmoreland,PA,Pennsylvania
15683,Scottdale,Westmoreland,PA,Pennsylvania
15923,Bolivar,Westmoreland,PA,Pennsylvania
17317,East Prospect,York,PA,Pennsylvania
17321,Fawn Grove,York,PA,Pennsylvania
17327,Glen Rock,York,PA,Pennsylvania
17333,Hanover,York,PA,Pennsylvania
17401,York,York,PA,Pennsylvania
02887,Warwick,Kent,RI,Rhode Island
02801,Adamsville,Newport,RI,Rhode Island
02837,Little Compton,Newport,RI,Rhode Island
02857,North Scituate,Providence,RI,Rhode Island
02861,Pawtucket,Providence,RI,Rhode Island
02903,Providence,Providence,RI,Rhode Island
02909,Providence,Providence,RI,Rhode Island
02917,Smithfield,Providence,RI,Rhode Island
02833,Hopkinton,Washington,RI,Rhode Island
02879,Wakefield,Washington,RI,Rhode Island
29137,Salley,Aiken,SC,South Carolina
29803,Aiken,Aiken,SC,South Carolina
29851,Warrenville,Aiken,SC,South Carolina
29669,Pelzer,Anderson,SC,South Carolina
29453,Jamestown,Berkeley,SC,South Carolina
29401,Charleston,Charleston,SC,South Carolina
29423,Charleston,Charleston,SC,South Carolina
29429,Awendaw,Charleston,SC,South Carolina
29101,Mc Bee,Chesterfield,SC,South Carolina
29741,Ruby,Chesterfield,SC,South Carolina
29567,Little Rock,Dillon,SC,South Carolina
29437,Dorchester,Dorchester,SC,South Carolina
29483,Summerville,Dorchester,SC,South Carolina
29501,Florence,Florence,SC,South Carolina
29611,Greenville,Greenville,SC,South Carolina
29683,Slater,Greenville,SC,South Carolina
29819,Bradley,Greenwood,SC,South Carolina
29921,Furman,Hampton,SC,South Carolina
29527,Conway,Horry,SC,South Carolina
29569,Loris,Horry,SC,South Carolina
29581,Nichols,Horry,SC,South Carolina
29587,Myrtle Beach,Horry,SC,South Carolina
29927,Hardeeville,Jasper,SC,South Carolina
29009,Bethune,Kershaw,SC,South Carolina
29021,Camden,Kershaw,SC,South Carolina
29033,Cayce,Lexington,SC,South Carolina
29123,Pelion,Lexington,SC,South Carolina
29059,Holly Hill,Orangeburg,SC,South Carolina
29633,Clemson,Pickens,SC,South Carolina
29641,Easley,Pickens,SC,South Carolina
29671,Pickens,Pickens,SC,South Carolina
29063,Irmo,Richland,SC,South Carolina
29147,State Park,Richland,SC,South Carolina
29201,Columbia,Richland,SC,South Carolina
29207,Columbia,Richland,SC,South Carolina
29209,Columbia,Richland,SC,South Carolina
29221,Columbia,Richland,SC,South Carolina
29129,Ridge Spring,Saluda,SC,South Carolina
29303,Spartanburg,Spartanburg,SC,South Carolina
29333,Drayton,Spartanburg,SC,South Carolina
29153,Sumter,Sumter,SC,South Carolina
29717,Hickory Grove,York,SC,South Carolina
57383,White Lake,Aurora,SD,South Dakota
57059,Scotland,Bon Homme,SD,South Dakota
57427,Bath,Brown,SD,South Dakota
57329,Dante,Charles Mix,SD,South Dakota
57367,Pickstown,Charles Mix,SD,South Dakota
57271,Vienna,Clark,SD,South Dakota
57037,Irene,Clay,SD,South Dakota
57073,Wakonda,Clay,SD,South Dakota
57641,Mc Intosh,Corson,SD,South Dakota
57773,Pringle,Custer,SD,South Dakota
57301,Mitchell,Davison,SD,South Dakota
57467,Orient,Faulk,SD,South Dakota
57251,Marvin,Grant,SD,South Dakota
57259,Revillo,Grant,SD,South Dakota
57269,Twin Brooks,Grant,SD,South Dakota
57529,Dallas,Gregory,SD,South Dakota
57571,Saint Charles,Gregory,SD,South Dakota
57221,Bryant,Hamlin,SD,South Dakota
57223,Castlewood,Hamlin,SD,South Dakota
57241,Hayti,Hamlin,SD,South Dakota
57373,Saint Lawrence,Hand,SD,South Dakota
57331,Dimock,Hutchinson,SD,South Dakota
57559,Murdo,Jones,SD,South Dakota
57793,Whitewood,Lawrence,SD,South Dakota
57077,Worthing,Lincoln,SD,South Dakota
57457,Long Lake,McPherson,SD,South Dakota
57737,Enning,Meade,SD,South Dakota
57787,Union Center,Meade,SD,South Dakota
57349,Howard,Miner,SD,South Dakota
57041,Lyons,Minnehaha,SD,South Dakota
57107,Sioux Falls,Minnehaha,SD,South Dakota
57193,Sioux Falls,Minnehaha,SD,South Dakota
57709,Rapid City,Pennington,SD,South Dakota
57719,Box Elder,Pennington,SD,South Dakota
57751,Keystone,Pennington,SD,South Dakota
57791,Wasta,Pennington,SD,South Dakota
57649,Prairie City,Perkins,SD,South Dakota
57047,Monroe,Turner,SD,South Dakota
57601,Mobridge,Walworth,SD,South Dakota
37717,Clinton,Anderson,TN,Tennessee
37831,Oak Ridge,Anderson,TN,Tennessee
38333,Eva,Benton,TN,Tennessee
37853,Rockford,Blount,TN,Tennessee
37847,Pioneer,Campbell,TN,Tennessee
38201,Mc Kenzie,Carroll,TN,Tennessee
38317,Bruceton,Carroll,TN,Tennessee
38321,Cedar Grove,Carroll,TN,Tennessee
37643,Elizabethton,Carter,TN,Tennessee
37879,Tazewell,Claiborne,TN,Tennessee
38557,Crossville,Cumberland,TN,Tennessee
37013,Antioch,Davidson,TN,Tennessee
37189,Whites Creek,Davidson,TN,Tennessee
37201,Nashville,Davidson,TN,Tennessee
37217,Nashville,Davidson,TN,Tennessee
37243,Nashville,Davidson,TN,Tennessee
38329,Decaturville,Decatur,TN,Tennessee
37181,Vanleer,Dickson,TN,Tennessee
38047,Lenox,Dyer,TN,Tennessee
38449,Ardmore,Giles,TN,Tennessee
38459,Frankewing,Giles,TN,Tennessee
37861,Rutledge,Grainger,TN,Tennessee
37313,Coalmont,Grundy,TN,Tennessee
37339,Gruetli Laager,Grundy,TN,Tennessee
37813,Morristown,Hamblen,TN,Tennessee
37363,Ooltewah,Hamilton,TN,Tennessee
37379,Soddy Daisy,Hamilton,TN,Tennessee
37409,Chattanooga,Hamilton,TN,Tennessee
38039,Grand Junction,Hardeman,TN,Tennessee
38377,Silerton,Hardeman,TN,Tennessee
38327,Crump,Hardin,TN,Tennessee
37811,Mooresburg,Hawkins,TN,Tennessee
38069,Stanton,Haywood,TN,Tennessee
38351,Lexington,Henderson,TN,Tennessee
38371,Sardis,Henderson,TN,Tennessee
38231,Henry,Henry,TN,Tennessee
37061,Erin,Houston,TN,Tennessee
37871,Strawberry Plains,Jefferson,TN,Tennessee
37691,Trade,Johnson,TN,Tennessee
37997,Knoxville,Knox,TN,Tennessee
38453,Dellrose,Lincoln,TN,Tennessee
37309,Calhoun,McMinn,TN,Tennessee
38393,Chewalla,McNairy,TN,Tennessee
38303,Jackson,Madison,TN,Tennessee
37397,Whitwell,Marion,TN,Tennessee
37019,Belfast,Marshall,TN,Tennessee
38461,Hampshire,Maury,TN,Tennessee
37171,Southside,Montgomery,TN,Tennessee
38261,Union City,Obion,TN,Tennessee
38281,Union City,Obion,TN,Tennessee
38543,Alpine,Overton,TN,Tennessee
37097,Lobelville,Perry,TN,Tennessee
37307,Benton,Polk,TN,Tennessee
37361,Ocoee,Polk,TN,Tennessee
37369,Reliance,Polk,TN,Tennessee
38501,Cookeville,Putnam,TN,Tennessee
37321,Dayton,Rhea,TN,Tennessee
37337,Grandview,Rhea,TN,Tennessee
37049,Cross Plains,Robertson,TN,Tennessee
37501,Memphis,Shelby,TN,Tennessee
38053,Millington,Shelby,TN,Tennessee
38083,Millington,Shelby,TN,Tennessee
38113,Memphis,Shelby,TN,Tennessee
38119,Memphis,Shelby,TN,Tennessee
38167,Memphis,Shelby,TN,Tennessee
38177,Memphis,Shelby,TN,Tennessee
38183,Germantown,Shelby,TN,Tennessee
38197,Memphis,Shelby,TN,Tennessee
37057,Dixon Springs,Smith,TN,Tennessee
38567,Hickman,Smith,TN,Tennessee
38569,Lancaster,Smith,TN,Tennessee
37663,Kingsport,Sullivan,TN,Tennessee
37699,Piney Flats,Sullivan,TN,Tennessee
38011,Brighton,Tipton,TN,Tennessee
37657,Flag Pond,Unicoi,TN,Tennessee
37357,Morrison,Warren,TN,Tennessee
38237,Martin,Weakley,TN,Tennessee
37087,Lebanon,Wilson,TN,Tennessee
75853,Montalba,Anderson,TX,Texas
75941,Diboll,Angelina,TX,Texas
76379,Scotland,Archer,TX,Texas
76511,Bartlett,Bell,TX,Texas
76541,Killeen,Bell,TX,Texas
76543,Killeen,Bell,TX,Texas
76579,Troy,Bell,TX,Texas
78101,Adkins,Bexar,TX,Texas
78203,San Antonio,Bexar,TX,Texas
78229,San Antonio,Bexar,TX,Texas
78233,San Antonio,Bexar,TX,Texas
78241,San Antonio,Bexar,TX,Texas
78259,San Antonio,Bexar,TX,Texas
78283,San Antonio,Bexar,TX,Texas
76649,Iredell,Bosque,TX,Texas
75503,Texarkana,Bowie,TX,Texas
77431,Danciger,Brazoria,TX,Texas
77801,Bryan,Brazos,TX,Texas
76801,Brownwood,Brown,TX,Texas
77863,Lyons,Burleson,TX,Texas
77983,Seadrift,Calhoun,TX,Texas
78553,Harlingen,Cameron,TX,Texas
78583,Rio Hondo,Cameron,TX,Texas
78593,Santa Rosa,Cameron,TX,Texas
79039,Groom,Carson,TX,Texas
79043,Hart,Castro,TX,Texas
79063,Nazareth,Castro,TX,Texas
79201,Childress,Childress,TX,Texas
79259,Tell,Childress,TX,Texas
79379,Whiteface,Cochran,TX,Texas
76949,Silver,Coke,TX,Texas
76873,Rockwood,Coleman,TX,Texas
75013,Allen,Collin,TX,Texas
75407,Princeton,Collin,TX,Texas
78163,Bulverde,Comal,TX,Texas
78623,Fischer,Comal,TX,Texas
76837,Eden,Concho,TX,Texas
76253,Myra,Cooke,TX,Texas
76561,Oglesby,Coryell,TX,Texas
76597,Gatesville,Coryell,TX,Texas
76943,Ozona,Crockett,TX,Texas
79357,Ralls,Crosby,TX,Texas
79087,Texline,Dallam,TX,Texas
75011,Carrollton,Dallas,TX,Texas
75017,Irving,Dallas,TX,Texas
75041,Garland,Dallas,TX,Texas
75083,Richardson,Dallas,TX,Texas
75149,Mesquite,Dallas,TX,Texas
75181,Mesquite,Dallas,TX,Texas
75209,Dallas,Dallas,TX,Texas
75211,Dallas,Dallas,TX,Texas
75217,Dallas,Dallas,TX,Texas
75223,Dallas,Dallas,TX,Texas
75227,Dallas,Dallas,TX,Texas
75253,Dallas,Dallas,TX,Texas
75277,Dallas,Dallas,TX,Texas
75367,Dallas,Dallas,TX,Texas
75389,Dallas,Dallas,TX,Texas
75391,Dallas,Dallas,TX,Texas
75029,Lewisville,Denton,TX,Texas
76207,Denton,Denton,TX,Texas
76249,Krum,Denton,TX,Texas
76259,Ponder,Denton,TX,Texas
79229,Dickens,Dickens,TX,Texas
78341,Benavides,Duval,TX,Texas
76471,Rising Star,Eastland,TX,Texas
79769,Odessa,Ector,TX,Texas
76883,Telegraph,Edwards,TX,Texas
75167,Waxahachie,Ellis,TX,Texas
76651,Italy,Ellis,TX,Texas
79901,El Paso,El Paso,TX,Texas
79903,El Paso,El Paso,TX,Texas
79907,El Paso,El Paso,TX,Texas
79943,El Paso,El Paso,TX,Texas
79997,El Paso,El Paso,TX,Texas
79999,El Paso,El Paso,TX,Texas
88513,El Paso,El Paso,TX,Texas
88523,El Paso,El Paso,TX,Texas
88547,El Paso,El Paso,TX,Texas
88589,El Paso,El Paso,TX,Texas
75479,Savoy,Fannin,TX,Texas
78941,Flatonia,Fayette,TX,Texas
79231,Dougherty,Floyd,TX,Texas
79241,Lockney,Floyd,TX,Texas
77417,Beasley,Fort Bend,TX,Texas
77471,Rosenberg,Fort Bend,TX,Texas
77477,Stafford,Fort Bend,TX,Texas
77479,Sugar Land,Fort Bend,TX,Texas
77489,Missouri City,Fort Bend,TX,Texas
78017,Dilley,Frio,TX,Texas
77549,Friendswood,Galveston,TX,Texas
77551,Galveston,Galveston,TX,Texas
77563,Hitchcock,Galveston,TX,Texas
77573,League City,Galveston,TX,Texas
77591,Texas City,Galveston,TX,Texas
77617,Gilchrist,Galveston,TX,Texas
75641,Easton,Gregg,TX,Texas
77659,Sour Lake,Hardin,TX,Texas
77003,Houston,Harris,TX,Texas
77017,Houston,Harris,TX,Texas
77023,Houston,Harris,TX,Texas
77029,Houston,Harris,TX,Texas
77041,Houston,Harris,TX,Texas
77047,Houston,Harris,TX,Texas
77069,Houston,Harris,TX,Texas
77081,Houston,Harris,TX,Texas
77093,Houston,Harris,TX,Texas
77201,Houston,Harris,TX,Texas
77213,Houston,Harris,TX,Texas
77237,Houston,Harris,TX,Texas
77243,Houston,Harris,TX,Texas
77249,Houston,Harris,TX,Texas
77261,Houston,Harris,TX,Texas
77263,Houston,Harris,TX,Texas
77267,Houston,Harris,TX,Texas
77269,Houston,Harris,TX,Texas
77279,Houston,Harris,TX,Texas
77291,Houston,Harris,TX,Texas
77339,Kingwood,Harris,TX,Texas
77347,Humble,Harris,TX,Texas
77377,Tomball,Harris,TX,Texas
77383,Spring,Harris,TX,Texas
77447,Hockley,Harris,TX,Texas
77491,Katy,Harris,TX,Texas
77521,Baytown,Harris,TX,Texas
77587,South Houston,Harris,TX,Texas
75659,Jonesville,Harrison,TX,Texas
78539,Edinburg,Hidalgo,TX,Texas
78541,Edinburg,Hidalgo,TX,Texas
78577,Pharr,Hidalgo,TX,Texas
76631,Bynum,Hill,TX,Texas
76673,Mount Calm,Hill,TX,Texas
79367,Smyer,Hockley,TX,Texas
75431,Como,Hopkins,TX,Texas
75437,Dike,Hopkins,TX,Texas
79847,Salt Flat,Hudspeth,TX,Texas
75401,Greenville,Hunt,TX,Texas
75403,Greenville,Hunt,TX,Texas
77969,La Salle,Jackson,TX,Texas
77641,Port Arthur,Jefferson,TX,Texas
77713,Beaumont,Jefferson,TX,Texas
76031,Cleburne,Johnson,TX,Texas
75161,Terrell,Kaufman,TX,Texas
79031,Earth,Lamb,TX,Texas
75833,Centerville,Leon,TX,Texas
77369,Rye,Liberty,TX,Texas
76667,Mexia,Limestone,TX,Texas
76831,Castell,Llano,TX,Texas
78607,Bluffton,Llano,TX,Texas
78643,Llano,Llano,TX,Texas
79411,Lubbock,Lubbock,TX,Texas
79423,Lubbock,Lubbock,TX,Texas
79493,Lubbock,Lubbock,TX,Texas
78007,Calliham,McMullen,TX,Texas
77419,Blessing,Matagorda,TX,Texas
78853,Eagle Pass,Maverick,TX,Texas
78877,Quemado,Maverick,TX,Texas
78059,Natalia,Medina,TX,Texas
76519,Burlington,Milam,TX,Texas
76261,Ringgold,Montague,TX,Texas
75571,Omaha,Morris,TX,Texas
75937,Chireno,Nacogdoches,TX,Texas
75109,Corsicana,Navarro,TX,Texas
76679,Purdon,Navarro,TX,Texas
79537,Nolan,Nolan,TX,Texas
78347,Chapman Ranch,Nueces,TX,Texas
78401,Corpus Christi,Nueces,TX,Texas
78427,Corpus Christi,Nueces,TX,Texas
78467,Corpus Christi,Nueces,TX,Texas
77611,Bridge City,Orange,TX,Texas
76463,Mingus,Palo Pinto,TX,Texas
76487,Poolville,Parker,TX,Texas
77351,Livingston,Polk,TX,Texas
79103,Amarillo,Potter,TX,Texas
79111,Amarillo,Potter,TX,Texas
79159,Amarillo,Potter,TX,Texas
79843,Marfa,Presidio,TX,Texas
77867,Mumford,Robertson,TX,Texas
75653,Henderson,Rusk,TX,Texas
75689,Selman City,Rusk,TX,Texas
75931,Brookeland,Sabine,TX,Texas
77359,Oakhurst,San Jacinto,TX,Texas
76871,Richland Springs,San Saba,TX,Texas
79549,Snyder,Scurry,TX,Texas
75703,Tyler,Smith,TX,Texas
75707,Tyler,Smith,TX,Texas
75709,Tyler,Smith,TX,Texas
76001,Arlington,Tarrant,TX,Texas
76003,Arlington,Tarrant,TX,Texas
76039,Euless,Tarrant,TX,Texas
76099,Grapevine,Tarrant,TX,Texas
76103,Fort Worth,Tarrant,TX,Texas
76123,Fort Worth,Tarrant,TX,Texas
76129,Fort Worth,Tarrant,TX,Texas
76147,Fort Worth,Tarrant,TX,Texas
76163,Fort Worth,Tarrant,TX,Texas
79561,Trent,Taylor,TX,Texas
79601,Abilene,Taylor,TX,Texas
79697,Abilene,Taylor,TX,Texas
79699,Abilene,Taylor,TX,Texas
78653,Manor,Travis,TX,Texas
78691,Pflugerville,Travis,TX,Texas
78713,Austin,Travis,TX,Texas
78721,Austin,Travis,TX,Texas
78737,Austin,Travis,TX,Texas
78779,Austin,Travis,TX,Texas
75979,Woodville,Tyler,TX,Texas
75683,Ore City,Upshur,TX,Texas
75797,Big Sandy,Upshur,TX,Texas
75169,Wills Point,Van Zandt,TX,Texas
77951,Bloomington,Victoria,TX,Texas
77977,Placedo,Victoria,TX,Texas
79777,Pyote,Ward,TX,Texas
78041,Laredo,Webb,TX,Texas
76367,Iowa Park,Wichita,TX,Texas
76369,Kamay,Wichita,TX,Texas
78569,Lyford,Willacy,TX,Texas
76537,Jarrell,Williamson,TX,Texas
78121,La Vernia,Wilson,TX,Texas
75773,Mineola,Wood,TX,Texas
76481,South Bend,Young,TX,Texas
78839,Crystal City,Zavala,TX,Texas
84713,Beaver,Beaver,UT,Utah
84731,Greenville,Beaver,UT,Utah
84751,Milford,Beaver,UT,Utah
84307,Corinne,Box Elder,UT,Utah
84313,Grouse Creek,Box Elder,UT,Utah
84319,Hyrum,Cache,UT,Utah
84011,Bountiful,Davis,UT,Utah
84089,Clearfield,Davis,UT,Utah
84053,Neola,Duchesne,UT,Utah
84521,Elmo,Emery,UT,Utah
84523,Ferron,Emery,UT,Utah
84719,Brian Head,Iron,UT,Utah
84761,Parowan,Iron,UT,Utah
84631,Fillmore,Millard,UT,Utah
84649,Oak City,Millard,UT,Utah
84047,Midvale,Salt Lake,UT,Utah
84121,Salt Lake City,Salt Lake,UT,Utah
84127,Salt Lake City,Salt Lake,UT,Utah
84131,Salt Lake City,Salt Lake,UT,Utah
84143,Salt Lake City,Salt Lake,UT,Utah
84199,Salt Lake City,Salt Lake,UT,Utah
84533,Lake Powell,San Juan,UT,Utah
84629,Fairview,Sanpete,UT,Utah
84701,Richfield,Sevier,UT,Utah
84017,Coalville,Summit,UT,Utah
84061,Peoa,Summit,UT,Utah
84059,Orem,Utah,UT,Utah
84653,Salem,Utah,UT,Utah
84737,Hurricane,Washington,UT,Utah
84067,Roy,Weber,UT,Utah
84317,Huntsville,Weber,UT,Utah
84401,Ogden,Weber,UT,Utah
84407,Ogden,Weber,UT,Utah
23357,Greenbush,Accomack,VA,Virginia
23399,Jenkins Bridge,Accomack,VA,Virginia
23417,Onancock,Accomack,VA,Virginia
22901,Charlottesville,Albemarle,VA,Virginia
22937,Esmont,Albemarle,VA,Virginia
22943,Greenwood,Albemarle,VA,Virginia
24533,Clifford,Amherst,VA,Virginia
24593,Spout Spring,Appomattox,VA,Virginia
24421,Churchville,Augusta,VA,Virginia
24469,New Hope,Augusta,VA,Virginia
24121,Moneta,Bedford,VA,Virginia
24551,Forest,Bedford,VA,Virginia
24019,Roanoke,Botetourt,VA,Virginia
24077,Cloverdale,Botetourt,VA,Virginia
24083,Daleville,Botetourt,VA,Virginia
23857,Gasburg,Brunswick,VA,Virginia
23873,Meredithville,Brunswick,VA,Virginia
23887,Valentines,Brunswick,VA,Virginia
23893,White Plains,Brunswick,VA,Virginia
24239,Davenport,Buchanan,VA,Virginia
24631,Oakwood,Buchanan,VA,Virginia
24517,Altavista,Campbell,VA,Virginia
24571,Lynch Station,Campbell,VA,Virginia
22501,Ladysmith,Caroline,VA,Virginia
24317,Cana,Carroll,VA,Virginia
23297,Richmond,Chesterfield,VA,Virginia
23831,Chester,Chesterfield,VA,Virginia
22741,Stevensburg,Culpeper,VA,Virginia
23027,Cartersville,Cumberland,VA,Virginia
23833,Church Road,Dinwiddie,VA,Virginia
22003,Annandale,Fairfax,VA,Virginia
22027,Dunn Loring,Fairfax,VA,Virginia
22037,Fairfax,Fairfax,VA,Virginia
22039,Fairfax Station,Fairfax,VA,Virginia
22067,Greenway,Fairfax,VA,Virginia
22079,Lorton,Fairfax,VA,Virginia
22109,Mc Lean,Fairfax,VA,Virginia
22153,Springfield,Fairfax,VA,Virginia
22159,Springfield,Fairfax,VA,Virginia
22303,Alexandria,Fairfax,VA,Virginia
22307,Alexandria,Fairfax,VA,Virginia
22639,Hume,Fauquier,VA,Virginia
22643,Markham,Fauquier,VA,Virginia
22739,Somerville,Fauquier,VA,Virginia
24091,Floyd,Floyd,VA,Virginia
22963,Palmyra,Fluvanna,VA,Virginia
24137,Penhook,Franklin,VA,Virginia
24151,Rocky Mount,Franklin,VA,Virginia
22637,Gore,Frederick,VA,Virginia
23003,Ark,Gloucester,VA,Virginia
23131,Ordinary,Gloucester,VA,Virginia
23039,Crozier,Goochland,VA,Virginia
23063,Goochland,Goochland,VA,Virginia
22973,Stanardsville,Greene,VA,Virginia
23879,Skippers,Greensville,VA,Virginia
23059,Glen Allen,Hanover,VA,Virginia
23227,Richmond,Henrico,VA,Virginia
24413,Blue Grass,Highland,VA,Virginia
23431,Smithfield,Isle of Wight,VA,Virginia
23081,Jamestown,James City,VA,Virginia
22481,Jersey,King George,VA,Virginia
24281,Rose Hill,Lee,VA,Virginia
20101,Dulles,Loudoun,VA,Virginia
20117,Middleburg,Loudoun,VA,Virginia
20129,Paeonian Springs,Loudoun,VA,Virginia
20147,Ashburn,Loudoun,VA,Virginia
20149,Ashburn,Loudoun,VA,Virginia
20177,Leesburg,Loudoun,VA,Virginia
23117,Mineral,Louisa,VA,Virginia
22709,Aroda,Madison,VA,Virginia
22727,Madison,Madison,VA,Virginia
23021,Bohannon,Mathews,VA,Virginia
23917,Boydton,Mecklenburg,VA,Virginia
23071,Hartfield,Middlesex,VA,Virginia
24023,Roanoke,Montgomery,VA,Virginia
24061,Blacksburg,Montgomery,VA,Virginia
23011,Barhamsville,New Kent,VA,Virginia
22511,Lottsburg,Northumberland,VA,Virginia
22433,Burr Hill,Orange,VA,Virginia
22567,Unionville,Orange,VA,Virginia
24133,Patrick Springs,Patrick,VA,Virginia
24527,Blairs,Pittsylvania,VA,Virginia
23909,Farmville,Prince Edward,VA,Virginia
23801,Fort Lee,Prince George,VA,Virginia
20143,Catharpin,Prince William,VA,Virginia
22193,Woodbridge,Prince William,VA,Virginia
24179,Vinton,Roanoke,VA,Virginia
24439,Goshen,Rockbridge,VA,Virginia
24473,Rockbridge Baths,Rockbridge,VA,Virginia
22811,Bergton,Rockingham,VA,Virginia
22853,Timberville,Rockingham,VA,Virginia
24251,Gate City,Scott,VA,Virginia
23827,Boykins,Southampton,VA,Virginia
23899,Claremont,Surry,VA,Virginia
22469,Hague,Westmoreland,VA,Virginia
24203,Bristol,Bristol (city),VA,Virginia
22907,Charlottesville,Charlottesville (city),VA,Virginia
23321,Chesapeake,Chesapeake (city),VA,Virginia
23327,Chesapeake,Chesapeake (city),VA,Virginia
22031,Fairfax,Fairfax (city),VA,Virginia
23663,Hampton,Hampton (city),VA,Virginia
23669,Hampton,Hampton (city),VA,Virginia
22807,Harrisonburg,City of Harrisonburg,VA,Virginia
20113,Manassas,Manassas Park (city),VA,Virginia
24113,Martinsville,Martinsville (city),VA,Virginia
23603,Newport News,Newport News (city),VA,Virginia
23609,Newport News,Newport News (city),VA,Virginia
23509,Norfolk,Norfolk (city),VA,Virginia
23173,Richmond,City of Richmond,VA,Virginia
23269,Richmond,City of Richmond,VA,Virginia
23279,Richmond,City of Richmond,VA,Virginia
23291,Richmond,City of Richmond,VA,Virginia
23293,Richmond,City of Richmond,VA,Virginia
24001,Roanoke,Roanoke (city),VA,Virginia
24007,Roanoke,Roanoke (city),VA,Virginia
24029,Roanoke,Roanoke (city),VA,Virginia
24043,Roanoke,Roanoke (city),VA,Virginia
23459,Virginia Beach,Virginia Beach (city),VA,Virginia
05443,Bristol,Addison,VT,Vermont
05669,Roxbury,Addison,VT,Vermont
05261,Pownal,Bennington,VT,Vermont
05821,Barnet,Caledonia,VT,Vermont
05843,Hardwick,Caledonia,VT,Vermont
05849,Lyndon,Caledonia,VT,Vermont
05851,Lyndonville,Caledonia,VT,Vermont
05861,Passumpsic,Caledonia,VT,Vermont
05867,Sutton,Caledonia,VT,Vermont
05407,South Burlington,Chittenden,VT,Vermont
05449,Colchester,Chittenden,VT,Vermont
05477,Richmond,Chittenden,VT,Vermont
05903,Canaan,Essex,VT,Vermont
05441,Bakersfield,Franklin,VT,Vermont
05471,Montgomery Center,Franklin,VT,Vermont
05479,Saint Albans,Franklin,VT,Vermont
05483,Sheldon,Franklin,VT,Vermont
05653,Eden Mills,Lamoille,VT,Vermont
05657,Lake Elmore,Lamoille,VT,Vermont
05039,Corinth,Orange,VT,Vermont
05051,Newbury,Orange,VT,Vermont
05077,Tunbridge,Orange,VT,Vermont
05081,Wells River,Orange,VT,Vermont
05827,Craftsbury Common,Orleans,VT,Vermont
05839,Glover,Orleans,VT,Vermont
05857,Newport Center,Orleans,VT,Vermont
05701,Rutland,Rutland,VT,Vermont
05737,Chittenden,Rutland,VT,Vermont
05741,East Poultney,Rutland,VT,Vermont
05743,Fair Haven,Rutland,VT,Vermont
05641,Barre,Washington,VT,Vermont
05647,Cabot,Washington,VT,Vermont
05651,East Montpelier,Washington,VT,Vermont
05101,Bellows Falls,Windham,VT,Vermont
05303,Brattleboro,Windham,VT,Vermont
05351,South Newfane,Windham,VT,Vermont
05009,White River Junction,Windsor,VT,Vermont
05059,Quechee,Windsor,VT,Vermont
05153,Proctorsville,Windsor,VT,Vermont
99371,Washtucna,Adams,WA,Washington
99401,Anatone,Asotin,WA,Washington
98801,Wenatchee,Chelan,WA,Washington
98807,Wenatchee,Chelan,WA,Washington
98663,Vancouver,Clark,WA,Washington
99347,Pomeroy,Garfield,WA,Washington
98837,Moses Lake,Grant,WA,Washington
99133,Grand Coulee,Grant,WA,Washington
99349,Mattawa,Grant,WA,Washington
98563,Montesano,Grays Harbor,WA,Washington
98009,Bellevue,King,WA,Washington
98011,Bothell,King,WA,Washington
98041,Bothell,King,WA,Washington
98047,Pacific,King,WA,Washington
98057,Renton,King,WA,Washington
98101,Seattle,King,WA,Washington
98129,Seattle,King,WA,Washington
98377,Randle,Lewis,WA,Washington
98533,Cinebar,Lewis,WA,Washington
99103,Almira,Lincoln,WA,Washington
98849,Riverside,Okanogan,WA,Washington
98561,Menlo,Pacific,WA,Washington
98641,Oysterville,Pacific,WA,Washington
99119,Cusick,Pend Oreille,WA,Washington
99139,Ione,Pend Oreille,WA,Washington
98321,Buckley,Pierce,WA,Washington
98323,Carbonado,Pierce,WA,Washington
98327,Dupont,Pierce,WA,Washington
98387,Spanaway,Pierce,WA,Washington
98407,Tacoma,Pierce,WA,Washington
98411,Tacoma,Pierce,WA,Washington
98419,Tacoma,Pierce,WA,Washington
98443,Tacoma,Pierce,WA,Washington
98467,University Place,Pierce,WA,Washington
98297,Waldron,San Juan,WA,Washington
98221,Anacortes,Skagit,WA,Washington
98257,La Conner,Skagit,WA,Washington
98639,North Bonneville,Skamania,WA,Washington
98207,Everett,Snohomish,WA,Washington
98213,Everett,Snohomish,WA,Washington
98251,Gold Bar,Snohomish,WA,Washington
99023,Mica,Spokane,WA,Washington
99223,Spokane,Spokane,WA,Washington
99251,Spokane,Spokane,WA,Washington
99013,Ford,Stevens,WA,Washington
99109,Chewelah,Stevens,WA,Washington
99131,Gifford,Stevens,WA,Washington
99137,Hunters,Stevens,WA,Washington
99173,Springdale,Stevens,WA,Washington
99181,Valley,Stevens,WA,Washington
98507,Olympia,Thurston,WA,Washington
98597,Yelm,Thurston,WA,Washington
98621,Grays River,Wahkiakum,WA,Washington
98227,Bellingham,Whatcom,WA,Washington
99017,Lamont,Whitman,WA,Washington
99149,Malden,Whitman,WA,Washington
98909,Yakima,Yakima,WA,Washington
98939,Parker,Yakima,WA,Washington
98947,Tieton,Yakima,WA,Washington
98953,Zillah,Yakima,WA,Washington
53927,Dellwood,Adams,WI,Wisconsin
54517,Clam Lake,Ashland,WI,Wisconsin
54829,Cumberland,Barron,WI,Wisconsin
54311,Green Bay,Brown,WI,Wisconsin
54629,Fountain City,Buffalo,WI,Wisconsin
54727,Cadott,Chippewa,WI,Wisconsin
54421,Colby,Clark,WI,Wisconsin
54437,Greenwood,Clark,WI,Wisconsin
54493,Willard,Clark,WI,Wisconsin
53923,Cambria,Columbia,WI,Wisconsin
54631,Gays Mills,Crawford,WI,Wisconsin
53527,Cottage Grove,Dane,WI,Wisconsin
53593,Verona,Dane,WI,Wisconsin
53597,Waunakee,Dane,WI,Wisconsin
53717,Madison,Dane,WI,Wisconsin
53719,Madison,Dane,WI,Wisconsin
53777,Madison,Dane,WI,Wisconsin
53783,Madison,Dane,WI,Wisconsin
53791,Madison,Dane,WI,Wisconsin
53003,Ashippun,Dodge,WI,Wisconsin
53047,Lebanon,Dodge,WI,Wisconsin
54751,Menomonie,Dunn,WI,Wisconsin
54121,Florence,Florence,WI,Wisconsin
54979,Van Dyne,Fond du Lac,WI,Wisconsin
54541,Laona,Forest,WI,Wisconsin
53569,Montfort,Grant,WI,Wisconsin
53813,Lancaster,Grant,WI,Wisconsin
53939,Kingston,Green Lake,WI,Wisconsin
54941,Green Lake,Green Lake,WI,Wisconsin
53503,Arena,Iowa,WI,Wisconsin
53507,Barneveld,Iowa,WI,Wisconsin
54547,Mercer,Iron,WI,Wisconsin
54559,Saxon,Iron,WI,Wisconsin
53549,Jefferson,Jefferson,WI,Wisconsin
53551,Lake Mills,Jefferson,WI,Wisconsin
53101,Bassett,Kenosha,WI,Wisconsin
53171,Somers,Kenosha,WI,Wisconsin
54217,Luxemburg,Kewaunee,WI,Wisconsin
54601,La Crosse,La Crosse,WI,Wisconsin
54409,Antigo,Langlade,WI,Wisconsin
54401,Wausau,Marathon,WI,Wisconsin
54403,Wausau,Marathon,WI,Wisconsin
54151,Niagara,Marinette,WI,Wisconsin
53129,Greendale,Milwaukee,WI,Wisconsin
53201,Milwaukee,Milwaukee,WI,Wisconsin
53233,Milwaukee,Milwaukee,WI,Wisconsin
53267,Milwaukee,Milwaukee,WI,Wisconsin
54101,Abrams,Oconto,WI,Wisconsin
54139,Lena,Oconto,WI,Wisconsin
54539,Lake Tomahawk,Oneida,WI,Wisconsin
54919,Appleton,Outagamie,WI,Wisconsin
54721,Arkansaw,Pepin,WI,Wisconsin
54011,Ellsworth,Pierce,WI,Wisconsin
54767,Spring Valley,Pierce,WI,Wisconsin
54001,Amery,Polk,WI,Wisconsin
54443,Junction City,Portage,WI,Wisconsin
53401,Racine,Racine,WI,Wisconsin
53407,Racine,Racine,WI,Wisconsin
54563,Tony,Rusk,WI,Wisconsin
54013,Glenwood City,St. Croix,WI,Wisconsin
53951,North Freedom,Sauk,WI,Wisconsin
53959,Reedsburg,Sauk,WI,Wisconsin
54499,Wittenberg,Shawano,WI,Wisconsin
53093,Waldo,Sheboygan,WI,Wisconsin
54773,Whitehall,Trempealeau,WI,Wisconsin
54623,Coon Valley,Vernon,WI,Wisconsin
54667,Westby,Vernon,WI,Wisconsin
54521,Eagle River,Vilas,WI,Wisconsin
53147,Lake Geneva,Walworth,WI,Wisconsin
53017,Colgate,Washington,WI,Wisconsin
53051,Menomonee Falls,Waukesha,WI,Wisconsin
53069,Okauchee,Waukesha,WI,Wisconsin
53089,Sussex,Waukesha,WI,Wisconsin
53149,Mukwonago,Waukesha,WI,Wisconsin
53189,Waukesha,Waukesha,WI,Wisconsin
54949,Manawa,Waupaca,WI,Wisconsin
54983,Weyauwega,Waupaca,WI,Wisconsin
54413,Babcock,Wood,WI,Wisconsin
54449,Marshfield,Wood,WI,Wisconsin
54469,Port Edwards,Wood,WI,Wisconsin
25169,Ridgeview,Boone,WV,West Virginia
26627,Heaters,Braxton,WV,West Virginia
25537,Lesage,Cabell,WV,West Virginia
25541,Milton,Cabell,WV,West Virginia
25703,Huntington,Cabell,WV,West Virginia
25717,Huntington,Cabell,WV,West Virginia
25771,Huntington,Cabell,WV,West Virginia
25261,Millstone,Calhoun,WV,West Virginia
25111,Indore,Clay,WV,West Virginia
26339,Center Point,Doddridge,WV,West Virginia
25031,Boomer,Fayette,WV,West Virginia
25057,Deep Water,Fayette,WV,West Virginia
26731,Lahmansville,Grant,WV,West Virginia
26833,Maysville,Grant,WV,West Virginia
24943,Grassy Meadows,Greenbrier,WV,West Virginia
24977,Smoot,Greenbrier,WV,West Virginia
25981,Quinwood,Greenbrier,WV,West Virginia
26711,Capon Bridge,Hampshire,WV,West Virginia
26801,Baker,Hardy,WV,West Virginia
26431,Shinnston,Harrison,WV,West Virginia
25423,Halltown,Jefferson,WV,West Virginia
25301,Charleston,Kanawha,WV,West Virginia
25303,South Charleston,Kanawha,WV,West Virginia
25309,South Charleston,Kanawha,WV,West Virginia
25321,Charleston,Kanawha,WV,West Virginia
25339,Charleston,Kanawha,WV,West Virginia
25357,Charleston,Kanawha,WV,West Virginia
26321,Alum Bridge,Lewis,WV,West Virginia
25523,Hamlin,Lincoln,WV,West Virginia
25121,Lake,Logan,WV,West Virginia
25183,Sharples,Logan,WV,West Virginia
25601,Logan,Logan,WV,West Virginia
25639,Peach Creek,Logan,WV,West Virginia
26591,Worthington,Marion,WV,West Virginia
26041,Moundsville,Marshall,WV,West Virginia
25247,Hartford,Mason,WV,West Virginia
25253,Letart,Mason,WV,West Virginia
24733,Lashmeet,Mercer,WV,West Virginia
25841,Flat Top,Mercer,WV,West Virginia
26717,Elk Garden,Mineral,WV,West Virginia
24851,Justice,Mingo,WV,West Virginia
25621,Gilbert,Mingo,WV,West Virginia
25667,Chattaroy,Mingo,WV,West Virginia
26501,Morgantown,Monongalia,WV,West Virginia
25411,Berkeley Springs,Morgan,WV,West Virginia
26261,Richwood,Nicholas,WV,West Virginia
26681,Nettie,Nicholas,WV,West Virginia
26003,Wheeling,Ohio,WV,West Virginia
26209,Snowshoe,Pocahontas,WV,West Virginia
25033,Buffalo,Putnam,WV,West Virginia
25801,Beckley,Raleigh,WV,West Virginia
25849,Glen White,Raleigh,WV,West Virginia
25873,Mac Arthur,Raleigh,WV,West Virginia
25919,Skelton,Raleigh,WV,West Virginia
26263,Dryfork,Randolph,WV,West Virginia
26267,Ellamore,Randolph,WV,West Virginia
26293,Valley Bend,Randolph,WV,West Virginia
26161,Petroleum,Ritchie,WV,West Virginia
25243,Gandeeville,Roane,WV,West Virginia
25951,Hinton,Summers,WV,West Virginia
25969,Jumping Branch,Summers,WV,West Virginia
26347,Flemington,Taylor,WV,West Virginia
26237,Tallmansville,Upshur,WV,West Virginia
26203,Erbacon,Webster,WV,West Virginia
26437,Smithfield,Wetzel,WV,West Virginia
26561,Big Run,Wetzel,WV,West Virginia
26141,Creston,Wirt,WV,West Virginia
24847,Itmann,Wyoming,WV,West Virginia
24859,Marianna,Wyoming,WV,West Virginia
25913,Ravencliff,Wyoming,WV,West Virginia
25943,Wyco,Wyoming,WV,West Virginia
82051,Bosler,Albany,WY,Wyoming
82073,Laramie,Albany,WY,Wyoming
82421,Deaver,Big Horn,WY,Wyoming
82727,Rozet,Campbell,WY,Wyoming
82301,Rawlins,Carbon,WY,Wyoming
82633,Douglas,Converse,WY,Wyoming
82721,Moorcroft,Crook,WY,Wyoming
82729,Sundance,Crook,WY,Wyoming
82217,Hawk Springs,Goshen,WY,Wyoming
82219,Jay Em,Goshen,WY,Wyoming
82223,Lingle,Goshen,WY,Wyoming
82003,Cheyenne,Laramie,WY,Wyoming
82007,Cheyenne,Laramie,WY,Wyoming
82009,Cheyenne,Laramie,WY,Wyoming
83101,Kemmerer,Lincoln,WY,Wyoming
82601,Casper,Natrona,WY,Wyoming
82609,Casper,Natrona,WY,Wyoming
82837,Leiter,Sheridan,WY,Wyoming
82939,Mountain View,Uinta,WY,Wyoming
82723,Osage,Weston,WY,Wyoming
09001,APO AA,38.1105,,
09007,APO AE,49.4077,,
09041,APO AE,48.1374,,
09059,APO AE,49.4052,,
09067,APO AE,49.443,,
09091,APO AE,50.2016,,
09103,APO AE,51.1747,,
09137,APO AE,48.7035,,
09157,APO AE,48.3715,,
09173,APO AE,49.204,,
09187,APO AE,52.5244,,
09227,APO AE,49.443,,
09239,APO AE,49.1344,,
09281,APO AE,48.7995,,
09419,FPO AE,56.8091,,
09421,FPO AE,51.5085,,
09461,APO AE,52.4167,,
09463,APO AE,51.4015,,
09467,APO AE,51.9001,,
09497,APO AE,52.0933,,
09601,APO AE,46.0706,,
09613,APO AE,43.5443,,
09619,FPO AE,40.8522,,
09629,APO AE,45.5467,,
09643,APO AE,41.4136,,
09719,APO AE,46.0706,,
09721,APO AE,60.1695,,
09749,APO AE,26.2886,,
09767,APO AE,26.2886,,
09803,APO AE,24.6877,,
09811,APO AE,21.5424,,
09817,APO AE,38.3502,,
09829,APO AE,15.5518,,
09833,APO AE,27.9158,,
09839,APO AE,30.0626,,
09851,APO AE,24.6877,,
09883,APO AA,24.6877,,
09887,APO AA,24.6877,,
34031,APO AA,-12.0432,,
34033,APO AA,-33.4569,,
34039,APO AA,-0.2299,,
34061,FPO AA,8.95,,
96259,APO AA,35.1028,,
96269,FPO AA,35.0642,,
96323,APO AA,35.7485,,
96337,APO AA,35.6895,,
96377,FPO AA,26.3905,,
96419,FPO AA,15.1423,,
96431,APO AA,15.15,,
96451,FPO AA,14.7944,,
96517,FPO AA,34.2322,,
96553,APO AA,-33.8678,,
